{"type":"FeatureCollection","features":[{"type":"Feature","properties":{"id":28047398,"highway":"unclassified","oneway":"yes"},"geometry":{"type":"LineString","coordinates":[[-2.0687,43.15732],[-2.06872,43.15732],[-2.06877,43.15736],[-2.06881,43.15741],[-2.06883,43.15749],[-2.06881,43.15763],[-2.06879,43.1578],[-2.0688,43.15786],[-2.06882,43.1579],[-2.06888,43.15795],[-2.06909,43.15803]]}},{"type":"Feature","properties":{"id":45768360,"highway":"residential","nombre":"Hozpel kalea"},"geometry":{"type":"LineString","coordinates":[[-2.07231,43.16279],[-2.0718,43.16228]]}},{"type":"Feature","properties":{"id":45768361,"highway":"residential","nombre":"Hozpel kalea"},"geometry":{"type":"LineString","coordinates":[[-2.0718,43.16228],[-2.07181,43.1619],[-2.0718,43.16175]]}},{"type":"Feature","properties":{"id":45768362,"highway":"residential","nombre":"Isasti kalea"},"geometry":{"type":"LineString","coordinates":[[-2.07204,43.16323],[-2.07206,43.16321],[-2.07215,43.16299],[-2.07231,43.16279],[-2.07259,43.16253]]}},{"type":"Feature","properties":{"id":45768364,"highway":"residential","nombre":"Isasti kalea"},"geometry":{"type":"LineString","coordinates":[[-2.07259,43.16253],[-2.07232,43.16239],[-2.07222,43.16225],[-2.07219,43.16208],[-2.07213,43.162]]}},{"type":"Feature","properties":{"id":45768366,"highway":"residential","nombre":"Igarabide pasealekua","oneway":"yes"},"geometry":{"type":"LineString","coordinates":[[-2.0708,43.16208],[-2.07087,43.16204],[-2.07097,43.162],[-2.07102,43.16198],[-2.0718,43.16175]]}},{"type":"Feature","properties":{"id":45768381,"highway":"residential","nombre":"Etxaburu kalea"},"geometry":{"type":"LineString","coordinates":[[-2.07215,43.16299],[-2.07145,43.1623]]}},{"type":"Feature","properties":{"id":45768406,"highway":"service"},"geometry":{"type":"LineString","coordinates":[[-2.07015,43.1611],[-2.07132,43.16078]]}},{"type":"Feature","properties":{"id":45768407,"highway":"residential","nombre":"Iturburu kalea"},"geometry":{"type":"LineString","coordinates":[[-2.0696,43.16097],[-2.06963,43.16096],[-2.07001,43.16086],[-2.07119,43.16054]]}},{"type":"Feature","properties":{"id":45768408,"highway":"residential","nombre":"Solkorre kalea"},"geometry":{"type":"LineString","coordinates":[[-2.07119,43.16054],[-2.07132,43.16078],[-2.07158,43.16131],[-2.0718,43.16175]]}},{"type":"Feature","properties":{"id":45777787,"highway":"residential","nombre":"Errota poligonoa"},"geometry":{"type":"LineString","coordinates":[[-2.06814,43.16229],[-2.06911,43.1621],[-2.06935,43.16277]]}},{"type":"Feature","properties":{"id":45777788,"highway":"residential","nombre":"Errota poligonoa"},"geometry":{"type":"LineString","coordinates":[[-2.06911,43.1621],[-2.06917,43.16206],[-2.06908,43.16169]]}},{"type":"Feature","properties":{"id":45777791,"highway":"service"},"geometry":{"type":"LineString","coordinates":[[-2.07648,43.16358],[-2.07647,43.16369],[-2.07635,43.16379],[-2.07603,43.16393],[-2.07569,43.16405],[-2.07547,43.16407],[-2.07517,43.16409],[-2.07492,43.16408],[-2.07471,43.16413],[-2.07457,43.16422],[-2.0744,43.16435],[-2.07418,43.16444],[-2.07397,43.16454],[-2.07375,43.16461],[-2.07357,43.16466],[-2.07341,43.16473],[-2.07332,43.16478],[-2.07326,43.16486],[-2.07321,43.16491],[-2.0732,43.16497],[-2.07318,43.16514],[-2.07318,43.16533],[-2.07321,43.16551],[-2.07322,43.1656],[-2.0732,43.16569]]}},{"type":"Feature","properties":{"id":45777797,"highway":"residential","nombre":"Errota poligonoa"},"geometry":{"type":"LineString","coordinates":[[-2.06933,43.16292],[-2.069,43.16299],[-2.06872,43.16298],[-2.06856,43.16293],[-2.06844,43.16283],[-2.06826,43.1626],[-2.06814,43.16229],[-2.06805,43.16206]]}},{"type":"Feature","properties":{"id":45777798,"highway":"residential","nombre":"Igarabide pasealekua"},"geometry":{"type":"LineString","coordinates":[[-2.0708,43.16208],[-2.07074,43.16214],[-2.07067,43.16223],[-2.07063,43.16234],[-2.07064,43.16238],[-2.07126,43.16349],[-2.0715,43.16357]]}},{"type":"Feature","properties":{"id":45777799,"highway":"residential","nombre":"Idiakaitz kalea"},"geometry":{"type":"LineString","coordinates":[[-2.0715,43.16357],[-2.0718,43.16414]]}},{"type":"Feature","properties":{"id":45777800,"highway":"residential","nombre":"Idiakaitz kalea"},"geometry":{"type":"LineString","coordinates":[[-2.07162,43.16419],[-2.0718,43.16414],[-2.07214,43.16403],[-2.07219,43.16404],[-2.07227,43.16403],[-2.07247,43.16393],[-2.07258,43.16385]]}},{"type":"Feature","properties":{"id":45777801,"highway":"residential","nombre":"Idiakaitz kalea"},"geometry":{"type":"LineString","coordinates":[[-2.0715,43.16357],[-2.07167,43.16367],[-2.07197,43.16369],[-2.07214,43.16403]]}},{"type":"Feature","properties":{"id":45777804,"highway":"residential","nombre":"Errotaldea lekua"},"geometry":{"type":"LineString","coordinates":[[-2.06974,43.1632],[-2.06982,43.16318],[-2.06994,43.16316],[-2.06997,43.16315],[-2.07016,43.16313],[-2.07042,43.163],[-2.0705,43.16295],[-2.0705,43.1629]]}},{"type":"Feature","properties":{"id":45777805,"highway":"residential","nombre":"Errotaldea lekua"},"geometry":{"type":"LineString","coordinates":[[-2.07016,43.16313],[-2.07019,43.16317],[-2.07032,43.16333],[-2.07041,43.16339],[-2.07053,43.16345],[-2.07059,43.16347]]}},{"type":"Feature","properties":{"id":45856839,"highway":"tertiary","ref":"GI-3650","puente":"yes","superficie":"asphalt"},"geometry":{"type":"LineString","coordinates":[[-2.0698,43.16336],[-2.06979,43.16342],[-2.06977,43.16352],[-2.06972,43.16365],[-2.06968,43.16375]]}},{"type":"Feature","properties":{"id":46010889,"highway":"residential","nombre":"Anoetako industrialdea"},"geometry":{"type":"LineString","coordinates":[[-2.0678,43.15749],[-2.06803,43.15754],[-2.0682,43.15757],[-2.06829,43.15759]]}},{"type":"Feature","properties":{"id":46010896,"highway":"pedestrian"},"geometry":{"type":"LineString","coordinates":[[-2.06746,43.15742],[-2.0673,43.15737]]}},{"type":"Feature","properties":{"id":46010899,"highway":"residential","nombre":"Anoetako industrialdea"},"geometry":{"type":"LineString","coordinates":[[-2.0678,43.15749],[-2.06746,43.15742]]}},{"type":"Feature","properties":{"id":46011065,"highway":"residential"},"geometry":{"type":"LineString","coordinates":[[-2.06912,43.15803],[-2.06939,43.158],[-2.06963,43.15797],[-2.06983,43.15796],[-2.07011,43.15795],[-2.07029,43.15798],[-2.07032,43.158],[-2.07038,43.15835]]}},{"type":"Feature","properties":{"id":46030817,"highway":"pedestrian","nombre":"Anoetako zubia","puente":"yes"},"geometry":{"type":"LineString","coordinates":[[-2.0673,43.15737],[-2.06723,43.15734],[-2.06698,43.15721]]}},{"type":"Feature","properties":{"id":47373593,"highway":"unclassified","nombre":"Anoeta sakabanatua","superficie":"asphalt"},"geometry":{"type":"LineString","coordinates":[[-2.07167,43.16499],[-2.07182,43.16494],[-2.07186,43.1649],[-2.07188,43.16482],[-2.07205,43.16453],[-2.07211,43.16447],[-2.07219,43.1644],[-2.07229,43.16434],[-2.07243,43.16426],[-2.07252,43.16418],[-2.07258,43.16412],[-2.07261,43.16408],[-2.07264,43.16402],[-2.07268,43.16397],[-2.07271,43.16392]]}},{"type":"Feature","properties":{"id":47373594,"highway":"unclassified"},"geometry":{"type":"LineString","coordinates":[[-2.06171,43.17361],[-2.06178,43.17365]]}},{"type":"Feature","properties":{"id":47373595,"highway":"service"},"geometry":{"type":"LineString","coordinates":[[-2.06393,43.17607],[-2.06378,43.17612],[-2.06358,43.17619],[-2.06339,43.17633],[-2.06302,43.17667],[-2.06292,43.1768],[-2.0629,43.17692],[-2.06289,43.17707],[-2.06291,43.17711],[-2.06299,43.17714],[-2.06307,43.17714],[-2.06321,43.17714],[-2.0634,43.1771],[-2.06352,43.17707],[-2.06375,43.17702],[-2.06384,43.17702]]}},{"type":"Feature","properties":{"id":47373596,"highway":"track","nombre":"Legarreta auzoa"},"geometry":{"type":"MultiLineString","coordinates":[[[-2.07374,43.18048],[-2.07377,43.18042],[-2.07391,43.18024],[-2.07392,43.18023]],[[-2.07468,43.17928],[-2.07472,43.17921]]]}},{"type":"Feature","properties":{"id":47373598,"highway":"unclassified"},"geometry":{"type":"LineString","coordinates":[[-2.0646,43.17393],[-2.0647,43.17388],[-2.06482,43.17386]]}},{"type":"Feature","properties":{"id":47373599,"highway":"unclassified"},"geometry":{"type":"LineString","coordinates":[[-2.06479,43.174],[-2.06482,43.1739],[-2.06482,43.17386]]}},{"type":"Feature","properties":{"id":47373600,"highway":"unclassified","nombre":"Elbarren bailara"},"geometry":{"type":"LineString","coordinates":[[-2.06354,43.175],[-2.06363,43.17501],[-2.06374,43.175],[-2.0639,43.17497],[-2.06432,43.17477],[-2.0645,43.17469],[-2.06459,43.17461],[-2.06465,43.17453],[-2.06475,43.17433],[-2.0648,43.17414],[-2.06481,43.17404],[-2.06479,43.174],[-2.06472,43.17397],[-2.0646,43.17393],[-2.06447,43.17389],[-2.06433,43.17381],[-2.06421,43.17374],[-2.06405,43.17365],[-2.06398,43.17362],[-2.06385,43.17357],[-2.06378,43.17357],[-2.06345,43.1737],[-2.06309,43.17386],[-2.06298,43.17393],[-2.06289,43.17401],[-2.06281,43.17412],[-2.06274,43.17424]]}},{"type":"Feature","properties":{"id":47374804,"highway":"track"},"geometry":{"type":"LineString","coordinates":[[-2.06299,43.17714],[-2.06295,43.17717],[-2.06292,43.17721],[-2.0629,43.17727],[-2.06284,43.17737],[-2.06278,43.17741],[-2.06268,43.17744],[-2.0626,43.17743],[-2.06227,43.17735],[-2.06214,43.1773],[-2.06196,43.17719],[-2.06183,43.17709],[-2.06174,43.17698],[-2.06168,43.17686],[-2.06163,43.17682],[-2.06158,43.17681],[-2.06152,43.17682],[-2.06148,43.17686],[-2.06141,43.17697],[-2.06141,43.17712],[-2.06144,43.17731],[-2.06149,43.1775],[-2.06151,43.17768],[-2.0615,43.17783],[-2.06149,43.17786]]}},{"type":"Feature","properties":{"id":47375644,"highway":"unclassified","nombre":"Elbarren bailara"},"geometry":{"type":"LineString","coordinates":[[-2.06194,43.17376],[-2.06222,43.17397],[-2.0624,43.17409],[-2.06253,43.17418],[-2.06258,43.1742],[-2.06263,43.17422],[-2.06274,43.17424],[-2.06274,43.1743],[-2.06272,43.17446],[-2.06274,43.17452],[-2.06279,43.17456],[-2.06286,43.1746],[-2.06306,43.1748],[-2.06328,43.17488],[-2.06354,43.175],[-2.06356,43.17503],[-2.06387,43.17564],[-2.06399,43.17577],[-2.06409,43.17586],[-2.06421,43.17591],[-2.06438,43.17594],[-2.06445,43.17594],[-2.06451,43.17594],[-2.06452,43.17597],[-2.06451,43.17599],[-2.06447,43.17602],[-2.0644,43.17604],[-2.0643,43.17604],[-2.06419,43.17603],[-2.06409,43.17601],[-2.064,43.17603],[-2.06393,43.17607],[-2.06391,43.17613],[-2.06393,43.17631],[-2.06391,43.17638],[-2.06386,43.17646],[-2.06382,43.17652],[-2.06378,43.17662],[-2.06377,43.17673],[-2.06378,43.17685],[-2.06384,43.17702]]}},{"type":"Feature","properties":{"id":47375645,"highway":"unclassified","puente":"yes"},"geometry":{"type":"LineString","coordinates":[[-2.06178,43.17365],[-2.06194,43.17376]]}},{"type":"Feature","properties":{"id":52871765,"highway":"tertiary","ref":"GI-3411","superficie":"asphalt"},"geometry":{"type":"MultiLineString","coordinates":[[[-2.07445,43.1552],[-2.07448,43.1553],[-2.07462,43.15543],[-2.07527,43.15554]],[[-2.07587,43.15583],[-2.07591,43.15605],[-2.07616,43.15645],[-2.07615,43.15656],[-2.07602,43.15657],[-2.07594,43.15653],[-2.07566,43.15629],[-2.07554,43.1561],[-2.07538,43.15606],[-2.07525,43.15613],[-2.075,43.15643],[-2.07485,43.15653],[-2.07464,43.15658],[-2.07362,43.15664],[-2.07348,43.15668],[-2.0734,43.15672],[-2.07307,43.15694],[-2.07285,43.15702],[-2.07261,43.15706],[-2.07202,43.15709],[-2.07165,43.15712],[-2.07134,43.15717],[-2.071,43.15725],[-2.07081,43.1573],[-2.07059,43.15735],[-2.07044,43.15736],[-2.07027,43.15734],[-2.07008,43.15732],[-2.06997,43.15728],[-2.06988,43.15725],[-2.06961,43.15705],[-2.06951,43.15703],[-2.06942,43.15705],[-2.06933,43.1571],[-2.06926,43.15716],[-2.0692,43.15732],[-2.06916,43.15767],[-2.06914,43.15777],[-2.06909,43.15803]]]}},{"type":"Feature","properties":{"id":52918236,"highway":"residential","nombre":"Ergoien Bailara auzoa"},"geometry":{"type":"LineString","coordinates":[[-2.0706,43.15945],[-2.07057,43.15937],[-2.07058,43.15935],[-2.07058,43.15934],[-2.07059,43.15933],[-2.07061,43.15931],[-2.07064,43.1593],[-2.07067,43.15929],[-2.0707,43.15929],[-2.07074,43.1593],[-2.07079,43.15931],[-2.07091,43.15932],[-2.071,43.15933],[-2.07109,43.1595],[-2.07117,43.15966],[-2.07121,43.15973],[-2.07126,43.15983],[-2.07128,43.15987],[-2.07131,43.15991],[-2.07133,43.15992],[-2.07136,43.15994],[-2.07138,43.15995],[-2.0714,43.15996],[-2.07144,43.15997],[-2.07147,43.15997],[-2.0715,43.15997],[-2.07152,43.15997],[-2.07158,43.15996],[-2.07161,43.15995],[-2.07164,43.15993],[-2.07167,43.15992],[-2.0717,43.15988],[-2.07172,43.15985],[-2.07173,43.15982],[-2.07176,43.15963],[-2.07183,43.15946]]}},{"type":"Feature","properties":{"id":52918237,"highway":"unclassified","nombre":"Ergoien Bailara auzoa"},"geometry":{"type":"LineString","coordinates":[[-2.07183,43.15946],[-2.07202,43.15901],[-2.07207,43.15897],[-2.07215,43.1589],[-2.07234,43.15882],[-2.07276,43.15868],[-2.07311,43.15851],[-2.07341,43.15833],[-2.07359,43.15824]]}},{"type":"Feature","properties":{"id":52918238,"highway":"unclassified","nombre":"Ergoien Bailara auzoa"},"geometry":{"type":"LineString","coordinates":[[-2.071,43.15725],[-2.07091,43.15719],[-2.07059,43.15721],[-2.07035,43.15721],[-2.07021,43.1571],[-2.07019,43.15694],[-2.07039,43.15661],[-2.07067,43.15644],[-2.07143,43.15625]]}},{"type":"Feature","properties":{"id":52918249,"highway":"unclassified","nombre":"Ergoien Bailara auzoa","superficie":"concrete"},"geometry":{"type":"LineString","coordinates":[[-2.0765,43.15814],[-2.07659,43.15804],[-2.07654,43.15799],[-2.07627,43.15806],[-2.07596,43.15816],[-2.07583,43.15819],[-2.07523,43.1582],[-2.07462,43.15832],[-2.07338,43.15915]]}},{"type":"Feature","properties":{"id":52918250,"highway":"unclassified"},"geometry":{"type":"LineString","coordinates":[[-2.07359,43.15824],[-2.07363,43.15825],[-2.07365,43.15829],[-2.07366,43.15835],[-2.07353,43.15858],[-2.07344,43.15874],[-2.07338,43.15885],[-2.07336,43.159],[-2.07338,43.15915]]}},{"type":"Feature","properties":{"id":52981693,"highway":"unclassified","nombre":"Anoetako industrialdea","superficie":"asphalt"},"geometry":{"type":"LineString","coordinates":[[-2.07192,43.15159],[-2.07185,43.15156],[-2.07177,43.15154],[-2.07174,43.15153],[-2.07169,43.15153],[-2.07165,43.15154],[-2.07161,43.15158],[-2.07159,43.15163],[-2.07159,43.1517],[-2.07161,43.15183],[-2.07031,43.15381],[-2.06956,43.15485],[-2.06924,43.15538],[-2.06891,43.15586],[-2.06849,43.15646],[-2.06827,43.15693],[-2.06818,43.15714],[-2.06803,43.15754]]}},{"type":"Feature","properties":{"id":52981705,"highway":"unclassified"},"geometry":{"type":"LineString","coordinates":[[-2.0704,43.15383],[-2.07036,43.15382],[-2.07031,43.15381]]}},{"type":"Feature","properties":{"id":52981721,"highway":"unclassified"},"geometry":{"type":"LineString","coordinates":[[-2.06969,43.15489],[-2.06964,43.15488],[-2.06956,43.15485]]}},{"type":"Feature","properties":{"id":52981726,"highway":"unclassified"},"geometry":{"type":"LineString","coordinates":[[-2.069,43.15589],[-2.06896,43.15588],[-2.06891,43.15586]]}},{"type":"Feature","properties":{"id":52981729,"highway":"unclassified"},"geometry":{"type":"LineString","coordinates":[[-2.06863,43.15649],[-2.06857,43.15648],[-2.06849,43.15646]]}},{"type":"Feature","properties":{"id":52981740,"highway":"tertiary","ref":"GI-3650","superficie":"asphalt"},"geometry":{"type":"LineString","coordinates":[[-2.0698,43.16333],[-2.0698,43.16336]]}},{"type":"Feature","properties":{"id":52981745,"highway":"tertiary","nombre":"Argoin kalea","ref":"GI-3650","superficie":"asphalt"},"geometry":{"type":"LineString","coordinates":[[-2.06863,43.15994],[-2.06875,43.1604],[-2.06881,43.16062],[-2.06887,43.16071],[-2.06893,43.1608],[-2.06903,43.16091],[-2.06915,43.16102],[-2.06924,43.16111],[-2.06928,43.16116],[-2.06931,43.1612],[-2.06936,43.16133]]}},{"type":"Feature","properties":{"id":52985118,"highway":"residential","nombre":"Kale Berri"},"geometry":{"type":"LineString","coordinates":[[-2.07001,43.16086],[-2.07015,43.1611],[-2.07027,43.16134]]}},{"type":"Feature","properties":{"id":52985125,"highway":"steps","nombre":"Herriko plaza"},"geometry":{"type":"LineString","coordinates":[[-2.07033,43.16144],[-2.07037,43.16152]]}},{"type":"Feature","properties":{"id":222738879,"highway":"unclassified","nombre":"Goi bailara","superficie":"asphalt"},"geometry":{"type":"LineString","coordinates":[[-2.08249,43.17821],[-2.08249,43.17809],[-2.08253,43.17798],[-2.08261,43.17786],[-2.08272,43.17773],[-2.08277,43.17764],[-2.08281,43.17748],[-2.08285,43.1774],[-2.08289,43.17734],[-2.08296,43.1773],[-2.08303,43.17727],[-2.08342,43.17726],[-2.08357,43.17723],[-2.0837,43.17719],[-2.08378,43.17714],[-2.08384,43.17708],[-2.08388,43.177],[-2.0839,43.17687],[-2.08387,43.17673],[-2.08382,43.17661],[-2.08382,43.17655],[-2.08384,43.17646],[-2.08399,43.17632],[-2.08417,43.17615],[-2.08433,43.17601],[-2.0844,43.17591],[-2.08442,43.1758],[-2.08441,43.17566],[-2.08433,43.17553],[-2.08428,43.17532],[-2.08426,43.17508],[-2.08425,43.17493],[-2.08423,43.1748],[-2.08415,43.17462],[-2.08407,43.17447],[-2.08388,43.17432]]}},{"type":"Feature","properties":{"id":222738900,"highway":"service","nombre":"Beballara"},"geometry":{"type":"LineString","coordinates":[[-2.08164,43.17853],[-2.08167,43.17854]]}},{"type":"Feature","properties":{"id":222882555,"highway":"tertiary","nombre":"San Juan kalea","ref":"GI-3630"},"geometry":{"type":"LineString","coordinates":[[-2.07761,43.16392],[-2.07757,43.16388],[-2.0775,43.16381],[-2.07742,43.16376],[-2.07729,43.1637],[-2.07712,43.16365]]}},{"type":"Feature","properties":{"id":222882571,"highway":"tertiary","nombre":"San Juan kalea","ref":"GI-3630"},"geometry":{"type":"LineString","coordinates":[[-2.08324,43.16364],[-2.08356,43.16375],[-2.08378,43.16385],[-2.08388,43.16389],[-2.08399,43.16392],[-2.08415,43.16396],[-2.0843,43.16399],[-2.08449,43.164],[-2.08464,43.16401],[-2.08466,43.16402],[-2.08468,43.16403],[-2.0847,43.16404],[-2.08472,43.16405],[-2.08474,43.16406],[-2.08475,43.16407],[-2.08477,43.16408],[-2.08479,43.16409],[-2.0848,43.1641],[-2.08482,43.16411],[-2.08483,43.16413],[-2.08484,43.16414],[-2.08485,43.16414],[-2.08486,43.16416],[-2.08487,43.16417],[-2.08488,43.16419],[-2.08528,43.16475],[-2.08532,43.16479],[-2.08538,43.16483],[-2.08546,43.16486],[-2.08553,43.16487],[-2.08558,43.16486],[-2.08563,43.16485],[-2.08568,43.16484],[-2.08572,43.16482],[-2.08577,43.16479],[-2.08583,43.16475],[-2.08587,43.16472],[-2.08591,43.1647],[-2.08592,43.16469],[-2.08593,43.16468],[-2.08594,43.16467],[-2.08595,43.16466],[-2.08597,43.16466],[-2.08598,43.16465],[-2.08599,43.16464],[-2.08601,43.16464],[-2.08602,43.16463],[-2.08604,43.16463],[-2.08606,43.16463],[-2.08618,43.16459],[-2.08632,43.16459],[-2.08647,43.16458],[-2.08654,43.16458],[-2.08659,43.16457],[-2.08664,43.16456],[-2.08667,43.16455],[-2.08669,43.16454],[-2.0867,43.16453],[-2.0867,43.16452],[-2.08671,43.16451],[-2.08672,43.1645],[-2.08673,43.16449],[-2.08673,43.16448],[-2.08674,43.16447],[-2.08674,43.16446],[-2.08675,43.16445],[-2.08675,43.16444],[-2.08675,43.16442],[-2.08675,43.16441],[-2.08675,43.1644],[-2.08669,43.16427],[-2.08665,43.16423],[-2.08662,43.1642],[-2.08661,43.16416],[-2.08661,43.16413],[-2.08662,43.16411],[-2.08665,43.16406],[-2.08671,43.164],[-2.08677,43.16393],[-2.08694,43.16372],[-2.08695,43.16371],[-2.08696,43.1637],[-2.08698,43.16369],[-2.08699,43.16367],[-2.087,43.16366],[-2.08702,43.16365],[-2.08704,43.16364],[-2.08705,43.16363],[-2.08707,43.16362],[-2.08709,43.16361],[-2.0871,43.1636],[-2.08714,43.16359],[-2.08719,43.16358],[-2.08727,43.16357],[-2.08734,43.16358],[-2.08742,43.1636],[-2.08749,43.16362],[-2.08756,43.16366],[-2.08762,43.1637],[-2.08767,43.16376],[-2.08771,43.1638],[-2.08775,43.16386],[-2.08778,43.16395],[-2.08784,43.16412],[-2.08787,43.16417],[-2.08788,43.16419],[-2.08789,43.1642],[-2.08791,43.16422],[-2.08792,43.16424],[-2.08794,43.16425],[-2.08795,43.16427],[-2.08797,43.16428],[-2.08799,43.16429],[-2.08799,43.1643]]}},{"type":"Feature","properties":{"id":222882573,"highway":"tertiary","nombre":"San Juan kalea","ref":"GI-3630"},"geometry":{"type":"LineString","coordinates":[[-2.07057,43.16193],[-2.07065,43.16195],[-2.07069,43.16198],[-2.07072,43.16199],[-2.07075,43.16201],[-2.07076,43.16203],[-2.0708,43.16208]]}},{"type":"Feature","properties":{"id":222882574,"highway":"tertiary","ref":"GI-3630","oneway":"yes"},"geometry":{"type":"LineString","coordinates":[[-2.06934,43.16213],[-2.06939,43.16205],[-2.06947,43.16197],[-2.06953,43.16194]]}},{"type":"Feature","properties":{"id":222882585,"highway":"tertiary","nombre":"San Juan kalea","ref":"GI-3630"},"geometry":{"type":"LineString","coordinates":[[-2.0708,43.16208],[-2.07112,43.16239],[-2.07117,43.16244]]}},{"type":"Feature","properties":{"id":222882588,"highway":"tertiary","nombre":"San Juan kalea","ref":"GI-3630"},"geometry":{"type":"LineString","coordinates":[[-2.07117,43.16244],[-2.07123,43.16249],[-2.07151,43.16276],[-2.07155,43.1628],[-2.07164,43.16288],[-2.07183,43.16306],[-2.07192,43.16313],[-2.072,43.16319],[-2.07204,43.16323]]}},{"type":"Feature","properties":{"id":222882597,"highway":"tertiary","ref":"GI-3630","oneway":"yes"},"geometry":{"type":"LineString","coordinates":[[-2.06979,43.16192],[-2.06968,43.16188]]}},{"type":"Feature","properties":{"id":222882615,"highway":"tertiary","nombre":"San Juan kalea","ref":"GI-3630"},"geometry":{"type":"LineString","coordinates":[[-2.07671,43.16358],[-2.07648,43.16358]]}},{"type":"Feature","properties":{"id":222882623,"highway":"tertiary","nombre":"San Juan kalea","ref":"GI-3630"},"geometry":{"type":"LineString","coordinates":[[-2.07269,43.16391],[-2.07271,43.16392],[-2.07277,43.16393],[-2.07285,43.16395],[-2.07314,43.164],[-2.07334,43.16404],[-2.07349,43.16404],[-2.07359,43.16403],[-2.07363,43.16402],[-2.07372,43.16401],[-2.07379,43.16399],[-2.07383,43.16398],[-2.07389,43.16396],[-2.07393,43.16394],[-2.07403,43.16389],[-2.07413,43.16384],[-2.07417,43.16383],[-2.07426,43.1638],[-2.07435,43.16377],[-2.07436,43.16377],[-2.07448,43.16375],[-2.07466,43.16373],[-2.07472,43.16372],[-2.07484,43.1637]]}},{"type":"Feature","properties":{"id":222882628,"highway":"tertiary","nombre":"San Juan kalea","ref":"GI-3630"},"geometry":{"type":"LineString","coordinates":[[-2.07484,43.1637],[-2.07492,43.1637],[-2.07497,43.16369],[-2.07515,43.16367],[-2.07542,43.16362],[-2.07544,43.16362],[-2.07546,43.16361],[-2.07563,43.16359],[-2.07576,43.16356],[-2.07585,43.16356],[-2.07602,43.16356],[-2.07625,43.16357],[-2.07648,43.16358]]}},{"type":"Feature","properties":{"id":222882635,"highway":"tertiary","nombre":"San Juan kalea","ref":"GI-3630"},"geometry":{"type":"LineString","coordinates":[[-2.07791,43.16454],[-2.07786,43.16444],[-2.07773,43.16415],[-2.07761,43.16392]]}},{"type":"Feature","properties":{"id":222882643,"highway":"tertiary","nombre":"San Juan kalea","ref":"GI-3630"},"geometry":{"type":"LineString","coordinates":[[-2.06979,43.16192],[-2.06996,43.16192]]}},{"type":"Feature","properties":{"id":222882652,"highway":"tertiary","nombre":"San Juan kalea","ref":"GI-3630"},"geometry":{"type":"LineString","coordinates":[[-2.0789,43.16402],[-2.0788,43.16402],[-2.07866,43.16403],[-2.07848,43.16406],[-2.07835,43.1641],[-2.07828,43.16417],[-2.07825,43.16423],[-2.07824,43.16436],[-2.07823,43.16445],[-2.07821,43.16449],[-2.07816,43.16454],[-2.07808,43.16457],[-2.078,43.16457],[-2.07791,43.16454]]}},{"type":"Feature","properties":{"id":222882658,"highway":"tertiary","nombre":"San Juan kalea","ref":"GI-3630"},"geometry":{"type":"LineString","coordinates":[[-2.07016,43.16191],[-2.07033,43.16191],[-2.0704,43.16191],[-2.07049,43.16191],[-2.07053,43.16192],[-2.07057,43.16193]]}},{"type":"Feature","properties":{"id":222882659,"highway":"tertiary","nombre":"San Juan kalea","ref":"GI-3630"},"geometry":{"type":"LineString","coordinates":[[-2.07955,43.16431],[-2.07948,43.16425],[-2.07937,43.16417],[-2.0793,43.16412],[-2.07915,43.16406],[-2.07902,43.16403],[-2.0789,43.16402]]}},{"type":"Feature","properties":{"id":222882665,"highway":"tertiary","nombre":"San Juan kalea","ref":"GI-3630"},"geometry":{"type":"LineString","coordinates":[[-2.08324,43.16364],[-2.08307,43.16358],[-2.08299,43.16356],[-2.08289,43.16353],[-2.08274,43.16351],[-2.08252,43.16347],[-2.08236,43.16345],[-2.08213,43.16343],[-2.08186,43.16342],[-2.08172,43.16341],[-2.08162,43.16341],[-2.08155,43.16342],[-2.08145,43.16343],[-2.08128,43.16347],[-2.08107,43.16354],[-2.0809,43.16363],[-2.08068,43.16374],[-2.08053,43.16382],[-2.08038,43.16392],[-2.08033,43.16398],[-2.08032,43.16405],[-2.08034,43.16409],[-2.08036,43.16413],[-2.08039,43.16417],[-2.08046,43.16422],[-2.08055,43.16428],[-2.08059,43.16432],[-2.08063,43.16436],[-2.08066,43.1644],[-2.08068,43.16443],[-2.08065,43.16447],[-2.08062,43.1645],[-2.08059,43.16454],[-2.08054,43.16456],[-2.08048,43.16457],[-2.08041,43.16457],[-2.08031,43.16457],[-2.08019,43.16456],[-2.08005,43.16454],[-2.07989,43.16451],[-2.0798,43.16448],[-2.07973,43.16445],[-2.07966,43.16441],[-2.07955,43.16431]]}},{"type":"Feature","properties":{"id":222882679,"highway":"tertiary","nombre":"San Juan kalea","ref":"GI-3630"},"geometry":{"type":"LineString","coordinates":[[-2.07712,43.16365],[-2.07704,43.16364],[-2.07696,43.16362],[-2.07684,43.1636],[-2.07671,43.16358]]}},{"type":"Feature","properties":{"id":222882685,"highway":"tertiary","ref":"GI-3630","oneway":"yes"},"geometry":{"type":"LineString","coordinates":[[-2.06961,43.16187],[-2.06954,43.16184],[-2.06947,43.16182],[-2.06943,43.16179],[-2.0694,43.16177],[-2.06936,43.16172]]}},{"type":"Feature","properties":{"id":229605964,"highway":"tertiary","nombre":"San Juan kalea","ref":"GI-3630","puente":"yes"},"geometry":{"type":"LineString","coordinates":[[-2.06996,43.16192],[-2.07011,43.16191],[-2.07016,43.16191]]}},{"type":"Feature","properties":{"id":360849815,"highway":"footway","superficie":"paved"},"geometry":{"type":"LineString","coordinates":[[-2.07091,43.16174],[-2.071,43.16194],[-2.07102,43.16198]]}},{"type":"Feature","properties":{"id":360849816,"highway":"path","superficie":"ground"},"geometry":{"type":"LineString","coordinates":[[-2.07297,43.16212],[-2.07303,43.16197],[-2.07314,43.16193],[-2.07327,43.1619],[-2.07351,43.16188],[-2.07356,43.16168],[-2.07363,43.16143],[-2.07368,43.16117],[-2.0737,43.16102],[-2.07371,43.16088],[-2.07384,43.16062],[-2.07389,43.15979]]}},{"type":"Feature","properties":{"id":360850189,"highway":"track","nombre":"Depositu Berriko bidea","superficie":"paved"},"geometry":{"type":"LineString","coordinates":[[-2.07338,43.15915],[-2.07342,43.15929],[-2.07389,43.15979]]}},{"type":"Feature","properties":{"id":360850538,"highway":"path","nombre":"Isastiko bidea","superficie":"ground"},"geometry":{"type":"LineString","coordinates":[[-2.07351,43.16188],[-2.07366,43.16187],[-2.07379,43.16187],[-2.07388,43.16182],[-2.07407,43.16136],[-2.07437,43.16116],[-2.07467,43.16098],[-2.07506,43.16109],[-2.07552,43.16103],[-2.0759,43.16104],[-2.07644,43.16105]]}},{"type":"Feature","properties":{"id":360850731,"highway":"track","nombre":"Ergoien Bailara auzoa","superficie":"gravel"},"geometry":{"type":"LineString","coordinates":[[-2.07644,43.16105],[-2.07686,43.1608],[-2.07707,43.16067],[-2.07674,43.16022],[-2.07649,43.15988],[-2.07628,43.15975],[-2.0761,43.15955],[-2.07594,43.15916],[-2.0765,43.15814]]}},{"type":"Feature","properties":{"id":360852003,"highway":"track","nombre":"Isasti - Hernialde","superficie":"unpaved"},"geometry":{"type":"LineString","coordinates":[[-2.07707,43.16067],[-2.07725,43.16054],[-2.07738,43.16041],[-2.07746,43.1603],[-2.07754,43.16018],[-2.07761,43.16007],[-2.07768,43.16001],[-2.07774,43.15999],[-2.07796,43.15998],[-2.07806,43.15995],[-2.07815,43.1599],[-2.07825,43.1599],[-2.07838,43.15992],[-2.07857,43.15998],[-2.07864,43.16001],[-2.07873,43.16002],[-2.07883,43.15998],[-2.07896,43.16],[-2.07909,43.16005],[-2.0792,43.16009],[-2.07937,43.16014],[-2.07943,43.16014],[-2.07952,43.16013],[-2.08038,43.15987],[-2.08056,43.15983]]}},{"type":"Feature","properties":{"id":360852798,"highway":"steps"},"geometry":{"type":"LineString","coordinates":[[-2.07197,43.16369],[-2.07198,43.16368],[-2.07201,43.16364]]}},{"type":"Feature","properties":{"id":360854332,"highway":"path","superficie":"ground"},"geometry":{"type":"LineString","coordinates":[[-2.07242,43.16364],[-2.07248,43.16362],[-2.07253,43.16361],[-2.07269,43.16359],[-2.07289,43.16355],[-2.07304,43.16349],[-2.07317,43.16346],[-2.07341,43.16342],[-2.07365,43.1634],[-2.07406,43.16334],[-2.0748,43.16307],[-2.07507,43.16306],[-2.07545,43.16305],[-2.07604,43.16318],[-2.07648,43.16337],[-2.07684,43.1634]]}},{"type":"Feature","properties":{"id":360854333,"highway":"track","nombre":"Osintzulo bidea","superficie":"gravel"},"geometry":{"type":"LineString","coordinates":[[-2.07684,43.1634],[-2.07691,43.16339],[-2.07716,43.16337],[-2.07744,43.16342],[-2.0776,43.16341],[-2.07787,43.16334],[-2.07815,43.16324],[-2.07856,43.16312],[-2.07872,43.16305],[-2.07916,43.16304],[-2.07945,43.163],[-2.07978,43.16297],[-2.08011,43.1629],[-2.08048,43.16281],[-2.08083,43.16273],[-2.08115,43.16262],[-2.0814,43.16251],[-2.08167,43.16238],[-2.08182,43.16228],[-2.08204,43.16216],[-2.08222,43.16211],[-2.08233,43.1621],[-2.08277,43.16222],[-2.08309,43.16235],[-2.08341,43.16248],[-2.08362,43.16253],[-2.08381,43.16258],[-2.08402,43.16266],[-2.08427,43.1627],[-2.08441,43.1627],[-2.08454,43.16266],[-2.08485,43.16257],[-2.08509,43.16247],[-2.08529,43.16232],[-2.08559,43.16229],[-2.08576,43.16225],[-2.08595,43.16221],[-2.08621,43.16218],[-2.08635,43.16217],[-2.0867,43.16219],[-2.08708,43.16226],[-2.08739,43.16237]]}},{"type":"Feature","properties":{"id":360854334,"highway":"footway","superficie":"unpaved"},"geometry":{"type":"LineString","coordinates":[[-2.0748,43.16307],[-2.07423,43.16305],[-2.07388,43.16302],[-2.07369,43.16296],[-2.07354,43.1629]]}},{"type":"Feature","properties":{"id":360855814,"highway":"residential","puente":"yes"},"geometry":{"type":"LineString","coordinates":[[-2.07484,43.1637],[-2.07478,43.16358]]}},{"type":"Feature","properties":{"id":360855815,"highway":"residential"},"geometry":{"type":"LineString","coordinates":[[-2.07478,43.16354],[-2.07476,43.1633]]}},{"type":"Feature","properties":{"id":360855816,"highway":"footway"},"geometry":{"type":"LineString","coordinates":[[-2.07476,43.1633],[-2.0748,43.16307]]}},{"type":"Feature","properties":{"id":360855817,"highway":"footway","superficie":"paved"},"geometry":{"type":"LineString","coordinates":[[-2.07167,43.16499],[-2.07161,43.16497],[-2.07151,43.16465]]}},{"type":"Feature","properties":{"id":360855819,"highway":"footway","nombre":"Errotaldea lekua"},"geometry":{"type":"LineString","coordinates":[[-2.07059,43.16347],[-2.07069,43.16343],[-2.07088,43.16335]]}},{"type":"Feature","properties":{"id":360855820,"highway":"footway"},"geometry":{"type":"LineString","coordinates":[[-2.06996,43.16311],[-2.06997,43.16315],[-2.06999,43.16319],[-2.06993,43.16322],[-2.06987,43.16329]]}},{"type":"Feature","properties":{"id":360858502,"highway":"residential"},"geometry":{"type":"LineString","coordinates":[[-2.072,43.16191],[-2.07202,43.16197],[-2.07205,43.16201],[-2.07213,43.162],[-2.07203,43.16168],[-2.07195,43.16172],[-2.07186,43.1619],[-2.07181,43.1619]]}},{"type":"Feature","properties":{"id":360858503,"highway":"path"},"geometry":{"type":"LineString","coordinates":[[-2.07203,43.16168],[-2.07212,43.16164],[-2.07214,43.16161],[-2.07198,43.16121],[-2.07188,43.16098],[-2.07179,43.16071],[-2.07175,43.16041],[-2.07166,43.16026],[-2.07157,43.16014],[-2.07156,43.16008],[-2.07157,43.16004]]}},{"type":"Feature","properties":{"id":360865191,"highway":"residential","nombre":"Hozpel kalea"},"geometry":{"type":"LineString","coordinates":[[-2.0718,43.16228],[-2.07145,43.1623],[-2.07133,43.1623],[-2.07118,43.16236],[-2.07112,43.16239]]}},{"type":"Feature","properties":{"id":360868042,"highway":"path","superficie":"ground"},"geometry":{"type":"LineString","coordinates":[[-2.07389,43.15979],[-2.07389,43.15962],[-2.07437,43.16004],[-2.07477,43.16052],[-2.07467,43.16098]]}},{"type":"Feature","properties":{"id":360868046,"highway":"footway"},"geometry":{"type":"LineString","coordinates":[[-2.07038,43.15925],[-2.07047,43.1591],[-2.07056,43.15888],[-2.07067,43.15851],[-2.07059,43.15838],[-2.0705,43.15834],[-2.07038,43.15835]]}},{"type":"Feature","properties":{"id":372869877,"highway":"footway"},"geometry":{"type":"LineString","coordinates":[[-2.07177,43.16309],[-2.07145,43.16279],[-2.07111,43.16247],[-2.07074,43.16214],[-2.07067,43.16207],[-2.07063,43.16203],[-2.07056,43.16198],[-2.0705,43.16196],[-2.07034,43.16196]]}},{"type":"Feature","properties":{"id":372869879,"highway":"track"},"geometry":{"type":"LineString","coordinates":[[-2.06144,43.17808],[-2.06161,43.17803],[-2.0618,43.17805],[-2.06196,43.17809],[-2.0623,43.17826],[-2.06255,43.17841],[-2.06274,43.17847],[-2.06297,43.17853],[-2.06313,43.17853],[-2.06327,43.17857],[-2.06347,43.17865],[-2.06353,43.1787]]}},{"type":"Feature","properties":{"id":372869880,"highway":"path","superficie":"wood"},"geometry":{"type":"LineString","coordinates":[[-2.07755,43.17044],[-2.07758,43.17032],[-2.07759,43.17022],[-2.07761,43.17013],[-2.07764,43.17007],[-2.07763,43.17001],[-2.07756,43.16992],[-2.07748,43.16981],[-2.07741,43.16973],[-2.07734,43.1696],[-2.07729,43.16943],[-2.07722,43.16932],[-2.07708,43.16917],[-2.07703,43.16908]]}},{"type":"Feature","properties":{"id":372869881,"highway":"path"},"geometry":{"type":"LineString","coordinates":[[-2.07549,43.16987],[-2.0755,43.16998],[-2.07548,43.17018],[-2.07547,43.1704],[-2.07547,43.17054],[-2.07547,43.17059],[-2.07542,43.17067],[-2.07523,43.1709],[-2.07514,43.17102],[-2.0751,43.17114],[-2.07508,43.17129],[-2.07502,43.17143],[-2.075,43.17155],[-2.07501,43.17164],[-2.07511,43.1719]]}},{"type":"Feature","properties":{"id":372869882,"highway":"path","superficie":"grass"},"geometry":{"type":"LineString","coordinates":[[-2.07803,43.17152],[-2.0781,43.17141],[-2.07817,43.17129],[-2.07821,43.17121],[-2.07823,43.1711],[-2.07821,43.171],[-2.07817,43.17091],[-2.07811,43.17074],[-2.078,43.17065],[-2.07797,43.17064],[-2.07794,43.17064],[-2.07792,43.1706],[-2.07786,43.17055],[-2.07778,43.17052],[-2.07772,43.17052],[-2.07765,43.17056],[-2.07761,43.17058],[-2.07751,43.17058]]}},{"type":"Feature","properties":{"id":372869883,"highway":"footway","nombre":"Apeadero lekua"},"geometry":{"type":"LineString","coordinates":[[-2.06983,43.16211],[-2.06994,43.16226]]}},{"type":"Feature","properties":{"id":372869885,"highway":"footway"},"geometry":{"type":"LineString","coordinates":[[-2.07157,43.16272],[-2.07151,43.16276],[-2.07145,43.16279]]}},{"type":"Feature","properties":{"id":372869887,"highway":"footway","puente":"yes","superficie":"paved"},"geometry":{"type":"LineString","coordinates":[[-2.07151,43.16465],[-2.07147,43.16454]]}},{"type":"Feature","properties":{"id":372869890,"highway":"footway"},"geometry":{"type":"LineString","coordinates":[[-2.07163,43.16686],[-2.07158,43.16685]]}},{"type":"Feature","properties":{"id":372869891,"highway":"unclassified","nombre":"Beballara"},"geometry":{"type":"LineString","coordinates":[[-2.0764,43.17974],[-2.07649,43.17972]]}},{"type":"Feature","properties":{"id":372869892,"highway":"path"},"geometry":{"type":"LineString","coordinates":[[-2.07322,43.16602],[-2.07308,43.16592],[-2.07294,43.16583],[-2.07286,43.16573],[-2.07281,43.16549],[-2.07272,43.1653],[-2.07269,43.16514],[-2.07262,43.16503],[-2.07259,43.16496],[-2.07257,43.16493],[-2.07256,43.16485],[-2.07256,43.16481],[-2.07255,43.16477],[-2.07254,43.16474],[-2.07249,43.16475],[-2.07246,43.16484],[-2.07242,43.16492],[-2.07238,43.16501],[-2.07234,43.16506],[-2.07228,43.16508],[-2.07221,43.16505],[-2.07218,43.16501],[-2.07213,43.16489],[-2.07213,43.16482],[-2.07216,43.16469],[-2.07224,43.16454],[-2.07229,43.16447]]}},{"type":"Feature","properties":{"id":372869893,"highway":"track"},"geometry":{"type":"LineString","coordinates":[[-2.07703,43.16908],[-2.07695,43.16899],[-2.0768,43.16883],[-2.07665,43.16871],[-2.0765,43.1686],[-2.07629,43.16851],[-2.07618,43.16845],[-2.07614,43.1684],[-2.07614,43.1683],[-2.07615,43.1682],[-2.07613,43.16808],[-2.07609,43.16802],[-2.07605,43.1679],[-2.07599,43.16773],[-2.07594,43.16763],[-2.07592,43.16751],[-2.07591,43.16741],[-2.07589,43.1674],[-2.07586,43.16738],[-2.07582,43.16739],[-2.07574,43.16749],[-2.07563,43.16763],[-2.0755,43.16776],[-2.07528,43.16794],[-2.07506,43.16812],[-2.07499,43.16819],[-2.07497,43.1683],[-2.07495,43.16855],[-2.07489,43.16898],[-2.07484,43.16905]]}},{"type":"Feature","properties":{"id":372869894,"highway":"footway"},"geometry":{"type":"LineString","coordinates":[[-2.07067,43.16207],[-2.07075,43.16201],[-2.0708,43.16199]]}},{"type":"Feature","properties":{"id":372869895,"highway":"footway","puente":"yes","superficie":"asphalt"},"geometry":{"type":"LineString","coordinates":[[-2.06987,43.16329],[-2.06984,43.1635],[-2.06979,43.16366],[-2.06974,43.16377]]}},{"type":"Feature","properties":{"id":372869896,"highway":"footway","puente":"yes"},"geometry":{"type":"LineString","coordinates":[[-2.07158,43.16685],[-2.07131,43.1668]]}},{"type":"Feature","properties":{"id":372869897,"highway":"track"},"geometry":{"type":"LineString","coordinates":[[-2.06481,43.17404],[-2.06488,43.17416],[-2.06491,43.17444],[-2.06484,43.17479],[-2.06479,43.17496],[-2.06478,43.17507],[-2.06482,43.17523],[-2.06489,43.17542],[-2.06496,43.17548],[-2.06505,43.17555],[-2.06523,43.17568],[-2.06551,43.17586],[-2.06564,43.17589],[-2.06576,43.1759],[-2.06587,43.17588],[-2.06601,43.17582],[-2.06611,43.17577],[-2.06626,43.17562],[-2.06654,43.17543],[-2.0668,43.17527],[-2.06702,43.17512],[-2.06727,43.17494],[-2.06755,43.17476],[-2.06776,43.17469],[-2.06781,43.17465],[-2.06803,43.17448],[-2.06822,43.17434],[-2.06843,43.17417],[-2.06851,43.17411],[-2.06859,43.17408],[-2.0687,43.17406],[-2.06898,43.17406],[-2.06919,43.17402],[-2.06938,43.17394],[-2.06956,43.17384]]}},{"type":"Feature","properties":{"id":372869898,"highway":"track","superficie":"ground"},"geometry":{"type":"LineString","coordinates":[[-2.0732,43.16569],[-2.07317,43.16572],[-2.07317,43.16576],[-2.07321,43.16594],[-2.07322,43.16599],[-2.07322,43.16602],[-2.07319,43.16609],[-2.0731,43.16618],[-2.07302,43.16632],[-2.07293,43.16651],[-2.0729,43.16664],[-2.07289,43.16697],[-2.07289,43.16712],[-2.07297,43.16741],[-2.07305,43.16755],[-2.07309,43.16765],[-2.07311,43.16773],[-2.07317,43.16788],[-2.07327,43.16807],[-2.07337,43.16819],[-2.07349,43.16829],[-2.07365,43.16836],[-2.07372,43.16842],[-2.07377,43.16849],[-2.07384,43.16862],[-2.07391,43.16874],[-2.07403,43.16881],[-2.07419,43.16891],[-2.07441,43.16901],[-2.07459,43.16906],[-2.07474,43.16906],[-2.07484,43.16905],[-2.07499,43.16908],[-2.07529,43.16919],[-2.07543,43.1693],[-2.07555,43.1695],[-2.07559,43.16964],[-2.07556,43.16974],[-2.07549,43.16987]]}},{"type":"Feature","properties":{"id":372869899,"highway":"track"},"geometry":{"type":"LineString","coordinates":[[-2.07803,43.17152],[-2.07805,43.17158],[-2.07805,43.1717],[-2.07799,43.17199]]}},{"type":"Feature","properties":{"id":372869900,"highway":"service"},"geometry":{"type":"LineString","coordinates":[[-2.06482,43.17386],[-2.06492,43.17385],[-2.06504,43.17383],[-2.06516,43.17381]]}},{"type":"Feature","properties":{"id":372869901,"highway":"track","nombre":"Goi bailara"},"geometry":{"type":"LineString","coordinates":[[-2.06956,43.17384],[-2.06981,43.17373],[-2.06997,43.17365],[-2.07012,43.1736],[-2.07033,43.17354],[-2.0706,43.17348],[-2.07075,43.17343],[-2.07092,43.17336],[-2.07125,43.17317],[-2.0715,43.17303],[-2.07179,43.17288],[-2.07229,43.17262],[-2.07242,43.17257],[-2.07258,43.17255],[-2.07283,43.17251],[-2.07314,43.17244],[-2.07351,43.17237],[-2.07363,43.17234],[-2.07375,43.17234],[-2.07407,43.17234],[-2.07427,43.17231],[-2.07439,43.17227],[-2.07454,43.1722],[-2.07474,43.17208],[-2.07485,43.17199],[-2.07495,43.17195],[-2.07511,43.1719],[-2.07529,43.17186],[-2.07538,43.17183],[-2.07541,43.17182],[-2.07566,43.1717],[-2.07583,43.17162],[-2.07601,43.17155],[-2.07612,43.17151],[-2.07623,43.1715],[-2.07643,43.17149],[-2.07654,43.1715],[-2.07664,43.17151],[-2.07675,43.17147],[-2.07685,43.17142],[-2.07698,43.17138],[-2.07711,43.17135],[-2.07721,43.17135],[-2.07732,43.17132],[-2.0776,43.17125],[-2.0777,43.17124],[-2.07778,43.17125],[-2.07783,43.17126],[-2.07788,43.17129],[-2.07793,43.17134],[-2.078,43.17145],[-2.07803,43.17152]]}},{"type":"Feature","properties":{"id":372869902,"highway":"service","superficie":"asphalt"},"geometry":{"type":"LineString","coordinates":[[-2.07261,43.16408],[-2.07261,43.16415],[-2.07259,43.1642],[-2.0725,43.16429],[-2.07235,43.1644],[-2.07229,43.16447]]}},{"type":"Feature","properties":{"id":372869903,"highway":"unclassified","nombre":"Elbarren bailara","superficie":"asphalt"},"geometry":{"type":"LineString","coordinates":[[-2.07163,43.16686],[-2.07148,43.16728],[-2.07123,43.16783],[-2.07107,43.16808],[-2.07098,43.1682],[-2.07098,43.16824],[-2.07099,43.1683],[-2.0711,43.16838],[-2.07101,43.16855],[-2.07096,43.16867],[-2.0709,43.16924],[-2.07087,43.16931],[-2.07082,43.16939],[-2.07057,43.16973],[-2.07047,43.16983],[-2.07024,43.16998],[-2.06992,43.17018],[-2.0697,43.17028],[-2.06938,43.17038],[-2.0692,43.17042],[-2.06902,43.17043],[-2.06879,43.17042],[-2.06864,43.17042],[-2.06851,43.17041],[-2.06844,43.17041],[-2.06828,43.17039],[-2.06819,43.1704],[-2.06799,43.17047],[-2.06764,43.17061],[-2.06756,43.17066],[-2.06743,43.17076],[-2.06735,43.17081],[-2.06716,43.17089],[-2.06434,43.17215],[-2.06343,43.1726],[-2.06265,43.17304],[-2.06225,43.17331],[-2.06207,43.1734],[-2.06188,43.1735],[-2.06171,43.17361],[-2.06162,43.17372],[-2.06154,43.17384],[-2.06142,43.17398],[-2.06112,43.17426],[-2.06095,43.17443],[-2.06065,43.17477],[-2.06033,43.17522],[-2.06009,43.17561],[-2.05989,43.17595],[-2.05971,43.17628],[-2.05942,43.17686],[-2.0593,43.1771],[-2.05918,43.17728],[-2.05915,43.17733]]}},{"type":"Feature","properties":{"id":372869905,"highway":"footway","nombre":"Errotaldea lekua","superficie":"paved"},"geometry":{"type":"LineString","coordinates":[[-2.07147,43.16454],[-2.07143,43.16434],[-2.07124,43.16394],[-2.07111,43.16374],[-2.07088,43.16335],[-2.07076,43.16317],[-2.07061,43.16297],[-2.0705,43.1629]]}},{"type":"Feature","properties":{"id":372869906,"highway":"track"},"geometry":{"type":"LineString","coordinates":[[-2.07549,43.16987],[-2.07537,43.17013],[-2.07527,43.1703],[-2.07521,43.17037],[-2.07513,43.17043],[-2.07481,43.17053],[-2.07467,43.1706],[-2.07453,43.17071],[-2.07444,43.17081],[-2.07435,43.17086],[-2.07393,43.17094],[-2.07363,43.17097],[-2.07348,43.17101],[-2.07334,43.17109],[-2.07325,43.17115],[-2.07322,43.17121],[-2.07322,43.1713],[-2.07325,43.1714],[-2.07325,43.17146],[-2.07323,43.17152],[-2.0731,43.17165],[-2.07303,43.17175],[-2.07294,43.17188],[-2.07288,43.17195],[-2.07279,43.17201],[-2.07266,43.17207],[-2.07254,43.17209],[-2.07239,43.1721],[-2.07219,43.17208],[-2.07203,43.17208],[-2.07192,43.17211],[-2.07179,43.1722],[-2.07158,43.17239],[-2.07144,43.17253],[-2.07126,43.17267],[-2.07109,43.17279],[-2.07093,43.17286],[-2.07078,43.17291],[-2.07064,43.17295],[-2.07055,43.17295],[-2.07044,43.17292],[-2.07032,43.17286],[-2.07025,43.17284],[-2.07018,43.17284],[-2.07008,43.17285],[-2.07002,43.17288],[-2.06996,43.17295],[-2.06991,43.17305],[-2.06979,43.1734],[-2.06966,43.17366],[-2.06956,43.17384],[-2.06954,43.17391],[-2.06936,43.17417],[-2.06922,43.17434],[-2.06919,43.17439],[-2.06913,43.17458],[-2.06896,43.17517],[-2.06894,43.17524],[-2.0689,43.17537],[-2.06886,43.17545],[-2.06884,43.17554],[-2.06882,43.17564],[-2.06864,43.17592],[-2.06848,43.17617],[-2.06834,43.17642],[-2.0683,43.1765],[-2.06828,43.17659],[-2.06825,43.17665],[-2.06822,43.17668],[-2.06815,43.17674],[-2.06806,43.17687],[-2.068,43.17697],[-2.06791,43.17703],[-2.06782,43.17707],[-2.06773,43.17711],[-2.06764,43.17712],[-2.06755,43.17714],[-2.06744,43.17713],[-2.06723,43.17708],[-2.067,43.17705],[-2.06681,43.17707],[-2.06666,43.17707],[-2.0665,43.17708],[-2.06641,43.17708],[-2.06629,43.1771],[-2.0661,43.17714],[-2.06593,43.17718],[-2.06576,43.17722],[-2.06569,43.17725],[-2.06564,43.17728]]}},{"type":"Feature","properties":{"id":415515234,"highway":"unclassified","tunel":"yes"},"geometry":{"type":"LineString","coordinates":[[-2.06859,43.1573],[-2.06847,43.15728]]}},{"type":"Feature","properties":{"id":423011576,"highway":"cycleway","superficie":"asphalt"},"geometry":{"type":"LineString","coordinates":[[-2.07208,43.15108],[-2.07214,43.15089],[-2.0722,43.15063]]}},{"type":"Feature","properties":{"id":436554720,"highway":"path","nombre":"Isasti - Osinzulo","superficie":"ground"},"geometry":{"type":"LineString","coordinates":[[-2.07707,43.16067],[-2.07731,43.16104],[-2.07744,43.16132],[-2.07752,43.16153],[-2.07761,43.16161],[-2.07773,43.1617],[-2.07792,43.16172],[-2.07806,43.16173],[-2.07857,43.16168],[-2.07877,43.16171],[-2.07893,43.16175],[-2.07909,43.16178],[-2.07925,43.16176],[-2.07942,43.16174],[-2.07963,43.16169],[-2.07998,43.16162],[-2.08023,43.16162],[-2.08031,43.16163],[-2.08059,43.16167],[-2.08077,43.16168],[-2.08092,43.16169],[-2.08105,43.16168],[-2.08125,43.16164],[-2.08149,43.16163],[-2.08168,43.16159],[-2.08196,43.16161],[-2.08214,43.16156],[-2.08234,43.16152],[-2.08253,43.16146],[-2.08262,43.16146],[-2.08274,43.1615],[-2.08294,43.16155],[-2.08338,43.16167],[-2.08363,43.16172],[-2.08377,43.16172],[-2.084,43.16171],[-2.08409,43.16172],[-2.08417,43.16177],[-2.08425,43.16188],[-2.08429,43.16195],[-2.0844,43.16207],[-2.08449,43.16209],[-2.08458,43.16208],[-2.08473,43.16204],[-2.08498,43.16198],[-2.08517,43.16195],[-2.08547,43.16192],[-2.08572,43.16194],[-2.08593,43.16197],[-2.08603,43.162],[-2.08609,43.16203],[-2.08616,43.16209],[-2.08621,43.16218]]}},{"type":"Feature","properties":{"id":436661315,"highway":"path"},"geometry":{"type":"LineString","coordinates":[[-2.08183,43.16039],[-2.08162,43.16043],[-2.08113,43.16053],[-2.08068,43.16066],[-2.08048,43.16071],[-2.08025,43.16078],[-2.07989,43.16087],[-2.07933,43.1608],[-2.07864,43.16093],[-2.07815,43.16105],[-2.07782,43.16097],[-2.07745,43.16085],[-2.07707,43.16067]]}},{"type":"Feature","properties":{"id":447019113,"highway":"residential"},"geometry":{"type":"LineString","coordinates":[[-2.07478,43.16358],[-2.07478,43.16354],[-2.07518,43.16349]]}},{"type":"Feature","properties":{"id":456573459,"highway":"path"},"geometry":{"type":"LineString","coordinates":[[-2.07644,43.16105],[-2.07637,43.16112],[-2.07625,43.1612],[-2.07609,43.16128],[-2.07591,43.16134],[-2.0756,43.16142],[-2.07535,43.16147],[-2.07514,43.16148],[-2.07498,43.16147],[-2.07488,43.16145],[-2.07481,43.16139],[-2.07474,43.1613],[-2.07469,43.16121],[-2.07469,43.16106],[-2.07467,43.16098]]}},{"type":"Feature","properties":{"id":456573462,"highway":"path"},"geometry":{"type":"LineString","coordinates":[[-2.07488,43.16145],[-2.07487,43.16149],[-2.07493,43.16157],[-2.07511,43.16169],[-2.07521,43.16173],[-2.07531,43.16176],[-2.07547,43.16178],[-2.07561,43.16181],[-2.07576,43.16188],[-2.07594,43.162],[-2.07606,43.16211],[-2.07607,43.16214],[-2.07606,43.16216],[-2.07604,43.16218],[-2.07593,43.1622],[-2.07591,43.16221],[-2.07591,43.16224],[-2.07596,43.16231],[-2.07595,43.16233],[-2.07591,43.16237],[-2.07585,43.16238],[-2.07578,43.16239],[-2.07567,43.16239],[-2.07565,43.1624],[-2.07566,43.16242],[-2.07569,43.16243],[-2.07579,43.16248],[-2.07581,43.16251],[-2.07586,43.16257],[-2.07589,43.1626],[-2.07599,43.16267],[-2.07607,43.16273],[-2.07611,43.16278],[-2.0761,43.16282],[-2.07609,43.16285],[-2.07603,43.16289],[-2.076,43.16291],[-2.07588,43.16295],[-2.07558,43.16303],[-2.07545,43.16305]]}},{"type":"Feature","properties":{"id":456575432,"highway":"track"},"geometry":{"type":"LineString","coordinates":[[-2.07499,43.16819],[-2.07506,43.16794],[-2.07516,43.16771],[-2.0753,43.1673],[-2.07532,43.16701],[-2.07536,43.16686],[-2.07538,43.16674],[-2.07536,43.16661],[-2.07529,43.16649],[-2.07523,43.16639],[-2.0752,43.16631],[-2.07519,43.16629],[-2.07518,43.16627],[-2.07519,43.16622],[-2.07521,43.16618],[-2.07529,43.16615],[-2.07535,43.16613],[-2.07541,43.16614],[-2.0756,43.16616],[-2.07575,43.16617],[-2.07598,43.16616],[-2.07611,43.16617],[-2.07628,43.16622],[-2.0764,43.16625],[-2.07653,43.16632],[-2.07676,43.1664],[-2.07692,43.16647],[-2.07697,43.16653],[-2.07699,43.16662],[-2.07697,43.16671],[-2.07694,43.16687],[-2.07696,43.16706],[-2.07695,43.16718],[-2.07691,43.16728],[-2.07693,43.16734],[-2.07698,43.16741],[-2.07714,43.16751],[-2.07728,43.16758]]}},{"type":"Feature","properties":{"id":456575433,"highway":"track","nombre":"Goi bailara","superficie":"asphalt"},"geometry":{"type":"LineString","coordinates":[[-2.08231,43.17126],[-2.08232,43.17134],[-2.08232,43.17144],[-2.08229,43.17152],[-2.08223,43.17164],[-2.08216,43.17169],[-2.08207,43.17173],[-2.08195,43.17176],[-2.08183,43.17177],[-2.08175,43.17176],[-2.08166,43.17175],[-2.08152,43.17178],[-2.08145,43.1718],[-2.0814,43.17182],[-2.08126,43.17187],[-2.08105,43.17199],[-2.08093,43.17208],[-2.08085,43.17216],[-2.08073,43.17231],[-2.08036,43.17273],[-2.08023,43.17287],[-2.08011,43.17302],[-2.08007,43.1731],[-2.08001,43.17317],[-2.07991,43.17329],[-2.07985,43.17335],[-2.07979,43.17342],[-2.07971,43.17358],[-2.07962,43.17377],[-2.07952,43.17394],[-2.07948,43.17399],[-2.07937,43.17417],[-2.0793,43.17425],[-2.07925,43.17431],[-2.07915,43.17441],[-2.07907,43.17451],[-2.07902,43.17459],[-2.07899,43.17467],[-2.07898,43.17475],[-2.07896,43.17486],[-2.07897,43.17508],[-2.07902,43.17537],[-2.07902,43.17548],[-2.07901,43.17553]]}},{"type":"Feature","properties":{"id":456575434,"highway":"path"},"geometry":{"type":"LineString","coordinates":[[-2.07948,43.17399],[-2.07936,43.174],[-2.0792,43.17397],[-2.07912,43.17394],[-2.07899,43.17385],[-2.0789,43.17381],[-2.0788,43.17381],[-2.07866,43.17384],[-2.0785,43.1739],[-2.07834,43.17399],[-2.07822,43.17404],[-2.07806,43.17407],[-2.0778,43.17408],[-2.07757,43.17405],[-2.07746,43.17406],[-2.07721,43.17408],[-2.07703,43.17407],[-2.07676,43.174],[-2.07659,43.17402],[-2.07636,43.17408]]}},{"type":"Feature","properties":{"id":456575435,"highway":"path"},"geometry":{"type":"LineString","coordinates":[[-2.07557,43.177],[-2.07571,43.17683],[-2.07589,43.17667],[-2.07597,43.17658],[-2.07604,43.17651],[-2.07615,43.17638],[-2.07629,43.17631],[-2.07643,43.17626],[-2.07656,43.17622],[-2.07667,43.17617],[-2.0768,43.17616],[-2.07694,43.17612],[-2.07707,43.17609],[-2.07723,43.17601],[-2.07727,43.17596],[-2.07739,43.17585],[-2.0775,43.17569],[-2.07761,43.1756],[-2.07774,43.17548],[-2.07779,43.1754],[-2.07782,43.17529],[-2.07782,43.17517],[-2.07786,43.17502],[-2.0779,43.17483],[-2.07792,43.17469],[-2.07798,43.17457],[-2.07803,43.1745],[-2.07804,43.17439],[-2.07808,43.17428],[-2.07808,43.17416],[-2.07806,43.17407],[-2.07806,43.17401],[-2.07804,43.17392],[-2.07809,43.17381],[-2.07814,43.17377],[-2.07819,43.17369],[-2.0782,43.17362],[-2.07821,43.17353],[-2.07817,43.17348],[-2.07811,43.17345],[-2.07803,43.17345],[-2.07794,43.17348],[-2.07788,43.17346],[-2.07785,43.17343],[-2.07786,43.17333],[-2.07788,43.17324],[-2.07799,43.17304],[-2.07804,43.1729],[-2.07812,43.17265],[-2.07817,43.17249],[-2.07821,43.17234],[-2.0782,43.17217],[-2.07822,43.17204],[-2.07822,43.17195],[-2.07816,43.17183],[-2.07812,43.17175],[-2.07805,43.17158]]}},{"type":"Feature","properties":{"id":456575436,"highway":"path"},"geometry":{"type":"LineString","coordinates":[[-2.07799,43.17199],[-2.07796,43.17211],[-2.07788,43.17226],[-2.07781,43.17241],[-2.07777,43.17254],[-2.07776,43.1727],[-2.07773,43.17298],[-2.07776,43.17315],[-2.07782,43.17321],[-2.07788,43.17324],[-2.07798,43.17325],[-2.07814,43.17325],[-2.07831,43.1732],[-2.07844,43.17315],[-2.07852,43.1731],[-2.07856,43.17306],[-2.0786,43.17298],[-2.07865,43.17288],[-2.0787,43.17274],[-2.07878,43.17253],[-2.0788,43.17232],[-2.07879,43.17225],[-2.07878,43.17222],[-2.07876,43.17218],[-2.0787,43.17206],[-2.07858,43.1719],[-2.07849,43.17183],[-2.07835,43.17175],[-2.0782,43.17165],[-2.07811,43.17159],[-2.07805,43.17158]]}},{"type":"Feature","properties":{"id":456575437,"highway":"path","superficie":"grass"},"geometry":{"type":"LineString","coordinates":[[-2.07755,43.17044],[-2.07753,43.17053],[-2.07751,43.17058],[-2.07748,43.17064],[-2.07746,43.17068],[-2.0774,43.17081],[-2.07731,43.17104],[-2.07725,43.17124],[-2.07721,43.17135]]}},{"type":"Feature","properties":{"id":456575438,"highway":"path"},"geometry":{"type":"LineString","coordinates":[[-2.07729,43.16943],[-2.07726,43.16951],[-2.0772,43.16958],[-2.07714,43.16968],[-2.07705,43.16987],[-2.077,43.17002],[-2.07699,43.17012],[-2.07698,43.17025],[-2.07693,43.17041],[-2.07685,43.17058],[-2.07675,43.17075],[-2.07669,43.17084],[-2.07661,43.17094],[-2.07653,43.17101],[-2.07645,43.17107],[-2.07628,43.17114],[-2.07612,43.1712],[-2.07592,43.17127],[-2.0758,43.17132],[-2.07568,43.17142],[-2.07555,43.1716],[-2.07544,43.17173],[-2.07538,43.17183]]}},{"type":"Feature","properties":{"id":456575711,"highway":"unclassified","nombre":"Goi bailara"},"geometry":{"type":"LineString","coordinates":[[-2.08166,43.17175],[-2.08158,43.17169],[-2.08149,43.17162],[-2.08142,43.17154],[-2.08132,43.17137],[-2.08128,43.17125],[-2.08123,43.17116],[-2.08114,43.17107],[-2.08107,43.17097],[-2.08094,43.17062],[-2.08086,43.17043],[-2.08072,43.17018],[-2.08059,43.16999],[-2.08052,43.1698],[-2.08045,43.16961],[-2.08045,43.1695],[-2.08045,43.1693],[-2.08045,43.16919],[-2.08043,43.16915],[-2.08036,43.16909],[-2.0801,43.16895],[-2.07997,43.16883],[-2.07977,43.16863],[-2.07964,43.1685],[-2.07957,43.16841],[-2.07952,43.16831],[-2.07943,43.1682],[-2.07932,43.16805],[-2.07923,43.16796],[-2.07909,43.16781],[-2.079,43.16771],[-2.07894,43.16761],[-2.07887,43.16748],[-2.0788,43.1673],[-2.07869,43.1671],[-2.07866,43.16696],[-2.07865,43.16689],[-2.07868,43.16682],[-2.07872,43.16676],[-2.07878,43.16673],[-2.07885,43.16673],[-2.07897,43.16672],[-2.07915,43.16674],[-2.0792,43.16672],[-2.07921,43.16667],[-2.07919,43.16662],[-2.07911,43.16652],[-2.07897,43.1664],[-2.07886,43.16625],[-2.07875,43.16596],[-2.0787,43.16583],[-2.07868,43.16572],[-2.07864,43.16561],[-2.07859,43.16552],[-2.07852,43.16543],[-2.07844,43.16536],[-2.07834,43.16527],[-2.07829,43.16519],[-2.07822,43.16508],[-2.07813,43.16493],[-2.07805,43.16483],[-2.07798,43.16471],[-2.07791,43.16454]]}},{"type":"Feature","properties":{"id":456575815,"highway":"path"},"geometry":{"type":"LineString","coordinates":[[-2.07519,43.16629],[-2.0751,43.16631],[-2.07502,43.16636],[-2.07494,43.1664],[-2.07486,43.16641],[-2.0748,43.16642],[-2.07475,43.16641],[-2.07468,43.16639],[-2.07457,43.16634],[-2.07452,43.1663],[-2.07447,43.16627],[-2.07441,43.16625],[-2.07431,43.16623],[-2.07426,43.16623],[-2.07418,43.16624],[-2.07412,43.16624],[-2.07407,43.16622],[-2.07404,43.16619],[-2.07398,43.16615],[-2.07384,43.16609],[-2.07375,43.16605],[-2.07365,43.166],[-2.07358,43.16597],[-2.07347,43.16593],[-2.0734,43.16592],[-2.07333,43.16589],[-2.07326,43.16583],[-2.07317,43.16576]]}},{"type":"Feature","properties":{"id":456576311,"highway":"track","nombre":"Goi bailara"},"geometry":{"type":"LineString","coordinates":[[-2.0862,43.17346],[-2.08598,43.17334],[-2.08581,43.17326],[-2.08561,43.17315],[-2.08551,43.17309],[-2.08544,43.173],[-2.08536,43.17283],[-2.08535,43.17274],[-2.08533,43.17271],[-2.08513,43.17267],[-2.08505,43.17262],[-2.08492,43.17244],[-2.08484,43.17232],[-2.08481,43.17222],[-2.08477,43.17211],[-2.08476,43.17207],[-2.08468,43.17189],[-2.08459,43.17179],[-2.08453,43.17174],[-2.08435,43.17169],[-2.08417,43.17165],[-2.08389,43.17161],[-2.08374,43.17154],[-2.08359,43.17143],[-2.08351,43.17132],[-2.08341,43.17116],[-2.08333,43.17096],[-2.08329,43.17081],[-2.08324,43.17071],[-2.08322,43.17064],[-2.08319,43.17053],[-2.08315,43.17047],[-2.08312,43.17046],[-2.08304,43.17047],[-2.08297,43.17052],[-2.08286,43.17061],[-2.08274,43.17073],[-2.08253,43.17089],[-2.08242,43.17102],[-2.08235,43.17112],[-2.08231,43.17126]]}},{"type":"Feature","properties":{"id":456576312,"highway":"track","nombre":"Goi bailara"},"geometry":{"type":"LineString","coordinates":[[-2.08477,43.17211],[-2.08494,43.17212],[-2.08502,43.17211],[-2.08507,43.17205],[-2.08503,43.17192],[-2.08496,43.17174],[-2.08489,43.17161],[-2.08482,43.17148],[-2.08475,43.17133],[-2.08474,43.17114],[-2.08477,43.17099],[-2.08482,43.17086],[-2.08494,43.17077],[-2.08509,43.17069],[-2.0853,43.1706],[-2.08542,43.17051],[-2.08541,43.17044],[-2.08529,43.17037],[-2.08511,43.17027],[-2.08491,43.17007],[-2.08478,43.16994],[-2.08467,43.16974],[-2.08462,43.16962],[-2.08459,43.16944],[-2.08459,43.16934],[-2.08464,43.16924],[-2.08481,43.16909],[-2.08496,43.16894],[-2.08514,43.16885],[-2.08516,43.16884]]}},{"type":"Feature","properties":{"id":456576387,"highway":"track","nombre":"Goi bailara"},"geometry":{"type":"LineString","coordinates":[[-2.07678,43.17451],[-2.07681,43.17457],[-2.07683,43.17469],[-2.07675,43.17479],[-2.07664,43.17491],[-2.07645,43.17499],[-2.07631,43.17507],[-2.07616,43.17521],[-2.07605,43.17533],[-2.07588,43.17562],[-2.07575,43.17591],[-2.07567,43.17625],[-2.07562,43.17659],[-2.07558,43.17685],[-2.07557,43.177]]}},{"type":"Feature","properties":{"id":456576716,"highway":"path","superficie":"dirt"},"geometry":{"type":"LineString","coordinates":[[-2.07571,43.17234],[-2.07561,43.17225],[-2.07547,43.17217],[-2.07535,43.17211],[-2.07525,43.17204],[-2.07511,43.1719]]}},{"type":"Feature","properties":{"id":456576843,"highway":"path"},"geometry":{"type":"LineString","coordinates":[[-2.06496,43.17548],[-2.06491,43.17547],[-2.06486,43.17548],[-2.06479,43.1755],[-2.06472,43.17555],[-2.0646,43.17563],[-2.06452,43.17567],[-2.06446,43.17567],[-2.06439,43.17566],[-2.0643,43.17562],[-2.06422,43.17555],[-2.06415,43.17547],[-2.0641,43.17538],[-2.06409,43.17533],[-2.06407,43.17522],[-2.06406,43.17519],[-2.06403,43.17516],[-2.0639,43.17511],[-2.06363,43.17503],[-2.06354,43.175]]}},{"type":"Feature","properties":{"id":456576856,"highway":"track"},"geometry":{"type":"LineString","coordinates":[[-2.06274,43.17452],[-2.06269,43.17452],[-2.06265,43.17454],[-2.0626,43.1746],[-2.06255,43.1747],[-2.06249,43.17484],[-2.06245,43.17494],[-2.06236,43.17506],[-2.06225,43.17521],[-2.06216,43.17535],[-2.06208,43.17546],[-2.06202,43.17558],[-2.06194,43.1758],[-2.06184,43.17607],[-2.06175,43.17627],[-2.06165,43.17644],[-2.06153,43.17661],[-2.06145,43.17675],[-2.06142,43.17682],[-2.06139,43.17691],[-2.06141,43.17697]]}},{"type":"Feature","properties":{"id":497927800,"highway":"footway","nombre":"Herriko plaza"},"geometry":{"type":"LineString","coordinates":[[-2.07033,43.16144],[-2.07026,43.16139],[-2.07022,43.16138],[-2.07003,43.16144]]}},{"type":"Feature","properties":{"id":497927802,"highway":"pedestrian"},"geometry":{"type":"LineString","coordinates":[[-2.07052,43.16185],[-2.07053,43.16192]]}},{"type":"Feature","properties":{"id":497927803,"highway":"footway"},"geometry":{"type":"LineString","coordinates":[[-2.07052,43.16185],[-2.07062,43.16191],[-2.07073,43.16197],[-2.0708,43.16199],[-2.07094,43.16196]]}},{"type":"Feature","properties":{"id":497927804,"highway":"footway"},"geometry":{"type":"LineString","coordinates":[[-2.07094,43.16196],[-2.071,43.16194]]}},{"type":"Feature","properties":{"id":497927805,"highway":"footway"},"geometry":{"type":"LineString","coordinates":[[-2.07034,43.16196],[-2.07021,43.16198],[-2.06983,43.16211]]}},{"type":"Feature","properties":{"id":497927806,"highway":"footway"},"geometry":{"type":"LineString","coordinates":[[-2.07266,43.16386],[-2.07265,43.16385],[-2.07261,43.16383],[-2.07257,43.16379],[-2.07248,43.16362],[-2.07226,43.16339],[-2.07219,43.16332],[-2.07206,43.16321],[-2.07201,43.16317],[-2.07187,43.16303],[-2.07157,43.16272],[-2.07123,43.16241],[-2.07118,43.16236],[-2.07094,43.16213],[-2.07092,43.1621],[-2.07093,43.16207],[-2.07099,43.16205],[-2.07097,43.162],[-2.07094,43.16196]]}},{"type":"Feature","properties":{"id":497927807,"highway":"tertiary","nombre":"San Juan","ref":"GI-3630","puente":"yes"},"geometry":{"type":"LineString","coordinates":[[-2.0726,43.16386],[-2.07263,43.16388],[-2.07269,43.16391]]}},{"type":"Feature","properties":{"id":497927808,"highway":"tertiary","nombre":"San Juan kalea","ref":"GI-3630"},"geometry":{"type":"LineString","coordinates":[[-2.07204,43.16323],[-2.07208,43.16328],[-2.07214,43.16334],[-2.07222,43.16341],[-2.07234,43.16354],[-2.07242,43.16364]]}},{"type":"Feature","properties":{"id":498097803,"highway":"footway"},"geometry":{"type":"LineString","coordinates":[[-2.07004,43.16146],[-2.07003,43.16144]]}},{"type":"Feature","properties":{"id":498097812,"highway":"cycleway","superficie":"asphalt"},"geometry":{"type":"LineString","coordinates":[[-2.06862,43.15641],[-2.06868,43.15631],[-2.06896,43.15588],[-2.06964,43.15488],[-2.07036,43.15382],[-2.07071,43.1533],[-2.07127,43.15247],[-2.07172,43.15181],[-2.07175,43.15174],[-2.07175,43.15171],[-2.07174,43.15167],[-2.07174,43.15165],[-2.07173,43.1516],[-2.07172,43.15157],[-2.07174,43.15153],[-2.07176,43.15148],[-2.07184,43.15147],[-2.07188,43.15145],[-2.07193,43.15142],[-2.07195,43.15138],[-2.07204,43.15117],[-2.07208,43.15108]]}},{"type":"Feature","properties":{"id":498097814,"highway":"footway"},"geometry":{"type":"LineString","coordinates":[[-2.07003,43.16144],[-2.06998,43.16144],[-2.06986,43.16118],[-2.06975,43.16099],[-2.06963,43.16096]]}},{"type":"Feature","properties":{"id":498097818,"highway":"pedestrian","nombre":"Herriko plaza"},"geometry":{"type":"LineString","coordinates":[[-2.07037,43.16152],[-2.07049,43.16178],[-2.07052,43.16185]]}},{"type":"Feature","properties":{"id":498097883,"highway":"cycleway","superficie":"asphalt"},"geometry":{"type":"LineString","coordinates":[[-2.06968,43.16186],[-2.06968,43.16185],[-2.06962,43.16183],[-2.06956,43.16178],[-2.06952,43.16171],[-2.06947,43.16139],[-2.06945,43.16129],[-2.0694,43.16121],[-2.06935,43.16114],[-2.06928,43.16116],[-2.06923,43.16118],[-2.06918,43.16112],[-2.06893,43.16088],[-2.06883,43.16078],[-2.06878,43.16069],[-2.06873,43.16054],[-2.06863,43.16013],[-2.06855,43.1599],[-2.06844,43.15956],[-2.06831,43.15917],[-2.06826,43.15898],[-2.06823,43.15875],[-2.06819,43.1583],[-2.06818,43.15805],[-2.0682,43.15784],[-2.06823,43.15767],[-2.06822,43.15764],[-2.0682,43.15762],[-2.0682,43.15757],[-2.06821,43.15745],[-2.06825,43.15728]]}},{"type":"Feature","properties":{"id":498097885,"highway":"unclassified"},"geometry":{"type":"LineString","coordinates":[[-2.0687,43.15732],[-2.06859,43.1573]]}},{"type":"Feature","properties":{"id":498097887,"highway":"residential","nombre":"Iturtxulo kalea"},"geometry":{"type":"LineString","coordinates":[[-2.07094,43.16006],[-2.07016,43.16028],[-2.06983,43.16037],[-2.06946,43.16047],[-2.0693,43.16052]]}},{"type":"Feature","properties":{"id":498097888,"highway":"residential","nombre":"Lasarbe kalea"},"geometry":{"type":"LineString","coordinates":[[-2.0706,43.15945],[-2.07073,43.15968],[-2.07088,43.15998],[-2.07094,43.16006],[-2.07119,43.16054]]}},{"type":"Feature","properties":{"id":498097890,"highway":"footway"},"geometry":{"type":"LineString","coordinates":[[-2.06975,43.15946],[-2.06993,43.15993],[-2.07002,43.16023],[-2.07011,43.1602],[-2.07016,43.16028],[-2.0702,43.16036]]}},{"type":"Feature","properties":{"id":498097892,"highway":"unclassified"},"geometry":{"type":"LineString","coordinates":[[-2.069,43.15991],[-2.06903,43.15988],[-2.06925,43.15961],[-2.06929,43.15958],[-2.06934,43.15955],[-2.06939,43.15953],[-2.06947,43.1595],[-2.06956,43.15948],[-2.06975,43.15946],[-2.07003,43.15943],[-2.0701,43.15942],[-2.07015,43.1594],[-2.07019,43.15937],[-2.07032,43.15922]]}},{"type":"Feature","properties":{"id":498097893,"highway":"track","nombre":"Ergoien Bailara auzoa"},"geometry":{"type":"LineString","coordinates":[[-2.07359,43.15824],[-2.07383,43.15794],[-2.07432,43.15748],[-2.07465,43.15737],[-2.07537,43.15701],[-2.07538,43.15694],[-2.0752,43.15686],[-2.07472,43.15695],[-2.07435,43.15689],[-2.07348,43.15668]]}},{"type":"Feature","properties":{"id":498097896,"highway":"tertiary","ref":"GI-3411"},"geometry":{"type":"LineString","coordinates":[[-2.06909,43.15803],[-2.06893,43.15891],[-2.06882,43.15948],[-2.06887,43.15964],[-2.069,43.15991],[-2.0693,43.16052],[-2.0696,43.16097]]}},{"type":"Feature","properties":{"id":498097897,"highway":"residential"},"geometry":{"type":"LineString","coordinates":[[-2.06909,43.15803],[-2.06912,43.15803]]}},{"type":"Feature","properties":{"id":498097899,"highway":"footway"},"geometry":{"type":"LineString","coordinates":[[-2.06963,43.16096],[-2.06958,43.16091],[-2.06936,43.16055],[-2.06938,43.16054],[-2.06948,43.16051],[-2.06946,43.16047],[-2.06944,43.16043],[-2.06941,43.16044],[-2.06936,43.16044],[-2.06932,43.16043],[-2.0693,43.16042],[-2.06929,43.1604],[-2.06903,43.15988],[-2.06894,43.1597],[-2.0689,43.15961],[-2.06888,43.15955],[-2.06886,43.1595],[-2.06885,43.15942],[-2.06895,43.15891],[-2.06912,43.15803]]}},{"type":"Feature","properties":{"id":503250468,"highway":"path"},"geometry":{"type":"LineString","coordinates":[[-2.07991,43.17329],[-2.07974,43.17338],[-2.07943,43.17361],[-2.07928,43.17372],[-2.07917,43.17377],[-2.07909,43.17378],[-2.07898,43.17375],[-2.07888,43.17378],[-2.0788,43.17381]]}},{"type":"Feature","properties":{"id":503250469,"highway":"path"},"geometry":{"type":"LineString","coordinates":[[-2.08231,43.17126],[-2.08215,43.17117],[-2.08209,43.17103],[-2.08208,43.17041],[-2.08209,43.17023],[-2.08207,43.17008],[-2.08217,43.17006],[-2.08244,43.17004],[-2.08274,43.16995],[-2.08324,43.16984],[-2.08357,43.16974],[-2.0838,43.16965],[-2.08403,43.16955],[-2.08415,43.16956],[-2.08443,43.16959],[-2.08462,43.16962]]}},{"type":"Feature","properties":{"id":580497596,"highway":"track","nombre":"Goi bailara"},"geometry":{"type":"LineString","coordinates":[[-2.07706,43.17481],[-2.07692,43.17464],[-2.07678,43.17451],[-2.07661,43.17441],[-2.07645,43.17431],[-2.07634,43.17416],[-2.07636,43.17408],[-2.07641,43.1739],[-2.0764,43.1737],[-2.07635,43.17353],[-2.07633,43.17324],[-2.0763,43.17304],[-2.07613,43.17272],[-2.07591,43.17249],[-2.07571,43.17234],[-2.07555,43.17229],[-2.07532,43.17226],[-2.07513,43.17226],[-2.07474,43.17229],[-2.07457,43.17231],[-2.0744,43.17235],[-2.0742,43.17239],[-2.07412,43.17238],[-2.07407,43.17234],[-2.07406,43.17231],[-2.07405,43.17225],[-2.07406,43.17201],[-2.07409,43.17183],[-2.07416,43.17174],[-2.07421,43.1717]]}},{"type":"Feature","properties":{"id":580497599,"highway":"service"},"geometry":{"type":"LineString","coordinates":[[-2.06144,43.17808],[-2.06144,43.17808]]}},{"type":"Feature","properties":{"id":580497601,"highway":"unclassified","nombre":"Goi bailara"},"geometry":{"type":"LineString","coordinates":[[-2.06959,43.17717],[-2.06966,43.17715],[-2.06971,43.17712],[-2.06978,43.17696],[-2.06987,43.17682],[-2.07008,43.17672],[-2.07024,43.17669],[-2.07035,43.17669],[-2.07049,43.17671],[-2.07066,43.17669],[-2.07084,43.17664],[-2.071,43.17656],[-2.07142,43.17617],[-2.07157,43.1761],[-2.07169,43.17608],[-2.07197,43.17605],[-2.07219,43.17601],[-2.07235,43.17597],[-2.07245,43.17596],[-2.0725,43.17597],[-2.07253,43.17603],[-2.07253,43.17609],[-2.07244,43.17617],[-2.0723,43.17625],[-2.07188,43.17647],[-2.07184,43.17652],[-2.07182,43.17657],[-2.07183,43.17666],[-2.0719,43.17674],[-2.07201,43.17677],[-2.07233,43.17681],[-2.07243,43.17681],[-2.0725,43.17678],[-2.07257,43.17674],[-2.07265,43.17673],[-2.0729,43.17671],[-2.07307,43.1767],[-2.0732,43.17671],[-2.07329,43.17673],[-2.07337,43.17679],[-2.0735,43.1769],[-2.07361,43.17696],[-2.07369,43.17699],[-2.07378,43.177],[-2.0739,43.17699],[-2.07406,43.17695],[-2.07434,43.17687],[-2.07451,43.17681],[-2.07468,43.17674],[-2.07493,43.17659],[-2.07498,43.17658],[-2.07504,43.1766],[-2.07509,43.17664],[-2.0751,43.1767],[-2.07512,43.17682],[-2.07511,43.17705],[-2.07511,43.17723],[-2.07514,43.17737],[-2.07521,43.17746],[-2.07527,43.17752]]}},{"type":"Feature","properties":{"id":580507602,"highway":"unclassified","nombre":"Goi bailara","superficie":"asphalt"},"geometry":{"type":"LineString","coordinates":[[-2.08166,43.17175],[-2.08176,43.17184],[-2.08186,43.1719],[-2.082,43.17197],[-2.08208,43.17202],[-2.08212,43.17209],[-2.08216,43.17221],[-2.08218,43.17236],[-2.08218,43.17246],[-2.08209,43.17281],[-2.08207,43.17299],[-2.08209,43.17319],[-2.08213,43.17328],[-2.08221,43.17335],[-2.08231,43.17341],[-2.08249,43.17348],[-2.08273,43.17361],[-2.08285,43.17369],[-2.08292,43.17377],[-2.08304,43.17386],[-2.08327,43.17398],[-2.08365,43.17418],[-2.08388,43.17432]]}},{"type":"Feature","properties":{"id":668866951,"highway":"footway"},"geometry":{"type":"LineString","coordinates":[[-2.06983,43.16211],[-2.0698,43.1621],[-2.06976,43.16208],[-2.06973,43.16203],[-2.06969,43.16199]]}},{"type":"Feature","properties":{"id":893986686,"highway":"path"},"geometry":{"type":"LineString","coordinates":[[-2.07327,43.16709],[-2.07324,43.16722],[-2.07319,43.16729],[-2.07316,43.16741],[-2.07311,43.16756],[-2.07309,43.16765],[-2.07306,43.16776],[-2.07299,43.1679],[-2.07288,43.16804],[-2.07281,43.16816],[-2.07277,43.16826],[-2.07277,43.16837],[-2.07279,43.16849]]}},{"type":"Feature","properties":{"id":930686451,"highway":"service","superficie":"asphalt"},"geometry":{"type":"LineString","coordinates":[[-2.08221,43.17335],[-2.08224,43.17328],[-2.08228,43.17302],[-2.08239,43.17288],[-2.08256,43.17279],[-2.08268,43.17275],[-2.08285,43.17262]]}},{"type":"Feature","properties":{"id":930686452,"highway":"service"},"geometry":{"type":"LineString","coordinates":[[-2.08273,43.17361],[-2.08265,43.1735],[-2.08251,43.17336],[-2.08251,43.17328],[-2.08254,43.17311],[-2.0826,43.17302],[-2.08266,43.173],[-2.08273,43.173]]}},{"type":"Feature","properties":{"id":1174720782,"highway":"service"},"geometry":{"type":"LineString","coordinates":[[-2.07773,43.16415],[-2.07784,43.16397],[-2.07791,43.16388],[-2.07801,43.16382],[-2.07809,43.16379],[-2.07815,43.16375],[-2.07819,43.16371],[-2.07827,43.1636],[-2.07834,43.16351],[-2.07838,43.16348],[-2.07843,43.16346],[-2.07864,43.16343],[-2.07873,43.16347],[-2.07882,43.16354],[-2.07887,43.16366],[-2.07891,43.1637],[-2.07906,43.16373],[-2.0793,43.1638],[-2.07947,43.16388],[-2.07955,43.1639],[-2.07965,43.1639],[-2.07971,43.16387],[-2.07972,43.1638],[-2.07972,43.16372],[-2.07974,43.16365],[-2.0799,43.16356],[-2.08017,43.16338]]}},{"type":"Feature","properties":{"id":1210037261,"highway":"path"},"geometry":{"type":"LineString","coordinates":[[-2.07589,43.1674],[-2.07589,43.16731],[-2.07593,43.16723],[-2.07604,43.16713],[-2.07607,43.16702],[-2.0761,43.16688]]}},{"type":"Feature","properties":{"id":1222778030,"highway":"path"},"geometry":{"type":"LineString","coordinates":[[-2.08048,43.16071],[-2.08035,43.16072],[-2.08019,43.16071],[-2.08003,43.16071],[-2.07992,43.16069],[-2.07982,43.16067],[-2.07976,43.16063],[-2.0797,43.16054],[-2.07962,43.16041],[-2.07943,43.16014]]}},{"type":"Feature","properties":{"id":1222778464,"highway":"footway"},"geometry":{"type":"LineString","coordinates":[[-2.07055,43.15947],[-2.07082,43.15999],[-2.07088,43.15998],[-2.07094,43.15997],[-2.07102,43.15994],[-2.07111,43.15992],[-2.07118,43.15989],[-2.07125,43.15987],[-2.07128,43.15987]]}},{"type":"Feature","properties":{"id":1222778465,"highway":"path","superficie":"grass"},"geometry":{"type":"LineString","coordinates":[[-2.07276,43.15868],[-2.07287,43.15866],[-2.07298,43.15865],[-2.07311,43.15866],[-2.07327,43.15867],[-2.07336,43.15868],[-2.0734,43.1587],[-2.07344,43.15874]]}},{"type":"Feature","properties":{"id":1275410491,"highway":"unclassified","superficie":"asphalt"},"geometry":{"type":"LineString","coordinates":[[-2.07167,43.16499],[-2.07165,43.16502],[-2.07165,43.16506],[-2.07167,43.16512],[-2.07169,43.1652],[-2.07175,43.16551],[-2.07177,43.16578],[-2.07176,43.16586],[-2.07176,43.16595],[-2.07175,43.16602],[-2.07174,43.1661],[-2.07174,43.16618],[-2.07172,43.1664],[-2.07167,43.1667],[-2.07163,43.16686]]}},{"type":"Feature","properties":{"id":1275412851,"highway":"residential","nombre":"Igarabide pasealekua"},"geometry":{"type":"LineString","coordinates":[[-2.07126,43.16349],[-2.07162,43.16419]]}},{"type":"Feature","properties":{"id":1275413315,"highway":"residential","nombre":"Apeadero lekua"},"geometry":{"type":"LineString","coordinates":[[-2.07003,43.16237],[-2.06993,43.16243]]}},{"type":"Feature","properties":{"id":1275413316,"highway":"residential","nombre":"Apeadero lekua"},"geometry":{"type":"LineString","coordinates":[[-2.0705,43.1629],[-2.07024,43.16261],[-2.07003,43.16237],[-2.06994,43.16226]]}},{"type":"Feature","properties":{"id":1275415974,"highway":"residential","nombre":"Herriko plaza"},"geometry":{"type":"LineString","coordinates":[[-2.07027,43.16134],[-2.07026,43.16139],[-2.07024,43.16141],[-2.07004,43.16146],[-2.06995,43.16149]]}},{"type":"Feature","properties":{"id":1275415975,"highway":"tertiary","nombre":"Sortalde kalea","ref":"GI-3411"},"geometry":{"type":"LineString","coordinates":[[-2.0696,43.16097],[-2.06976,43.16121],[-2.06995,43.16149],[-2.06998,43.16154],[-2.07011,43.16181],[-2.07016,43.16191]]}},{"type":"Feature","properties":{"id":1275419379,"highway":"residential","nombre":"Kale Txiki"},"geometry":{"type":"LineString","coordinates":[[-2.07279,43.16335],[-2.07236,43.16331],[-2.07225,43.16331],[-2.07219,43.16332],[-2.07214,43.16334]]}},{"type":"Feature","properties":{"id":1297189372,"highway":"track","nombre":"Ergoien Bailara auzoa"},"geometry":{"type":"LineString","coordinates":[[-2.07348,43.15668],[-2.07328,43.15672],[-2.07316,43.15673],[-2.07303,43.15672],[-2.07285,43.15666],[-2.0726,43.15649],[-2.07239,43.15631],[-2.07226,43.15619],[-2.07219,43.15615],[-2.07214,43.15615],[-2.07202,43.15617],[-2.07192,43.1562],[-2.07184,43.15624],[-2.07175,43.15626],[-2.07167,43.15626],[-2.07158,43.15627],[-2.0715,43.15626],[-2.07143,43.15625]]}},{"type":"Feature","properties":{"id":1297189373,"highway":"service","nombre":"Ergoien Bailara auzoa"},"geometry":{"type":"LineString","coordinates":[[-2.07143,43.15625],[-2.07148,43.15617],[-2.07148,43.15617],[-2.0715,43.15603],[-2.07152,43.15593],[-2.07152,43.15587],[-2.07147,43.1557],[-2.07143,43.1556],[-2.07139,43.1554]]}},{"type":"Feature","properties":{"id":1315996011,"highway":"tertiary","ref":"GI-3630","oneway":"yes"},"geometry":{"type":"LineString","coordinates":[[-2.06953,43.16194],[-2.06968,43.16194],[-2.06979,43.16192]]}},{"type":"Feature","properties":{"id":1315996012,"highway":"tertiary","ref":"GI-3630","oneway":"yes"},"geometry":{"type":"LineString","coordinates":[[-2.06968,43.16188],[-2.06961,43.16187],[-2.06943,43.16187],[-2.06935,43.16188]]}},{"type":"Feature","properties":{"id":1315996013,"highway":"tertiary","nombre":"Argoin kalea","ref":"GI-3650","superficie":"asphalt"},"geometry":{"type":"LineString","coordinates":[[-2.06936,43.16133],[-2.06938,43.1615]]}},{"type":"Feature","properties":{"id":1315996015,"highway":"tertiary","nombre":"Errotaldea lekua","ref":"GI-3650","oneway":"yes","superficie":"asphalt"},"geometry":{"type":"LineString","coordinates":[[-2.0698,43.16333],[-2.06982,43.16324],[-2.06982,43.16318],[-2.0698,43.16312],[-2.06978,43.16309],[-2.06975,43.16304],[-2.06963,43.16283],[-2.06948,43.16256],[-2.06944,43.16249],[-2.0694,43.16238],[-2.06935,43.16231]]}},{"type":"Feature","properties":{"id":1315996018,"highway":"tertiary","nombre":"Errotaldea lekua","ref":"GI-3650","oneway":"yes","superficie":"asphalt"},"geometry":{"type":"LineString","coordinates":[[-2.06935,43.16231],[-2.06936,43.16243],[-2.0694,43.16257],[-2.06946,43.16268],[-2.06951,43.16277],[-2.06956,43.16286]]}},{"type":"Feature","properties":{"id":1315996019,"highway":"tertiary","ref":"GI-3630","oneway":"yes"},"geometry":{"type":"LineString","coordinates":[[-2.06935,43.16188],[-2.06945,43.16193],[-2.06953,43.16194]]}},{"type":"Feature","properties":{"id":1315996020,"highway":"residential","nombre":"Errota poligonoa","oneway":"yes"},"geometry":{"type":"LineString","coordinates":[[-2.06933,43.16292],[-2.06946,43.16291]]}},{"type":"Feature","properties":{"id":1315996021,"highway":"residential","nombre":"Errota poligonoa","oneway":"yes"},"geometry":{"type":"LineString","coordinates":[[-2.06946,43.16268],[-2.06947,43.1628],[-2.0694,43.16289]]}},{"type":"Feature","properties":{"id":1315996022,"highway":"residential","nombre":"Errota poligonoa","oneway":"yes","superficie":"asphalt"},"geometry":{"type":"LineString","coordinates":[[-2.06978,43.16309],[-2.06968,43.16298],[-2.06962,43.16288],[-2.06956,43.16286]]}},{"type":"Feature","properties":{"id":1315996023,"highway":"residential","nombre":"Errota poligonoa","oneway":"yes"},"geometry":{"type":"LineString","coordinates":[[-2.06946,43.16291],[-2.06951,43.16293],[-2.06963,43.16299]]}},{"type":"Feature","properties":{"id":1315996024,"highway":"residential","nombre":"Errota poligonoa","oneway":"yes"},"geometry":{"type":"LineString","coordinates":[[-2.06956,43.16286],[-2.06949,43.16286],[-2.0694,43.16289]]}},{"type":"Feature","properties":{"id":1315996025,"highway":"tertiary","nombre":"Errotaldea lekua","ref":"GI-3650","oneway":"yes","superficie":"asphalt"},"geometry":{"type":"LineString","coordinates":[[-2.06956,43.16286],[-2.06963,43.16299]]}},{"type":"Feature","properties":{"id":1315996026,"highway":"residential","nombre":"Errota poligonoa","oneway":"yes"},"geometry":{"type":"LineString","coordinates":[[-2.06956,43.16286],[-2.06957,43.16282],[-2.06955,43.16275],[-2.0695,43.16267],[-2.06948,43.1626],[-2.06948,43.16256]]}},{"type":"Feature","properties":{"id":1315996027,"highway":"residential","nombre":"Errota poligonoa","oneway":"yes"},"geometry":{"type":"LineString","coordinates":[[-2.06946,43.16291],[-2.06953,43.1629],[-2.06956,43.16286]]}},{"type":"Feature","properties":{"id":1315996028,"highway":"tertiary","nombre":"Errotaldea lekua","ref":"GI-3650","oneway":"yes","superficie":"asphalt"},"geometry":{"type":"LineString","coordinates":[[-2.06963,43.16299],[-2.06966,43.16303],[-2.06971,43.16313],[-2.06974,43.1632],[-2.06976,43.16324],[-2.0698,43.16333]]}},{"type":"Feature","properties":{"id":1315996029,"highway":"residential","nombre":"Errota poligonoa","oneway":"yes"},"geometry":{"type":"LineString","coordinates":[[-2.0694,43.16289],[-2.06933,43.16292]]}},{"type":"Feature","properties":{"id":1356504908,"highway":"path"},"geometry":{"type":"LineString","coordinates":[[-2.07541,43.16614],[-2.07542,43.16618],[-2.07542,43.16622],[-2.07547,43.16629],[-2.07552,43.16635],[-2.07561,43.1664],[-2.07562,43.16643],[-2.07569,43.16649],[-2.07574,43.16653],[-2.07586,43.16659],[-2.0759,43.16661],[-2.07594,43.16665],[-2.07602,43.1667],[-2.07603,43.16671],[-2.07604,43.16675],[-2.07606,43.16679],[-2.07609,43.16684],[-2.0761,43.16688]]}},{"type":"Feature","properties":{"id":1356504909,"highway":"path"},"geometry":{"type":"LineString","coordinates":[[-2.07796,43.17063],[-2.07797,43.17064],[-2.07798,43.1707],[-2.07798,43.17076],[-2.07798,43.17081],[-2.07802,43.17085],[-2.07804,43.1709],[-2.07804,43.17096],[-2.07801,43.17105],[-2.07795,43.17118],[-2.07791,43.17126],[-2.07788,43.17129]]}},{"type":"Feature","properties":{"id":1356520115,"highway":"unclassified"},"geometry":{"type":"LineString","coordinates":[[-2.06384,43.17702],[-2.0642,43.17703],[-2.06456,43.17707],[-2.06475,43.17709],[-2.0648,43.17712],[-2.06485,43.1772],[-2.06488,43.17726],[-2.06493,43.17729],[-2.065,43.17732],[-2.06509,43.17732],[-2.06532,43.17731],[-2.06554,43.17729],[-2.06564,43.17728],[-2.06583,43.17738],[-2.06598,43.17744],[-2.06622,43.17752],[-2.06656,43.17755],[-2.06691,43.1776],[-2.06732,43.17768],[-2.06757,43.17772],[-2.06789,43.17772],[-2.06828,43.17767],[-2.06846,43.17758],[-2.06867,43.17753],[-2.06894,43.17744],[-2.06909,43.17734],[-2.06924,43.17726],[-2.06935,43.1772],[-2.06947,43.17717],[-2.06959,43.17717]]}},{"type":"Feature","properties":{"id":1357139871,"highway":"tertiary","nombre":"San Migel bailara","ref":"GI-3411","superficie":"asphalt"},"geometry":{"type":"LineString","coordinates":[[-2.07446,43.15515],[-2.07445,43.1552]]}},{"type":"Feature","properties":{"id":1360078022,"highway":"unclassified","oneway":"yes"},"geometry":{"type":"LineString","coordinates":[[-2.06846,43.15687],[-2.06831,43.15706],[-2.06828,43.15713],[-2.06827,43.15717],[-2.06828,43.15722],[-2.0683,43.15724],[-2.06835,43.15726]]}},{"type":"Feature","properties":{"id":1360078023,"highway":"unclassified"},"geometry":{"type":"LineString","coordinates":[[-2.06835,43.15726],[-2.06847,43.15728]]}},{"type":"Feature","properties":{"id":1360078024,"highway":"tertiary","nombre":"Anoetako industrialdea","ref":"GI-3650","superficie":"asphalt"},"geometry":{"type":"LineString","coordinates":[[-2.06834,43.15729],[-2.06833,43.15731],[-2.06831,43.15742],[-2.06829,43.15759],[-2.06828,43.15764],[-2.06825,43.15784],[-2.06824,43.15808],[-2.06826,43.15838],[-2.06828,43.15865],[-2.06831,43.1589],[-2.06835,43.15912],[-2.06848,43.15949],[-2.06863,43.15994]]}},{"type":"Feature","properties":{"id":1360078025,"highway":"track","superficie":"paved"},"geometry":{"type":"LineString","coordinates":[[-2.06916,43.15767],[-2.0691,43.15749],[-2.06909,43.15743],[-2.06908,43.15716],[-2.06912,43.15691],[-2.0691,43.1568],[-2.06903,43.15658],[-2.06902,43.15643],[-2.06903,43.15636],[-2.06905,43.15629],[-2.06915,43.15619],[-2.06924,43.15607],[-2.06956,43.15564]]}},{"type":"Feature","properties":{"id":1360078026,"highway":"track"},"geometry":{"type":"LineString","coordinates":[[-2.06956,43.15564],[-2.06968,43.15538],[-2.06995,43.15493],[-2.07006,43.15477],[-2.07018,43.15468],[-2.07028,43.15458]]}},{"type":"Feature","properties":{"id":1360078027,"highway":"path"},"geometry":{"type":"LineString","coordinates":[[-2.06909,43.15743],[-2.06907,43.15739],[-2.06898,43.15735],[-2.06887,43.15733],[-2.06878,43.15732],[-2.0687,43.15732]]}},{"type":"Feature","properties":{"id":1360078028,"highway":"cycleway"},"geometry":{"type":"LineString","coordinates":[[-2.06825,43.15728],[-2.06834,43.15729]]}},{"type":"Feature","properties":{"id":1373424211,"highway":"tertiary","ref":"GI-3650","superficie":"asphalt"},"geometry":{"type":"LineString","coordinates":[[-2.06835,43.15726],[-2.06834,43.15729]]}},{"type":"Feature","properties":{"id":1411593528,"highway":"tertiary","nombre":"Argoin kalea","ref":"GI-3650","superficie":"asphalt"},"geometry":{"type":"LineString","coordinates":[[-2.06938,43.1615],[-2.06936,43.16172]]}},{"type":"Feature","properties":{"id":1411593529,"highway":"tertiary","nombre":"Errotaldea lekua","ref":"GI-3650","superficie":"asphalt"},"geometry":{"type":"LineString","coordinates":[[-2.06934,43.16213],[-2.06934,43.1622],[-2.06935,43.16231]]}},{"type":"Feature","properties":{"id":1411593530,"highway":"tertiary","nombre":"Errotaldea lekua","ref":"GI-3650","superficie":"asphalt"},"geometry":{"type":"LineString","coordinates":[[-2.06935,43.16188],[-2.06934,43.16213]]}},{"type":"Feature","properties":{"id":1411593531,"highway":"tertiary","nombre":"Argoin kalea","ref":"GI-3650","superficie":"asphalt"},"geometry":{"type":"LineString","coordinates":[[-2.06936,43.16172],[-2.06935,43.16188]]}},{"type":"Feature","properties":{"id":1411593535,"highway":"cycleway","superficie":"asphalt"},"geometry":{"type":"LineString","coordinates":[[-2.0705,43.1629],[-2.07041,43.16297],[-2.07017,43.16308],[-2.07007,43.1631],[-2.06996,43.16311],[-2.06987,43.1631],[-2.06982,43.16306],[-2.06958,43.16268],[-2.06949,43.1625],[-2.06945,43.16238],[-2.06943,43.16227],[-2.06943,43.16214],[-2.06945,43.16209],[-2.06948,43.16205],[-2.06954,43.16201],[-2.0696,43.162],[-2.06969,43.16199],[-2.06968,43.16197]]}},{"type":"Feature","properties":{"id":1411593536,"highway":"footway","superficie":"asphalt"},"geometry":{"type":"LineString","coordinates":[[-2.06968,43.16197],[-2.06968,43.16194],[-2.06968,43.16188],[-2.06968,43.16186]]}},{"type":"Feature","properties":{"id":1417986458,"highway":"footway","superficie":"unpaved"},"geometry":{"type":"LineString","coordinates":[[-2.07682,43.16349],[-2.07679,43.16355],[-2.07671,43.16358]]}},{"type":"Feature","properties":{"id":1417986459,"highway":"footway","superficie":"concrete"},"geometry":{"type":"LineString","coordinates":[[-2.07201,43.16364],[-2.07217,43.16364],[-2.07234,43.16361],[-2.07242,43.16364]]}},{"type":"Feature","properties":{"id":1417986460,"highway":"tertiary","nombre":"San Juan kalea","ref":"GI-3630"},"geometry":{"type":"LineString","coordinates":[[-2.07242,43.16364],[-2.07248,43.16373],[-2.0725,43.16376],[-2.07252,43.16379],[-2.07255,43.16382],[-2.07258,43.16385],[-2.0726,43.16386]]}},{"type":"Feature","properties":{"id":1417986461,"highway":"footway","puente":"yes","superficie":"unpaved"},"geometry":{"type":"LineString","coordinates":[[-2.07684,43.1634],[-2.07682,43.16348]]}},{"type":"Feature","properties":{"id":1417986462,"highway":"footway","superficie":"unpaved"},"geometry":{"type":"LineString","coordinates":[[-2.07682,43.16348],[-2.07682,43.16349]]}},{"type":"Feature","properties":{"id":1417986463,"highway":"footway","superficie":"unpaved"},"geometry":{"type":"LineString","coordinates":[[-2.07684,43.1634],[-2.07684,43.1634]]}},{"type":"Feature","properties":{"id":1417986464,"highway":"path","puente":"yes"},"geometry":{"type":"LineString","coordinates":[[-2.08443,43.16271],[-2.08449,43.16278]]}},{"type":"Feature","properties":{"id":1417986465,"highway":"path","superficie":"ground"},"geometry":{"type":"LineString","coordinates":[[-2.08449,43.16278],[-2.08451,43.1628],[-2.08457,43.16282]]}},{"type":"Feature","properties":{"id":1417986466,"highway":"path"},"geometry":{"type":"LineString","coordinates":[[-2.08441,43.1627],[-2.08443,43.16271]]}},{"type":"Feature","properties":{"id":1417986467,"highway":"unclassified","nombre":"Ergoien Bailara auzoa"},"geometry":{"type":"LineString","coordinates":[[-2.06893,43.15891],[-2.06895,43.15891],[-2.06908,43.159],[-2.06917,43.15903],[-2.06929,43.15904],[-2.06943,43.15901],[-2.06957,43.15903],[-2.07032,43.15922]]}},{"type":"Feature","properties":{"id":1417986468,"highway":"unclassified","nombre":"Ergoien Bailara auzoa"},"geometry":{"type":"LineString","coordinates":[[-2.07032,43.15922],[-2.07038,43.15925],[-2.07039,43.15932],[-2.07042,43.15936],[-2.07047,43.15941],[-2.07055,43.15947]]}},{"type":"Feature","properties":{"id":1417986469,"highway":"residential"},"geometry":{"type":"LineString","coordinates":[[-2.071,43.15933],[-2.07097,43.15925],[-2.07094,43.15916],[-2.07094,43.15914],[-2.07094,43.15896],[-2.07097,43.1588],[-2.07099,43.15876],[-2.07105,43.15865],[-2.0711,43.15857],[-2.07122,43.15845],[-2.07127,43.15842],[-2.07133,43.15841]]}},{"type":"Feature","properties":{"id":1417986471,"highway":"footway"},"geometry":{"type":"LineString","coordinates":[[-2.07055,43.15947],[-2.07052,43.15939],[-2.07052,43.15933],[-2.07057,43.15927],[-2.07065,43.15925],[-2.07076,43.15926],[-2.07079,43.15926],[-2.07077,43.15918],[-2.07074,43.15911],[-2.07073,43.15903],[-2.07073,43.15894]]}},{"type":"Feature","properties":{"id":1417986472,"highway":"footway"},"geometry":{"type":"LineString","coordinates":[[-2.07187,43.16303],[-2.07183,43.16306],[-2.07177,43.16309]]}},{"type":"Feature","properties":{"id":1417986473,"highway":"path"},"geometry":{"type":"LineString","coordinates":[[-2.07341,43.16342],[-2.07327,43.1634],[-2.07312,43.16337],[-2.07294,43.16335],[-2.07279,43.16335]]}},{"type":"Feature","properties":{"id":1417986474,"highway":"footway"},"geometry":{"type":"LineString","coordinates":[[-2.07123,43.16241],[-2.07117,43.16244],[-2.07111,43.16247]]}},{"type":"Feature","properties":{"id":1417986477,"highway":"footway","puente":"yes"},"geometry":{"type":"LineString","coordinates":[[-2.07273,43.16388],[-2.07266,43.16386]]}},{"type":"Feature","properties":{"id":1417986478,"highway":"footway"},"geometry":{"type":"LineString","coordinates":[[-2.07271,43.16392],[-2.07273,43.16388]]}},{"type":"Feature","properties":{"id":1428865564,"highway":"tertiary","ref":"GI-3650","superficie":"asphalt"},"geometry":{"type":"LineString","coordinates":[[-2.07219,43.15095],[-2.07217,43.15104],[-2.07209,43.15124],[-2.07204,43.15136],[-2.07196,43.15151],[-2.07192,43.15159],[-2.07184,43.15172],[-2.07172,43.1519],[-2.07113,43.15275],[-2.0704,43.15383],[-2.0701,43.15429],[-2.06969,43.15489],[-2.06958,43.15505],[-2.069,43.15589],[-2.06873,43.15632],[-2.06866,43.15645],[-2.06863,43.15649],[-2.0686,43.15655],[-2.06855,43.15665],[-2.06846,43.15684],[-2.06846,43.15687],[-2.06841,43.157],[-2.06836,43.1572],[-2.06835,43.15723],[-2.06835,43.15726]]}},{"type":"Feature","properties":{"id":1428865579,"highway":"cycleway"},"geometry":{"type":"LineString","coordinates":[[-2.06825,43.15728],[-2.06825,43.15723],[-2.06823,43.15721],[-2.06823,43.15716],[-2.06828,43.15706],[-2.06841,43.15683],[-2.06849,43.15666],[-2.06854,43.15654]]}},{"type":"Feature","properties":{"id":1428865580,"highway":"cycleway"},"geometry":{"type":"LineString","coordinates":[[-2.06854,43.15654],[-2.06857,43.15648],[-2.06862,43.15641]]}},{"type":"Feature","properties":{"id":1443285801,"highway":"residential","oneway":"yes"},"geometry":{"type":"LineString","coordinates":[[-2.07139,43.15833],[-2.07141,43.15833],[-2.07144,43.15834],[-2.07145,43.15835],[-2.07146,43.15837],[-2.07147,43.15839],[-2.07146,43.15841],[-2.07145,43.15842],[-2.07143,43.15843],[-2.0714,43.15844],[-2.07138,43.15844],[-2.07136,43.15843],[-2.07134,43.15842],[-2.07133,43.15841],[-2.07132,43.15839],[-2.07132,43.15837],[-2.07133,43.15836],[-2.07134,43.15834],[-2.07136,43.15833],[-2.07139,43.15833]]}},{"type":"Feature","properties":{"id":1450940710,"highway":"path"},"geometry":{"type":"LineString","coordinates":[[-2.08002,43.17061],[-2.07998,43.17059],[-2.0799,43.17057],[-2.07985,43.17056],[-2.07978,43.17055],[-2.0797,43.17054],[-2.07967,43.17053],[-2.07966,43.17049],[-2.07964,43.17046]]}},{"type":"Feature","properties":{"id":1450940711,"highway":"track"},"geometry":{"type":"LineString","coordinates":[[-2.07833,43.16857],[-2.07839,43.16863],[-2.0785,43.16874],[-2.07865,43.16892],[-2.07876,43.16906],[-2.0789,43.16921],[-2.07908,43.16936],[-2.07917,43.16945],[-2.07926,43.16955],[-2.07949,43.16982],[-2.07962,43.16999],[-2.07972,43.17017],[-2.08002,43.17061],[-2.08035,43.17106],[-2.08052,43.1713],[-2.08056,43.17135],[-2.08068,43.17142],[-2.08083,43.17149],[-2.08097,43.17155],[-2.08104,43.1716],[-2.08111,43.17164],[-2.08123,43.17171],[-2.08134,43.17178],[-2.08136,43.1718],[-2.0814,43.17182]]}},{"type":"Feature","properties":{"id":1450945664,"highway":"path"},"geometry":{"type":"LineString","coordinates":[[-2.07728,43.16758],[-2.0774,43.16765],[-2.07745,43.1677],[-2.07749,43.16776],[-2.07755,43.16782],[-2.07759,43.16786],[-2.07765,43.1679],[-2.07772,43.16794],[-2.07779,43.16802],[-2.07788,43.1681],[-2.07795,43.16819],[-2.07798,43.16823],[-2.07801,43.16825],[-2.07804,43.16831],[-2.07802,43.16835],[-2.07803,43.16838],[-2.07805,43.16841],[-2.07808,43.16844],[-2.07811,43.16846],[-2.07815,43.16847],[-2.07819,43.16849],[-2.07826,43.16852],[-2.07833,43.16857]]}},{"type":"Feature","properties":{"id":1450945665,"highway":"track","nombre":"Goi bailara"},"geometry":{"type":"LineString","coordinates":[[-2.07412,43.17238],[-2.07401,43.17242],[-2.07388,43.17248],[-2.07369,43.17256],[-2.07358,43.17262],[-2.07344,43.17272],[-2.07317,43.17281],[-2.0729,43.17285],[-2.07277,43.17287],[-2.07266,43.17291],[-2.07253,43.173],[-2.0724,43.17311],[-2.07232,43.17319],[-2.07218,43.17325],[-2.07208,43.17332]]}},{"type":"Feature","properties":{"id":1450945666,"highway":"track"},"geometry":{"type":"LineString","coordinates":[[-2.07518,43.17765],[-2.07521,43.17765],[-2.07527,43.17764],[-2.07533,43.17761],[-2.07549,43.17751],[-2.07564,43.17742],[-2.07579,43.17733],[-2.07587,43.17731],[-2.07593,43.17731],[-2.07597,43.17731]]}},{"type":"Feature","properties":{"id":1450945667,"highway":"path"},"geometry":{"type":"LineString","coordinates":[[-2.07983,43.17256],[-2.07989,43.17243],[-2.0799,43.17228],[-2.07982,43.17216],[-2.07967,43.17212],[-2.07945,43.17211],[-2.0793,43.17212],[-2.07903,43.1722],[-2.0789,43.17222],[-2.07878,43.17222]]}},{"type":"Feature","properties":{"id":1450945668,"highway":"track"},"geometry":{"type":"LineString","coordinates":[[-2.07886,43.17586],[-2.07878,43.17589],[-2.07872,43.17591],[-2.07862,43.17597]]}},{"type":"Feature","properties":{"id":1450955211,"highway":"track"},"geometry":{"type":"LineString","coordinates":[[-2.06149,43.1779],[-2.06147,43.17799],[-2.06146,43.17803],[-2.06144,43.17808]]}},{"type":"Feature","properties":{"id":1450955212,"highway":"track","puente":"yes"},"geometry":{"type":"LineString","coordinates":[[-2.06149,43.17786],[-2.06149,43.1779]]}},{"type":"Feature","properties":{"id":1451391062,"highway":"track"},"geometry":{"type":"LineString","coordinates":[[-2.07521,43.16618],[-2.07514,43.16614],[-2.0751,43.16611],[-2.07505,43.16604],[-2.075,43.16596],[-2.07496,43.16589],[-2.07495,43.16582],[-2.07496,43.16577],[-2.07498,43.16572],[-2.07501,43.16568],[-2.07505,43.16565],[-2.07512,43.16562],[-2.0752,43.16561],[-2.07526,43.1656],[-2.07533,43.16561],[-2.07539,43.16562],[-2.07546,43.16564],[-2.07555,43.16567],[-2.07563,43.1657],[-2.07571,43.16573],[-2.07582,43.16573],[-2.07593,43.16574],[-2.07605,43.16574],[-2.07612,43.16574],[-2.0762,43.16577],[-2.0763,43.16579],[-2.07642,43.16583]]}},{"type":"Feature","properties":{"id":1451391063,"highway":"path"},"geometry":{"type":"LineString","coordinates":[[-2.07642,43.16583],[-2.07651,43.16587],[-2.07659,43.16591],[-2.07662,43.16597],[-2.07664,43.16603],[-2.0767,43.16607],[-2.07682,43.16613]]}},{"type":"Feature","properties":{"id":1451391065,"highway":"path"},"geometry":{"type":"LineString","coordinates":[[-2.07991,43.17329],[-2.0799,43.1732],[-2.07988,43.17312],[-2.07985,43.17304],[-2.07981,43.17295],[-2.07979,43.17285],[-2.0798,43.17269],[-2.07983,43.17256]]}},{"type":"Feature","properties":{"id":1454021341,"highway":"residential","nombre":"Isasti kalea","superficie":"ground"},"geometry":{"type":"LineString","coordinates":[[-2.07259,43.16253],[-2.07297,43.16212]]}},{"type":"Feature","properties":{"id":1454021342,"highway":"residential","nombre":"Isasti kalea","superficie":"unpaved"},"geometry":{"type":"LineString","coordinates":[[-2.07354,43.1629],[-2.07331,43.16282],[-2.07302,43.16275],[-2.07259,43.16253]]}},{"type":"Feature","properties":{"id":1454021343,"highway":"residential","nombre":"Sortalde kalea"},"geometry":{"type":"LineString","coordinates":[[-2.06976,43.16121],[-2.06986,43.16118],[-2.07015,43.1611]]}},{"type":"Feature","properties":{"id":1454021344,"highway":"residential","nombre":"Lasarbe kalea"},"geometry":{"type":"LineString","coordinates":[[-2.06983,43.16037],[-2.06962,43.15999]]}},{"type":"Feature","properties":{"id":1473728804,"highway":"unclassified","nombre":"Goi bailara"},"geometry":{"type":"LineString","coordinates":[[-2.07649,43.17972],[-2.07657,43.17968],[-2.07662,43.1796],[-2.07665,43.17949],[-2.07671,43.17938],[-2.07677,43.17928],[-2.07679,43.17919],[-2.07675,43.17896]]}},{"type":"Feature","properties":{"id":1473728805,"highway":"track","nombre":"Goi bailara"},"geometry":{"type":"LineString","coordinates":[[-2.07472,43.17921],[-2.07474,43.17914],[-2.07475,43.17906],[-2.07474,43.17889],[-2.07473,43.17864],[-2.07472,43.17854],[-2.07472,43.17845],[-2.07474,43.17831],[-2.07477,43.17822],[-2.07481,43.17814],[-2.07487,43.17806],[-2.07493,43.17797],[-2.07504,43.17781],[-2.07512,43.17771],[-2.07518,43.17765],[-2.0752,43.17761],[-2.07522,43.17757],[-2.07525,43.17754],[-2.07527,43.17752],[-2.07537,43.17744],[-2.07543,43.17734],[-2.07549,43.17716],[-2.07551,43.17708],[-2.07557,43.177],[-2.07567,43.17693],[-2.07577,43.17688],[-2.07587,43.17685],[-2.07612,43.17679],[-2.0763,43.17675],[-2.07643,43.17671],[-2.07655,43.1767],[-2.07664,43.17671],[-2.07684,43.17673],[-2.07702,43.17674],[-2.07719,43.17674],[-2.07742,43.17672],[-2.0776,43.17668],[-2.07783,43.17658],[-2.07795,43.17651],[-2.07806,43.17643],[-2.07824,43.17627],[-2.07837,43.17618],[-2.07862,43.17604],[-2.07876,43.17596],[-2.07883,43.17589],[-2.07886,43.17586],[-2.0789,43.17581],[-2.07898,43.17566],[-2.07901,43.17553]]}},{"type":"Feature","properties":{"id":1473728806,"highway":"unclassified","nombre":"Beballara","superficie":"asphalt"},"geometry":{"type":"LineString","coordinates":[[-2.0825,43.17825],[-2.08249,43.17821]]}},{"type":"Feature","properties":{"id":1473728807,"highway":"service","nombre":"Goi bailara"},"geometry":{"type":"LineString","coordinates":[[-2.08044,43.17846],[-2.08062,43.17846],[-2.0807,43.17841],[-2.08094,43.17839],[-2.0811,43.17839],[-2.08123,43.17841],[-2.08142,43.17845],[-2.08155,43.17849],[-2.08164,43.17853]]}}]}
