{"type":"FeatureCollection","features":[{"type":"Feature","properties":{"id":42160768,"highway":"tertiary","nombre":"Herriko plaza","superficie":"asphalt"},"geometry":{"type":"LineString","coordinates":[[-2.78386,43.13374],[-2.78397,43.13419],[-2.78411,43.13472],[-2.78414,43.13484],[-2.78421,43.13508]]}},{"type":"Feature","properties":{"id":42160773,"highway":"tertiary","nombre":"Herriko plaza","izena_eu":"Herriko plaza","nombre_es":"Herriko Plaza","superficie":"asphalt"},"geometry":{"type":"LineString","coordinates":[[-2.78386,43.13374],[-2.78383,43.1336],[-2.78379,43.13344],[-2.78374,43.13336],[-2.78348,43.13314],[-2.78321,43.13286],[-2.78312,43.13277],[-2.78292,43.13257],[-2.78266,43.13233],[-2.78263,43.1323]]}},{"type":"Feature","properties":{"id":58774842,"highway":"unclassified","nombre":"Ugarte auzoa"},"geometry":{"type":"LineString","coordinates":[[-2.77546,43.1301],[-2.77472,43.13032],[-2.77456,43.13042],[-2.7744,43.13052],[-2.77417,43.13057],[-2.77384,43.13072],[-2.77326,43.13105],[-2.77329,43.1312],[-2.77329,43.13131],[-2.77335,43.13144],[-2.77341,43.13153],[-2.77354,43.13182],[-2.77355,43.13194],[-2.77351,43.13202],[-2.77242,43.13269]]}},{"type":"Feature","properties":{"id":158852857,"highway":"residential","nombre":"Bildosola industrialdea","izena_eu":"Bildosola industrialdea","nombre_es":"Polígono Industrial Bildosola Auzunea","superficie":"asphalt"},"geometry":{"type":"LineString","coordinates":[[-2.7839,43.14634],[-2.78366,43.14495],[-2.78352,43.14386],[-2.78344,43.14273],[-2.78341,43.14231],[-2.78335,43.14151],[-2.78333,43.14122],[-2.78333,43.14112],[-2.78327,43.14032],[-2.78321,43.13942],[-2.78321,43.13931],[-2.78324,43.13909],[-2.78336,43.13875],[-2.78343,43.13863],[-2.78344,43.13861]]}},{"type":"Feature","properties":{"id":158852859,"highway":"trunk_link","ref":"N-240","oneway":"yes"},"geometry":{"type":"LineString","coordinates":[[-2.78426,43.13692],[-2.784,43.13664],[-2.78395,43.13656],[-2.78395,43.13649],[-2.78396,43.13643],[-2.78402,43.13636],[-2.78408,43.13632],[-2.7842,43.13631],[-2.78423,43.1363]]}},{"type":"Feature","properties":{"id":158852860,"highway":"residential","nombre":"Bildosola industrialdea","izena_eu":"Bildosola industrialdea","nombre_es":"Polígono Industrial Bildosola Auzunea","oneway":"yes"},"geometry":{"type":"LineString","coordinates":[[-2.78321,43.13931],[-2.78414,43.13927],[-2.78426,43.1393],[-2.78433,43.13936],[-2.78436,43.13946],[-2.78424,43.14022],[-2.78415,43.14028],[-2.78406,43.14029],[-2.78327,43.14032]]}},{"type":"Feature","properties":{"id":158852865,"highway":"tertiary","superficie":"asphalt"},"geometry":{"type":"LineString","coordinates":[[-2.78363,43.13838],[-2.78356,43.13835],[-2.78348,43.13836],[-2.78341,43.13838],[-2.78336,43.13843],[-2.78334,43.13848],[-2.78335,43.13853],[-2.78339,43.13858],[-2.78344,43.13861],[-2.78352,43.13862],[-2.7836,43.13861],[-2.78366,43.13858]]}},{"type":"Feature","properties":{"id":158852868,"highway":"tertiary","superficie":"asphalt"},"geometry":{"type":"LineString","coordinates":[[-2.78427,43.13609],[-2.78421,43.13612],[-2.78417,43.13617],[-2.78416,43.13621],[-2.78417,43.13624],[-2.7842,43.13628],[-2.78423,43.1363]]}},{"type":"Feature","properties":{"id":158852870,"highway":"trunk_link","ref":"N-240","oneway":"yes"},"geometry":{"type":"LineString","coordinates":[[-2.78457,43.13723],[-2.78468,43.13745],[-2.78475,43.13762],[-2.78477,43.13772],[-2.78474,43.13783],[-2.78469,43.1379],[-2.78459,43.13798],[-2.78444,43.13803]]}},{"type":"Feature","properties":{"id":158852872,"highway":"residential","nombre":"Bildosola Auzunea industrialgunea","izena_eu":"Bildosola Auzunea industrialgunea","nombre_es":"Polígono Industrial Bildosola Auzunea","oneway":"yes"},"geometry":{"type":"LineString","coordinates":[[-2.78144,43.13801],[-2.78278,43.13795],[-2.78289,43.13789]]}},{"type":"Feature","properties":{"id":158852874,"highway":"tertiary","superficie":"asphalt"},"geometry":{"type":"LineString","coordinates":[[-2.78366,43.13858],[-2.7837,43.13859],[-2.7841,43.13873],[-2.78422,43.13874],[-2.78441,43.13874]]}},{"type":"Feature","properties":{"id":158852875,"highway":"tertiary"},"geometry":{"type":"LineString","coordinates":[[-2.78444,43.13803],[-2.78428,43.13807]]}},{"type":"Feature","properties":{"id":158852877,"highway":"residential","oneway":"yes","superficie":"asphalt"},"geometry":{"type":"LineString","coordinates":[[-2.78393,43.14151],[-2.78404,43.14159],[-2.78409,43.14238],[-2.7841,43.14259],[-2.78403,43.14267],[-2.78394,43.1427],[-2.78344,43.14273]]}},{"type":"Feature","properties":{"id":158852879,"highway":"trunk_link","ref":"N-240","oneway":"yes"},"geometry":{"type":"LineString","coordinates":[[-2.78417,43.13617],[-2.78406,43.13624],[-2.7839,43.13629],[-2.78371,43.1363],[-2.78355,43.13626],[-2.78339,43.13619],[-2.78311,43.13606]]}},{"type":"Feature","properties":{"id":158852880,"highway":"residential","nombre":"Bildosola Auzunea industrialgunea","izena_eu":"Bildosola Auzunea industrialgunea","nombre_es":"Polígono Industrial Bildosola Auzunea","oneway":"yes"},"geometry":{"type":"LineString","coordinates":[[-2.78335,43.14151],[-2.78393,43.14151],[-2.78409,43.14148],[-2.78416,43.14143],[-2.78418,43.14131],[-2.78416,43.14039],[-2.78406,43.14029]]}},{"type":"Feature","properties":{"id":158852881,"highway":"residential","nombre":"Bildosola Auzunea industrialgunea","izena_eu":"Bildosola Auzunea industrialgunea","nombre_es":"Polígono Industrial Bildosola Auzunea","oneway":"yes"},"geometry":{"type":"LineString","coordinates":[[-2.78321,43.13931],[-2.78193,43.13936],[-2.78184,43.13933],[-2.78178,43.13923],[-2.78185,43.13894],[-2.78144,43.13801],[-2.78118,43.13739],[-2.78119,43.13727]]}},{"type":"Feature","properties":{"id":158852884,"highway":"residential","nombre":"Bildosola Auzunea industrialgunea","izena_eu":"Bildosola Auzunea industrialgunea","nombre_es":"Polígono Industrial Bildosola Auzunea"},"geometry":{"type":"LineString","coordinates":[[-2.78238,43.13743],[-2.78246,43.13746],[-2.78289,43.13789],[-2.78293,43.13793],[-2.78339,43.13836],[-2.78341,43.13838]]}},{"type":"Feature","properties":{"id":158853056,"highway":"tertiary","puente":"yes","superficie":"asphalt"},"geometry":{"type":"LineString","coordinates":[[-2.78532,43.13796],[-2.78531,43.13812],[-2.78527,43.13824],[-2.78521,43.13835],[-2.78512,43.13846],[-2.78501,43.13855],[-2.78485,43.13864],[-2.78475,43.13868],[-2.7846,43.13872],[-2.78441,43.13874]]}},{"type":"Feature","properties":{"id":158880808,"highway":"unclassified","nombre":"Astui auzoa"},"geometry":{"type":"LineString","coordinates":[[-2.78227,43.13074],[-2.78151,43.13117]]}},{"type":"Feature","properties":{"id":158880809,"highway":"unclassified","nombre":"Astui auzoa"},"geometry":{"type":"LineString","coordinates":[[-2.77897,43.12867],[-2.7795,43.12848],[-2.77984,43.12878],[-2.78003,43.12893],[-2.78077,43.12929],[-2.78118,43.1295],[-2.78159,43.12983],[-2.78188,43.13016],[-2.78202,43.13035],[-2.78205,43.1304],[-2.7822,43.13061],[-2.78227,43.13074],[-2.78241,43.13097],[-2.78244,43.13101],[-2.78228,43.13107],[-2.78216,43.13112]]}},{"type":"Feature","properties":{"id":158880810,"highway":"residential","nombre":"Astuibekoa auzoa","izena_eu":"Astuibekoa auzoa","nombre_es":"Barrio Astuibekoa"},"geometry":{"type":"LineString","coordinates":[[-2.78203,43.13231],[-2.78195,43.13236],[-2.78126,43.13273]]}},{"type":"Feature","properties":{"id":158880811,"highway":"residential","nombre":"Astuibekoa auzoa","izena_eu":"Astuibekoa auzoa","nombre_es":"Barrio Astuibekoa","superficie":"asphalt"},"geometry":{"type":"LineString","coordinates":[[-2.78233,43.13258],[-2.78225,43.13251],[-2.78203,43.13231],[-2.78194,43.13222],[-2.78121,43.13149],[-2.78088,43.13117],[-2.78088,43.13114],[-2.78089,43.13113],[-2.78125,43.13092]]}},{"type":"Feature","properties":{"id":158880812,"highway":"residential","nombre":"Herriko plaza","izena_eu":"Herriko plaza","nombre_es":"Herriko Plaza"},"geometry":{"type":"LineString","coordinates":[[-2.78321,43.13286],[-2.78327,43.13283],[-2.78362,43.13264],[-2.78366,43.13261],[-2.78371,43.13255],[-2.78377,43.13249],[-2.78388,43.13242],[-2.78408,43.13229],[-2.78431,43.13209],[-2.78447,43.1319],[-2.7847,43.13176],[-2.78496,43.13167]]}},{"type":"Feature","properties":{"id":158880813,"highway":"residential","nombre":"Herriko plaza","izena_eu":"Herriko plaza","nombre_es":"Herriko Plaza"},"geometry":{"type":"LineString","coordinates":[[-2.78501,43.13344],[-2.78519,43.13337],[-2.78535,43.13327],[-2.78542,43.13323],[-2.78551,43.13314],[-2.7856,43.133],[-2.78571,43.13281],[-2.7859,43.13262],[-2.78612,43.13247]]}},{"type":"Feature","properties":{"id":158880814,"highway":"residential","nombre":"Herriko plaza","izena_eu":"Herriko plaza","nombre_es":"Herriko Plaza"},"geometry":{"type":"LineString","coordinates":[[-2.78371,43.13255],[-2.78395,43.13264],[-2.784,43.13265],[-2.78412,43.13268],[-2.7843,43.13268],[-2.78453,43.13265],[-2.7847,43.13261],[-2.78488,43.13252],[-2.78503,43.13242],[-2.78532,43.13223],[-2.7857,43.13203]]}},{"type":"Feature","properties":{"id":158880815,"highway":"unclassified","nombre":"Gaztelu auzoa"},"geometry":{"type":"LineString","coordinates":[[-2.78692,43.13523],[-2.78693,43.13545],[-2.78684,43.13552],[-2.7867,43.13561],[-2.7866,43.13566],[-2.78648,43.13567],[-2.78631,43.13565],[-2.7861,43.1356],[-2.786,43.13558],[-2.78594,43.13562],[-2.78585,43.13568],[-2.78578,43.13571],[-2.78558,43.13571],[-2.78532,43.13573],[-2.78512,43.13583],[-2.78506,43.13586]]}},{"type":"Feature","properties":{"id":158880816,"highway":"unclassified","nombre":"Herriko Plaza auzoa","izena_eu":"Herriko Plaza auzoa","nombre_es":"Barrio Herriko Plaza","superficie":"asphalt"},"geometry":{"type":"LineString","coordinates":[[-2.78506,43.13586],[-2.78437,43.13549],[-2.7843,43.13547]]}},{"type":"Feature","properties":{"id":158880817,"highway":"residential","nombre":"Herriko plaza","superficie":"asphalt"},"geometry":{"type":"LineString","coordinates":[[-2.78263,43.1323],[-2.78242,43.13249],[-2.78233,43.13258],[-2.78211,43.13282],[-2.78207,43.13288],[-2.78194,43.13303]]}},{"type":"Feature","properties":{"id":158880818,"highway":"residential","nombre":"Herriko plaza","izena_eu":"Herriko plaza","nombre_es":"Herriko Plaza"},"geometry":{"type":"LineString","coordinates":[[-2.784,43.13265],[-2.78418,43.13284],[-2.78439,43.13306],[-2.78455,43.13318],[-2.78476,43.1333],[-2.78501,43.13344]]}},{"type":"Feature","properties":{"id":158880819,"highway":"residential","nombre":"Calleja auzoa","izena_eu":"Calleja auzoa","nombre_es":"Barrio Calleja"},"geometry":{"type":"LineString","coordinates":[[-2.78362,43.13264],[-2.78351,43.13245],[-2.78333,43.13214],[-2.78311,43.13181],[-2.78287,43.13149],[-2.78244,43.13101]]}},{"type":"Feature","properties":{"id":158880820,"highway":"pedestrian","nombre":"Infante kalea"},"geometry":{"type":"LineString","coordinates":[[-2.78374,43.13336],[-2.78388,43.13336],[-2.78455,43.1335],[-2.78477,43.13362]]}},{"type":"Feature","properties":{"id":158880824,"highway":"service","nombre":"Bildosola-Goiti auzoa"},"geometry":{"type":"LineString","coordinates":[[-2.78409,43.13753],[-2.78404,43.13739],[-2.78403,43.13733],[-2.78407,43.13728],[-2.78404,43.13724],[-2.78404,43.13718],[-2.78403,43.137],[-2.78401,43.13697]]}},{"type":"Feature","properties":{"id":158880825,"highway":"tertiary","nombre":"Ugarte auzoa","superficie":"asphalt"},"geometry":{"type":"LineString","coordinates":[[-2.78263,43.1323],[-2.78151,43.13117],[-2.78127,43.13093],[-2.78125,43.13092],[-2.78106,43.13074],[-2.78094,43.13062],[-2.78069,43.13037],[-2.77976,43.12944],[-2.77923,43.12893],[-2.77897,43.12867],[-2.7783,43.128],[-2.77827,43.12797],[-2.77823,43.12793],[-2.77793,43.12748],[-2.77711,43.12611],[-2.777,43.12592],[-2.77681,43.12563],[-2.77663,43.12542],[-2.77629,43.12511],[-2.7761,43.12494],[-2.7755,43.12441],[-2.77529,43.12426],[-2.77441,43.1239]]}},{"type":"Feature","properties":{"id":194025220,"highway":"trunk","nombre":"Bildosola auzoa","ref":"N-240"},"geometry":{"type":"LineString","coordinates":[[-2.788,43.14578],[-2.78792,43.14559],[-2.78787,43.14547],[-2.78771,43.14511],[-2.78728,43.14413],[-2.78714,43.14381],[-2.787,43.1435],[-2.78631,43.14194],[-2.78605,43.14136],[-2.78592,43.14106],[-2.78574,43.14066],[-2.78565,43.14041],[-2.78554,43.14002],[-2.78546,43.13974],[-2.78536,43.13927],[-2.78525,43.13873]]}},{"type":"Feature","properties":{"id":194775487,"highway":"trunk","nombre":"Tarragona-Bilbo errepidea","izena_eu":"Tarragona-Bilbo errepidea","nombre_es":"Carretera Tarragona-Bilbao","ref":"N-240"},"geometry":{"type":"LineString","coordinates":[[-2.78311,43.13606],[-2.78303,43.136],[-2.7827,43.13576]]}},{"type":"Feature","properties":{"id":194775539,"highway":"trunk","nombre":"Bildosolagoiti","ref":"N-240"},"geometry":{"type":"LineString","coordinates":[[-2.78426,43.13692],[-2.78399,43.1367],[-2.78388,43.13661],[-2.78364,43.13643],[-2.78311,43.13606]]}},{"type":"Feature","properties":{"id":194775660,"highway":"trunk_link","ref":"N-240","oneway":"yes"},"geometry":{"type":"LineString","coordinates":[[-2.78444,43.13803],[-2.78459,43.13805],[-2.78471,43.13807],[-2.78482,43.13811],[-2.78493,43.13818],[-2.78502,43.13828],[-2.78512,43.13844],[-2.78525,43.13873]]}},{"type":"Feature","properties":{"id":196028495,"highway":"trunk","nombre":"Ugarte auzoa","ref":"N-240"},"geometry":{"type":"LineString","coordinates":[[-2.77941,43.13332],[-2.77924,43.13319],[-2.77908,43.13307],[-2.77872,43.13279],[-2.77705,43.13157],[-2.77664,43.13126],[-2.77612,43.13086],[-2.77595,43.13073],[-2.77583,43.13062],[-2.77576,43.13055],[-2.77564,43.1304],[-2.77555,43.13027],[-2.77546,43.1301],[-2.775,43.12923],[-2.77478,43.12881],[-2.7747,43.12867],[-2.77461,43.12854],[-2.77453,43.12842],[-2.77441,43.12829],[-2.77423,43.12813],[-2.77339,43.1275],[-2.77305,43.12723]]}},{"type":"Feature","properties":{"id":196028514,"highway":"service","nombre":"Bildosola-Goiti auzoa","puente":"yes"},"geometry":{"type":"LineString","coordinates":[[-2.78401,43.13697],[-2.78375,43.137]]}},{"type":"Feature","properties":{"id":196028519,"highway":"tertiary"},"geometry":{"type":"LineString","coordinates":[[-2.78394,43.13819],[-2.78371,43.13832],[-2.78365,43.13836],[-2.78363,43.13838]]}},{"type":"Feature","properties":{"id":196028520,"highway":"service","nombre":"Bildosola-Goiti auzoa"},"geometry":{"type":"LineString","coordinates":[[-2.78375,43.137],[-2.78348,43.13701],[-2.78315,43.13704],[-2.78291,43.13707],[-2.78276,43.13717],[-2.7826,43.13725],[-2.78249,43.13733],[-2.78238,43.13743]]}},{"type":"Feature","properties":{"id":196511448,"highway":"residential","nombre":"Bildosola industrialdea","izena_eu":"Bildosola industrialdea","nombre_es":"Polígono Industrial Bildosola Auzunea","oneway":"yes"},"geometry":{"type":"LineString","coordinates":[[-2.78333,43.14122],[-2.78206,43.14127],[-2.78197,43.14131],[-2.78193,43.14138],[-2.78199,43.14227],[-2.78202,43.1423],[-2.78208,43.14234],[-2.78215,43.14236],[-2.78341,43.14231]]}},{"type":"Feature","properties":{"id":196540189,"highway":"track","nombre":"Olarra auzoa","superficie":"asphalt"},"geometry":{"type":"LineString","coordinates":[[-2.78894,43.14452],[-2.78892,43.14448]]}},{"type":"Feature","properties":{"id":196857335,"highway":"service"},"geometry":{"type":"LineString","coordinates":[[-2.77384,43.13072],[-2.77367,43.13064],[-2.77362,43.13053],[-2.77361,43.13039],[-2.77358,43.13032],[-2.77336,43.13004],[-2.77324,43.12997],[-2.77309,43.12995],[-2.77295,43.12997],[-2.77279,43.13003],[-2.77272,43.13007]]}},{"type":"Feature","properties":{"id":196857339,"highway":"service"},"geometry":{"type":"LineString","coordinates":[[-2.77326,43.13105],[-2.77312,43.13113],[-2.77285,43.13126],[-2.77269,43.1313],[-2.77262,43.1313],[-2.77252,43.13124],[-2.77249,43.13098],[-2.77247,43.1309],[-2.77239,43.13085],[-2.7723,43.13086],[-2.7721,43.13101],[-2.77196,43.13105]]}},{"type":"Feature","properties":{"id":196857344,"highway":"unclassified","nombre":"Ugarte auzoa"},"geometry":{"type":"LineString","coordinates":[[-2.77705,43.13157],[-2.77707,43.13121],[-2.77705,43.13097],[-2.77688,43.13057],[-2.77656,43.13003],[-2.77648,43.1299],[-2.77647,43.12983],[-2.77663,43.12977],[-2.77667,43.12974],[-2.77659,43.12949],[-2.77658,43.12929],[-2.77654,43.12909],[-2.77653,43.12886],[-2.77652,43.12815],[-2.77651,43.12804],[-2.77644,43.12794],[-2.77628,43.12778],[-2.77621,43.12773]]}},{"type":"Feature","properties":{"id":196857346,"highway":"unclassified","puente":"yes"},"geometry":{"type":"LineString","coordinates":[[-2.77666,43.12884],[-2.77686,43.1288]]}},{"type":"Feature","properties":{"id":196857350,"highway":"unclassified"},"geometry":{"type":"LineString","coordinates":[[-2.77653,43.12886],[-2.77666,43.12884]]}},{"type":"Feature","properties":{"id":196857356,"highway":"service","nombre":"Bildosola auzoa"},"geometry":{"type":"LineString","coordinates":[[-2.78653,43.14369],[-2.78663,43.14392],[-2.78714,43.14381]]}},{"type":"Feature","properties":{"id":196857359,"highway":"service"},"geometry":{"type":"LineString","coordinates":[[-2.77424,43.13018],[-2.77428,43.13025],[-2.77456,43.13042]]}},{"type":"Feature","properties":{"id":196857372,"highway":"unclassified","nombre":"Ugarte auzoa"},"geometry":{"type":"LineString","coordinates":[[-2.77686,43.1288],[-2.77716,43.12876],[-2.77732,43.12871],[-2.77726,43.12839],[-2.77823,43.12793]]}},{"type":"Feature","properties":{"id":196955385,"highway":"service"},"geometry":{"type":"LineString","coordinates":[[-2.78841,43.1388],[-2.78829,43.13852],[-2.78833,43.13844],[-2.78833,43.13836],[-2.78823,43.1382],[-2.78826,43.13794],[-2.78825,43.13784],[-2.78821,43.13773],[-2.78809,43.13756],[-2.78802,43.13742],[-2.78782,43.13685],[-2.78783,43.13675]]}},{"type":"Feature","properties":{"id":196955386,"highway":"service","nombre":"Mendieta auzoa","superficie":"paved"},"geometry":{"type":"LineString","coordinates":[[-2.79116,43.13846],[-2.79123,43.13845],[-2.79133,43.13837],[-2.7914,43.13827],[-2.7914,43.13821],[-2.79134,43.13811],[-2.79126,43.13803],[-2.79118,43.13796],[-2.79122,43.1379],[-2.79145,43.1377],[-2.79167,43.13759],[-2.7917,43.13749]]}},{"type":"Feature","properties":{"id":196955387,"highway":"service","nombre":"Garai-Urkiola auzoa"},"geometry":{"type":"LineString","coordinates":[[-2.80152,43.13937],[-2.80166,43.13927],[-2.8019,43.1392],[-2.80195,43.13918],[-2.80219,43.13917],[-2.80239,43.13918],[-2.80263,43.1392],[-2.80279,43.13917],[-2.80304,43.13913],[-2.8033,43.13908],[-2.80356,43.13901],[-2.804,43.13878],[-2.80429,43.13869],[-2.80474,43.1386],[-2.80513,43.13844],[-2.80557,43.13832]]}},{"type":"Feature","properties":{"id":196955389,"highway":"service"},"geometry":{"type":"LineString","coordinates":[[-2.78949,43.13773],[-2.78954,43.13745]]}},{"type":"Feature","properties":{"id":196955390,"highway":"unclassified","nombre":"Mendieta auzoa"},"geometry":{"type":"LineString","coordinates":[[-2.79344,43.13741],[-2.79325,43.13743],[-2.79303,43.13738],[-2.79286,43.13731],[-2.7926,43.13717],[-2.79248,43.13717],[-2.79233,43.13721],[-2.79183,43.13744],[-2.7917,43.13749],[-2.79156,43.13754],[-2.79072,43.13755],[-2.79042,43.13753],[-2.78954,43.13745],[-2.78949,43.13745],[-2.78925,43.13738],[-2.78856,43.13701],[-2.78791,43.13678],[-2.78783,43.13675],[-2.78774,43.13662],[-2.78768,43.13652],[-2.78743,43.13619],[-2.78714,43.13587],[-2.78705,43.13566],[-2.787,43.13534],[-2.78692,43.13523]]}},{"type":"Feature","properties":{"id":196955393,"highway":"unclassified"},"geometry":{"type":"LineString","coordinates":[[-2.78692,43.13523],[-2.78702,43.13528],[-2.78723,43.13533],[-2.7878,43.13542],[-2.78813,43.13547],[-2.78826,43.13551]]}},{"type":"Feature","properties":{"id":196955394,"highway":"service","superficie":"unpaved"},"geometry":{"type":"LineString","coordinates":[[-2.78921,43.13638],[-2.78906,43.13628],[-2.78888,43.13605],[-2.78865,43.13587],[-2.7884,43.13563],[-2.78826,43.13551]]}},{"type":"Feature","properties":{"id":196955395,"highway":"service","nombre":"Mendieta auzoa","superficie":"paved"},"geometry":{"type":"LineString","coordinates":[[-2.79153,43.1369],[-2.7916,43.1369],[-2.79167,43.13696],[-2.7917,43.13705],[-2.79171,43.13716],[-2.79172,43.13743],[-2.7917,43.13749]]}},{"type":"Feature","properties":{"id":196955396,"highway":"service"},"geometry":{"type":"LineString","coordinates":[[-2.78805,43.13599],[-2.78786,43.13591],[-2.78783,43.13588],[-2.78783,43.13579],[-2.78789,43.1357],[-2.78814,43.13559],[-2.78826,43.13551]]}},{"type":"Feature","properties":{"id":196956966,"highway":"unclassified","nombre":"Astui auzoa"},"geometry":{"type":"LineString","coordinates":[[-2.78221,43.12887],[-2.7822,43.12894],[-2.7821,43.12923],[-2.78203,43.1293],[-2.78186,43.12943],[-2.7817,43.1296],[-2.78168,43.12969],[-2.78169,43.12979],[-2.78175,43.1299],[-2.78188,43.13016]]}},{"type":"Feature","properties":{"id":196956967,"highway":"unclassified"},"geometry":{"type":"LineString","coordinates":[[-2.78099,43.12683],[-2.7809,43.12693],[-2.78067,43.12724],[-2.78063,43.1273],[-2.78049,43.12755],[-2.78013,43.12819],[-2.77995,43.12859],[-2.77984,43.12878]]}},{"type":"Feature","properties":{"id":196956968,"highway":"service"},"geometry":{"type":"LineString","coordinates":[[-2.78145,43.13038],[-2.78106,43.13074]]}},{"type":"Feature","properties":{"id":196956969,"highway":"service"},"geometry":{"type":"LineString","coordinates":[[-2.78201,43.12853],[-2.78221,43.12887]]}},{"type":"Feature","properties":{"id":196956970,"highway":"service"},"geometry":{"type":"LineString","coordinates":[[-2.78188,43.13016],[-2.78145,43.13038]]}},{"type":"Feature","properties":{"id":196956971,"highway":"service"},"geometry":{"type":"LineString","coordinates":[[-2.78187,43.12984],[-2.78175,43.1299]]}},{"type":"Feature","properties":{"id":196956972,"highway":"service","nombre":"Astui auzoa"},"geometry":{"type":"LineString","coordinates":[[-2.78263,43.12944],[-2.7821,43.12923]]}},{"type":"Feature","properties":{"id":196956974,"highway":"service"},"geometry":{"type":"LineString","coordinates":[[-2.78115,43.12788],[-2.78093,43.12774],[-2.78074,43.12764],[-2.78049,43.12755]]}},{"type":"Feature","properties":{"id":196956975,"highway":"unclassified"},"geometry":{"type":"LineString","coordinates":[[-2.78077,43.12929],[-2.78048,43.12937],[-2.77987,43.12942],[-2.77976,43.12944]]}},{"type":"Feature","properties":{"id":196956976,"highway":"unclassified"},"geometry":{"type":"LineString","coordinates":[[-2.77934,43.12732],[-2.77908,43.12739],[-2.77863,43.12753],[-2.77858,43.12758],[-2.77856,43.1276],[-2.77846,43.12781],[-2.77837,43.12787],[-2.77823,43.12793]]}},{"type":"Feature","properties":{"id":196956977,"highway":"service"},"geometry":{"type":"LineString","coordinates":[[-2.78163,43.12753],[-2.78147,43.12761],[-2.78136,43.12761],[-2.78126,43.12758],[-2.78077,43.12736],[-2.78063,43.1273]]}},{"type":"Feature","properties":{"id":196956978,"highway":"service"},"geometry":{"type":"LineString","coordinates":[[-2.77846,43.12913],[-2.77839,43.12899],[-2.77845,43.12898],[-2.77851,43.12898],[-2.77872,43.12908],[-2.77881,43.12911],[-2.77886,43.1291],[-2.77923,43.12893]]}},{"type":"Feature","properties":{"id":197780339,"highway":"pedestrian","nombre":"Herriko kalea"},"geometry":{"type":"LineString","coordinates":[[-2.78476,43.1333],[-2.78455,43.1335]]}},{"type":"Feature","properties":{"id":197780340,"highway":"residential","nombre":"Infante kalea"},"geometry":{"type":"LineString","coordinates":[[-2.78501,43.13344],[-2.78477,43.13362],[-2.7851,43.1338],[-2.78536,43.13391],[-2.78538,43.13391],[-2.78561,43.13393],[-2.78582,43.13396],[-2.78584,43.13398],[-2.78584,43.13414],[-2.78584,43.13431]]}},{"type":"Feature","properties":{"id":197780342,"highway":"unclassified","nombre":"Elexabeitia auzoa"},"geometry":{"type":"LineString","coordinates":[[-2.79147,43.13289],[-2.79126,43.1328],[-2.79117,43.13279],[-2.79104,43.13279],[-2.79071,43.13283],[-2.79021,43.1329],[-2.79012,43.13292],[-2.79008,43.13297],[-2.79007,43.13301],[-2.79,43.13332],[-2.78995,43.1334],[-2.78986,43.13345],[-2.78886,43.13382]]}},{"type":"Feature","properties":{"id":197780346,"highway":"service"},"geometry":{"type":"LineString","coordinates":[[-2.78561,43.12924],[-2.7854,43.12925]]}},{"type":"Feature","properties":{"id":197780348,"highway":"service"},"geometry":{"type":"LineString","coordinates":[[-2.78616,43.13421],[-2.78618,43.13435]]}},{"type":"Feature","properties":{"id":197780350,"highway":"service","nombre":"Yarza auzoa"},"geometry":{"type":"LineString","coordinates":[[-2.80143,43.13544],[-2.8017,43.13556]]}},{"type":"Feature","properties":{"id":197780355,"highway":"service"},"geometry":{"type":"LineString","coordinates":[[-2.78105,43.13295],[-2.78194,43.13303]]}},{"type":"Feature","properties":{"id":197780356,"highway":"service"},"geometry":{"type":"LineString","coordinates":[[-2.78601,43.12889],[-2.7857,43.12881]]}},{"type":"Feature","properties":{"id":197780357,"highway":"track"},"geometry":{"type":"MultiLineString","coordinates":[[[-2.81235,43.11371],[-2.81242,43.11383],[-2.81246,43.11413],[-2.81251,43.11419],[-2.81293,43.11449],[-2.81319,43.11483],[-2.81333,43.11493],[-2.81373,43.11512],[-2.81385,43.11521],[-2.81413,43.11554],[-2.81433,43.11569],[-2.81562,43.11618],[-2.81584,43.11629],[-2.81642,43.11668],[-2.81672,43.11683],[-2.81752,43.11708],[-2.8183,43.11742],[-2.81848,43.11756],[-2.81863,43.11771],[-2.81892,43.11806],[-2.819,43.11813],[-2.81913,43.1182],[-2.81956,43.11831],[-2.81972,43.11836],[-2.81983,43.11844],[-2.81996,43.11858],[-2.82005,43.11874],[-2.82017,43.11893],[-2.82049,43.11927],[-2.82082,43.11951],[-2.82126,43.11975],[-2.82182,43.11996],[-2.82248,43.12043],[-2.82288,43.12068],[-2.823,43.12078],[-2.82316,43.12097],[-2.82345,43.1215],[-2.82384,43.12194]],[[-2.82323,43.12224],[-2.82248,43.12236]],[[-2.82169,43.12232],[-2.82058,43.12213],[-2.82045,43.12212],[-2.82034,43.12218],[-2.82028,43.12226],[-2.8203,43.12246],[-2.82035,43.12256]],[[-2.82024,43.1233],[-2.81979,43.12344],[-2.81969,43.12353],[-2.81964,43.12361],[-2.81964,43.12371],[-2.81971,43.12379],[-2.81987,43.12392],[-2.81999,43.12411],[-2.82012,43.12417]],[[-2.82001,43.12587],[-2.81998,43.12586],[-2.81915,43.12546],[-2.81887,43.12529],[-2.8187,43.12515],[-2.81849,43.12504],[-2.81808,43.12484],[-2.81798,43.12485],[-2.81798,43.12491],[-2.81816,43.12526],[-2.81822,43.12549],[-2.81828,43.12558],[-2.81858,43.12587],[-2.81872,43.12604],[-2.81879,43.12618],[-2.81878,43.12631],[-2.81871,43.12644],[-2.81841,43.12683],[-2.81832,43.1271],[-2.81828,43.12732],[-2.81828,43.12749],[-2.81834,43.12772],[-2.81831,43.12783],[-2.8182,43.12809],[-2.81822,43.12834],[-2.81829,43.12884],[-2.8184,43.12916]],[[-2.81612,43.13048],[-2.81602,43.1304]]]}},{"type":"Feature","properties":{"id":197780367,"highway":"service","nombre":"Sarasola auzoa"},"geometry":{"type":"LineString","coordinates":[[-2.80244,43.13557],[-2.80245,43.13548],[-2.80244,43.13531]]}},{"type":"Feature","properties":{"id":197780369,"highway":"residential","nombre":"Astui auzoa"},"geometry":{"type":"LineString","coordinates":[[-2.78205,43.1304],[-2.78156,43.13075],[-2.78127,43.13093]]}},{"type":"Feature","properties":{"id":197780371,"highway":"service"},"geometry":{"type":"LineString","coordinates":[[-2.78323,43.1261],[-2.78326,43.12599],[-2.78329,43.12596]]}},{"type":"Feature","properties":{"id":197780373,"highway":"service"},"geometry":{"type":"LineString","coordinates":[[-2.78622,43.12826],[-2.78607,43.12826],[-2.78594,43.12829]]}},{"type":"Feature","properties":{"id":197780375,"highway":"unclassified","nombre":"Garai auzoa"},"geometry":{"type":"LineString","coordinates":[[-2.79096,43.13029],[-2.79082,43.13033],[-2.79067,43.13035],[-2.79054,43.13035],[-2.7903,43.13037],[-2.79002,43.13045],[-2.78985,43.13052],[-2.78964,43.13064],[-2.78944,43.13073],[-2.78868,43.13105],[-2.78864,43.13113],[-2.7886,43.13126],[-2.78843,43.1313],[-2.78822,43.1313],[-2.7881,43.13133],[-2.78782,43.13141],[-2.78777,43.13143],[-2.78769,43.13148],[-2.78723,43.13191],[-2.78719,43.13193],[-2.78698,43.13204],[-2.78612,43.13247]]}},{"type":"Feature","properties":{"id":197780377,"highway":"unclassified","nombre":"Gallao auzoa"},"geometry":{"type":"LineString","coordinates":[[-2.7968,43.13302],[-2.79649,43.13286],[-2.79635,43.13281],[-2.79601,43.13277],[-2.79494,43.1324],[-2.79471,43.13237],[-2.79446,43.13235],[-2.79421,43.13238],[-2.79382,43.13239],[-2.79364,43.13237],[-2.79351,43.13238],[-2.79314,43.13247],[-2.793,43.13254],[-2.79283,43.13266],[-2.79254,43.13281],[-2.7922,43.13291],[-2.79161,43.13305],[-2.7913,43.13311]]}},{"type":"Feature","properties":{"id":197780379,"highway":"service"},"geometry":{"type":"LineString","coordinates":[[-2.79718,43.13329],[-2.79685,43.13315],[-2.79685,43.1331],[-2.7968,43.13302]]}},{"type":"Feature","properties":{"id":197780382,"highway":"service","nombre":"Madariaga auzoa"},"geometry":{"type":"LineString","coordinates":[[-2.79618,43.13189],[-2.79603,43.13195],[-2.79584,43.132],[-2.79559,43.13219],[-2.79494,43.1324]]}},{"type":"Feature","properties":{"id":197780384,"highway":"unclassified","nombre":"Esparta auzoa"},"geometry":{"type":"LineString","coordinates":[[-2.78367,43.12579],[-2.78345,43.1259],[-2.78329,43.12596],[-2.78324,43.1259],[-2.78325,43.12581],[-2.78336,43.12559],[-2.78339,43.12557],[-2.78367,43.12579],[-2.78383,43.1259],[-2.78395,43.12599],[-2.78405,43.12606],[-2.78424,43.12614],[-2.78462,43.12627],[-2.78468,43.12631],[-2.78472,43.12634],[-2.78478,43.12646],[-2.78485,43.12657],[-2.78494,43.12664],[-2.78501,43.12668],[-2.78513,43.1267],[-2.78524,43.12668],[-2.78554,43.12665],[-2.78577,43.12658],[-2.78583,43.12656],[-2.78589,43.12659],[-2.78594,43.12668],[-2.78594,43.12683],[-2.78596,43.12711],[-2.786,43.12726],[-2.78608,43.12765],[-2.78609,43.1278],[-2.78596,43.12817],[-2.78594,43.12829],[-2.78594,43.12837],[-2.78592,43.12846],[-2.78583,43.12864],[-2.7857,43.12881],[-2.78547,43.12912],[-2.7854,43.12925],[-2.7854,43.12948],[-2.78552,43.12987],[-2.78552,43.12997],[-2.78547,43.13008],[-2.7854,43.13017],[-2.78516,43.1304],[-2.78497,43.13054],[-2.78488,43.13065],[-2.78482,43.13079],[-2.78483,43.13092],[-2.785,43.13116],[-2.78498,43.13159],[-2.78496,43.13167]]}},{"type":"Feature","properties":{"id":197780387,"highway":"service","nombre":"Esparta auzoa"},"geometry":{"type":"LineString","coordinates":[[-2.78547,43.13144],[-2.7854,43.13147],[-2.78529,43.13157],[-2.78523,43.13161],[-2.78509,43.13165],[-2.78496,43.13167]]}},{"type":"Feature","properties":{"id":197780389,"highway":"service","nombre":"Esparta auzoa"},"geometry":{"type":"LineString","coordinates":[[-2.78663,43.13081],[-2.7866,43.13087],[-2.78652,43.13093],[-2.78645,43.13099],[-2.78635,43.13101],[-2.78623,43.13101],[-2.78616,43.131],[-2.78597,43.131],[-2.78555,43.13101],[-2.78546,43.13102],[-2.78532,43.13106],[-2.785,43.13116]]}},{"type":"Feature","properties":{"id":197780391,"highway":"unclassified","nombre":"Calleja auzoa"},"geometry":{"type":"LineString","coordinates":[[-2.78364,43.13116],[-2.78369,43.13133],[-2.78372,43.13144],[-2.78371,43.13153],[-2.78367,43.13169],[-2.78367,43.13183],[-2.78371,43.13194],[-2.78408,43.13229]]}},{"type":"Feature","properties":{"id":197780392,"highway":"unclassified","nombre":"Ibarretxe auzoa"},"geometry":{"type":"LineString","coordinates":[[-2.79563,43.12989],[-2.79517,43.13007],[-2.79497,43.13006],[-2.7947,43.13005],[-2.79444,43.13005],[-2.7943,43.13006],[-2.79417,43.13009],[-2.79385,43.13021],[-2.79377,43.13022]]}},{"type":"Feature","properties":{"id":198238881,"highway":"service"},"geometry":{"type":"LineString","coordinates":[[-2.77866,43.13328],[-2.77908,43.13307]]}},{"type":"Feature","properties":{"id":198238882,"highway":"service","puente":"yes"},"geometry":{"type":"LineString","coordinates":[[-2.77594,43.12501],[-2.77573,43.1252]]}},{"type":"Feature","properties":{"id":198238883,"highway":"service"},"geometry":{"type":"LineString","coordinates":[[-2.7761,43.12494],[-2.77594,43.12501]]}},{"type":"Feature","properties":{"id":198238884,"highway":"service"},"geometry":{"type":"LineString","coordinates":[[-2.7819,43.13441],[-2.78123,43.13463]]}},{"type":"Feature","properties":{"id":198238885,"highway":"service"},"geometry":{"type":"LineString","coordinates":[[-2.77573,43.1252],[-2.77559,43.12525],[-2.77531,43.12534]]}},{"type":"Feature","properties":{"id":198238887,"highway":"service"},"geometry":{"type":"LineString","coordinates":[[-2.77924,43.13319],[-2.77965,43.13284],[-2.78034,43.13237],[-2.77993,43.13198]]}},{"type":"Feature","properties":{"id":198238889,"highway":"track"},"geometry":{"type":"LineString","coordinates":[[-2.81249,43.1136],[-2.81257,43.11363],[-2.81286,43.11367],[-2.81425,43.11403],[-2.81438,43.11405],[-2.81455,43.11407],[-2.81485,43.1141],[-2.8152,43.11411],[-2.81548,43.11407],[-2.81559,43.11404],[-2.8158,43.11402],[-2.81605,43.11408],[-2.81621,43.11416],[-2.81666,43.11449],[-2.81692,43.11464],[-2.81709,43.11468],[-2.81725,43.11468],[-2.8175,43.11466],[-2.8183,43.11463],[-2.81845,43.11462],[-2.81907,43.11465],[-2.8192,43.11467],[-2.81999,43.11485],[-2.82073,43.11509],[-2.82155,43.11535],[-2.82214,43.1156],[-2.82263,43.11585],[-2.82311,43.11603],[-2.82364,43.11625],[-2.82407,43.11638],[-2.82451,43.11649],[-2.82486,43.11658],[-2.82517,43.1167],[-2.82533,43.11682],[-2.82545,43.11696],[-2.82563,43.11713],[-2.8257,43.11717],[-2.82583,43.11731],[-2.82584,43.11741],[-2.82582,43.11789],[-2.82584,43.11804],[-2.82596,43.11828],[-2.82608,43.11841],[-2.82621,43.11851],[-2.82638,43.11866],[-2.82657,43.11881]]}},{"type":"Feature","properties":{"id":198238890,"highway":"track"},"geometry":{"type":"LineString","coordinates":[[-2.80546,43.10714],[-2.8056,43.10713],[-2.80569,43.10718],[-2.8058,43.1073],[-2.80584,43.10747],[-2.80583,43.10763],[-2.80575,43.10793],[-2.80562,43.1082],[-2.80553,43.10852],[-2.80545,43.10868],[-2.80521,43.10892],[-2.80503,43.10906],[-2.80497,43.10913],[-2.80495,43.10919],[-2.80499,43.10927],[-2.8051,43.10938],[-2.80532,43.10957],[-2.80537,43.10965],[-2.80538,43.10975],[-2.80545,43.11038],[-2.80548,43.11047],[-2.80598,43.1112],[-2.80611,43.11138],[-2.80622,43.11144],[-2.80632,43.11147],[-2.80672,43.11156],[-2.80699,43.11166],[-2.80748,43.11191],[-2.80782,43.1121],[-2.80807,43.11219],[-2.80854,43.11234],[-2.80898,43.11259],[-2.80999,43.11324],[-2.81038,43.1135],[-2.81065,43.11371],[-2.81077,43.11384],[-2.81083,43.11396],[-2.81087,43.11433],[-2.81084,43.11452],[-2.81078,43.11473],[-2.81068,43.11488],[-2.81072,43.11497]]}},{"type":"Feature","properties":{"id":198238891,"highway":"track"},"geometry":{"type":"LineString","coordinates":[[-2.8274,43.11141],[-2.82704,43.1115],[-2.82678,43.11152],[-2.82659,43.11149],[-2.82649,43.11146],[-2.82632,43.11137],[-2.82626,43.1113],[-2.82621,43.11118],[-2.82622,43.111],[-2.82618,43.11089],[-2.82614,43.1108],[-2.82603,43.11065],[-2.82555,43.11012],[-2.82539,43.10997],[-2.8253,43.1099],[-2.824,43.10922],[-2.82391,43.10918],[-2.82375,43.10916],[-2.82294,43.10906],[-2.82254,43.10899],[-2.82237,43.10894],[-2.82218,43.10885],[-2.822,43.10873],[-2.82186,43.1086],[-2.82169,43.10841],[-2.8216,43.10832],[-2.82146,43.10821],[-2.82118,43.10807],[-2.82086,43.10787],[-2.82061,43.10777],[-2.8204,43.1077],[-2.82023,43.10768],[-2.81997,43.10768],[-2.81982,43.10769],[-2.81937,43.10776],[-2.81908,43.10783],[-2.81896,43.10784],[-2.81884,43.10783],[-2.81868,43.1078],[-2.81853,43.10775],[-2.81817,43.10766],[-2.81794,43.10762],[-2.81745,43.1076],[-2.81703,43.10759],[-2.81675,43.1076],[-2.81647,43.10763],[-2.81639,43.10763],[-2.8163,43.1076],[-2.81619,43.10754],[-2.81581,43.10717],[-2.81575,43.10712],[-2.81515,43.10679],[-2.81497,43.10668],[-2.81482,43.10656],[-2.81465,43.10639],[-2.81449,43.1062],[-2.81434,43.10594],[-2.81429,43.10583],[-2.81421,43.10565],[-2.81413,43.10556],[-2.81397,43.10542],[-2.81378,43.1053],[-2.81361,43.10522],[-2.81334,43.10514],[-2.81315,43.10512],[-2.81286,43.10506],[-2.8126,43.10498],[-2.81243,43.10488],[-2.81233,43.10481],[-2.81206,43.10446],[-2.812,43.10434],[-2.81197,43.10425],[-2.81196,43.10413],[-2.81189,43.1036],[-2.81187,43.10351],[-2.8118,43.10338],[-2.81169,43.10325],[-2.81141,43.10299],[-2.81114,43.10286],[-2.81082,43.10272]]}},{"type":"Feature","properties":{"id":198515408,"highway":"unclassified","nombre":"Martxondi Goikoa auzoa"},"geometry":{"type":"MultiLineString","coordinates":[[[-2.7846,43.12083],[-2.7846,43.12083],[-2.78451,43.12082]],[[-2.77908,43.12094],[-2.77919,43.12116],[-2.77918,43.12123],[-2.77913,43.12126],[-2.77903,43.12126],[-2.77864,43.12116]]]}},{"type":"Feature","properties":{"id":199276319,"highway":"service","nombre":"Bildosola auzoa"},"geometry":{"type":"LineString","coordinates":[[-2.78679,43.14443],[-2.78677,43.14433],[-2.78685,43.14423],[-2.78697,43.14418],[-2.78728,43.14413]]}},{"type":"Feature","properties":{"id":199417181,"highway":"trunk","nombre":"Tarragona-Bilbo errepidea","izena_eu":"Tarragona-Bilbo errepidea","nombre_es":"Carretera Tarragona-Bilbao","ref":"N-240"},"geometry":{"type":"LineString","coordinates":[[-2.78525,43.13873],[-2.78522,43.1386],[-2.78514,43.1383],[-2.78506,43.13804],[-2.78495,43.13781],[-2.78485,43.13763],[-2.78473,43.13744],[-2.78457,43.13723]]}},{"type":"Feature","properties":{"id":200507650,"highway":"tertiary","nombre":"Bildosola-Goiti auzoa","superficie":"asphalt"},"geometry":{"type":"LineString","coordinates":[[-2.78456,43.13654],[-2.78472,43.13684],[-2.78485,43.13704],[-2.78514,43.1375],[-2.78528,43.13776],[-2.78532,43.13796]]}},{"type":"Feature","properties":{"id":200507651,"highway":"tertiary","nombre":"Bildosola-Goiti auzoa","oneway":"yes","superficie":"asphalt"},"geometry":{"type":"LineString","coordinates":[[-2.78447,43.13614],[-2.78441,43.13589]]}},{"type":"Feature","properties":{"id":200507652,"highway":"tertiary","nombre":"Herriko Plaza auzoa","izena_eu":"Herriko Plaza auzoa","nombre_es":"Barrio Herriko Plaza","oneway":"yes","superficie":"asphalt"},"geometry":{"type":"LineString","coordinates":[[-2.78441,43.13589],[-2.78429,43.13606],[-2.78427,43.13609]]}},{"type":"Feature","properties":{"id":200507657,"highway":"trunk","nombre":"Bildosolagoiti","ref":"N-240"},"geometry":{"type":"LineString","coordinates":[[-2.7826,43.13569],[-2.78166,43.13498],[-2.78135,43.13473],[-2.78123,43.13463],[-2.78108,43.13454]]}},{"type":"Feature","properties":{"id":200507660,"highway":"service","oneway":"yes","superficie":"asphalt"},"geometry":{"type":"LineString","coordinates":[[-2.7805,43.13413],[-2.78059,43.13408],[-2.78064,43.13403]]}},{"type":"Feature","properties":{"id":200507664,"highway":"service","oneway":"yes","superficie":"asphalt"},"geometry":{"type":"LineString","coordinates":[[-2.78108,43.13454],[-2.7809,43.1343],[-2.78077,43.13413],[-2.78064,43.13403],[-2.78046,43.13389]]}},{"type":"Feature","properties":{"id":201508913,"highway":"service","nombre":"Bildosola auzoa"},"geometry":{"type":"LineString","coordinates":[[-2.78775,43.14172],[-2.78774,43.1417],[-2.78738,43.14091],[-2.78736,43.1408],[-2.7874,43.14072],[-2.78751,43.14068],[-2.78759,43.14066],[-2.78796,43.14051],[-2.78837,43.14037],[-2.78845,43.14032],[-2.78854,43.14024],[-2.7886,43.14015],[-2.78876,43.13988],[-2.78883,43.13979],[-2.78889,43.13972],[-2.78902,43.13958],[-2.78911,43.13952],[-2.78924,43.13948],[-2.7899,43.13933],[-2.78995,43.13941]]}},{"type":"Feature","properties":{"id":201508916,"highway":"service","nombre":"Mendieta auzoa"},"geometry":{"type":"LineString","coordinates":[[-2.79422,43.13659],[-2.79448,43.13666],[-2.79473,43.13676],[-2.79497,43.1369],[-2.79518,43.13703],[-2.79527,43.13708],[-2.79535,43.13708],[-2.79538,43.13706],[-2.7953,43.13688],[-2.79506,43.13653],[-2.79492,43.13636],[-2.79489,43.13629],[-2.79487,43.1362],[-2.79483,43.13599],[-2.7948,43.13589],[-2.79464,43.13567],[-2.79434,43.13532],[-2.79428,43.13527],[-2.7941,43.13512],[-2.79406,43.13507],[-2.794,43.13497],[-2.794,43.13488]]}},{"type":"Feature","properties":{"id":201508919,"highway":"service","nombre":"Bildosola-Goiti auzoa"},"geometry":{"type":"LineString","coordinates":[[-2.78971,43.14145],[-2.78775,43.14172],[-2.78631,43.14194]]}},{"type":"Feature","properties":{"id":231652239,"highway":"track","puente":"yes","superficie":"concrete"},"geometry":{"type":"LineString","coordinates":[[-2.78529,43.1466],[-2.78534,43.14659],[-2.78538,43.14659]]}},{"type":"Feature","properties":{"id":231652240,"highway":"track","superficie":"earth"},"geometry":{"type":"LineString","coordinates":[[-2.78538,43.14659],[-2.78557,43.14659],[-2.7859,43.14649],[-2.786,43.14645],[-2.78606,43.1463]]}},{"type":"Feature","properties":{"id":231652241,"highway":"service","nombre":"Bildosola auzoa","oneway":"no","superficie":"asphalt"},"geometry":{"type":"LineString","coordinates":[[-2.78606,43.1463],[-2.78611,43.14617],[-2.78645,43.14608],[-2.78636,43.14582],[-2.78644,43.14576],[-2.7875,43.14553],[-2.78768,43.14549]]}},{"type":"Feature","properties":{"id":231717143,"highway":"tertiary","ref":"BI-3513","puente":"yes"},"geometry":{"type":"LineString","coordinates":[[-2.79388,43.12975],[-2.79386,43.12984]]}},{"type":"Feature","properties":{"id":231717144,"highway":"tertiary","nombre":"Elexabeitia auzoa","ref":"BI-3513","puente":"yes"},"geometry":{"type":"LineString","coordinates":[[-2.79262,43.13141],[-2.79256,43.13148]]}},{"type":"Feature","properties":{"id":231717145,"highway":"tertiary","nombre":"Elexabeitia auzoa","ref":"BI-3513","puente":"yes"},"geometry":{"type":"LineString","coordinates":[[-2.79375,43.13032],[-2.79372,43.13044]]}},{"type":"Feature","properties":{"id":231717146,"highway":"tertiary","nombre":"Ibarretxe auzoa","ref":"BI-3513"},"geometry":{"type":"LineString","coordinates":[[-2.79386,43.12984],[-2.79377,43.13022],[-2.79375,43.13032]]}},{"type":"Feature","properties":{"id":231717147,"highway":"tertiary","nombre":"Elexabeitia auzoa","ref":"BI-3513"},"geometry":{"type":"LineString","coordinates":[[-2.79256,43.13148],[-2.79193,43.13229],[-2.79147,43.13289]]}},{"type":"Feature","properties":{"id":231717148,"highway":"tertiary","nombre":"Elexabeitia auzoa","ref":"BI-3513"},"geometry":{"type":"LineString","coordinates":[[-2.79372,43.13044],[-2.7937,43.13052],[-2.79365,43.1306],[-2.79356,43.13072],[-2.79348,43.13077],[-2.79289,43.13112],[-2.79273,43.13127],[-2.79262,43.13141]]}},{"type":"Feature","properties":{"id":231717149,"highway":"tertiary","nombre":"Herriko plaza","puente":"yes"},"geometry":{"type":"LineString","coordinates":[[-2.78421,43.13508],[-2.78424,43.13521]]}},{"type":"Feature","properties":{"id":231717150,"highway":"tertiary","nombre":"Herriko Plaza auzoa","izena_eu":"Herriko Plaza auzoa","nombre_es":"Barrio Herriko Plaza","superficie":"asphalt"},"geometry":{"type":"LineString","coordinates":[[-2.78424,43.13521],[-2.7843,43.13547],[-2.78441,43.13589]]}},{"type":"Feature","properties":{"id":231717173,"highway":"trunk","nombre":"Tarragona-Bilbo errepidea","izena_eu":"Tarragona-Bilbo errepidea","nombre_es":"Carretera Tarragona-Bilbao","ref":"N-240","puente":"yes"},"geometry":{"type":"LineString","coordinates":[[-2.7827,43.13576],[-2.7826,43.13569]]}},{"type":"Feature","properties":{"id":231717176,"highway":"service","puente":"yes"},"geometry":{"type":"LineString","coordinates":[[-2.78876,43.13371],[-2.78869,43.13362]]}},{"type":"Feature","properties":{"id":231717177,"highway":"service","puente":"yes"},"geometry":{"type":"LineString","coordinates":[[-2.78702,43.13353],[-2.7871,43.13363]]}},{"type":"Feature","properties":{"id":231717178,"highway":"service","nombre":"Ibarretxe auzoa","puente":"yes"},"geometry":{"type":"LineString","coordinates":[[-2.79587,43.12868],[-2.79578,43.12856]]}},{"type":"Feature","properties":{"id":231717179,"highway":"service","nombre":"Ibarretxe auzoa"},"geometry":{"type":"LineString","coordinates":[[-2.79583,43.12875],[-2.79587,43.12868]]}},{"type":"Feature","properties":{"id":231717180,"highway":"service"},"geometry":{"type":"LineString","coordinates":[[-2.78869,43.13362],[-2.78865,43.13356]]}},{"type":"Feature","properties":{"id":231717181,"highway":"track"},"geometry":{"type":"LineString","coordinates":[[-2.79066,43.13263],[-2.79071,43.13283]]}},{"type":"Feature","properties":{"id":231717182,"highway":"service"},"geometry":{"type":"LineString","coordinates":[[-2.78886,43.13382],[-2.78876,43.13371]]}},{"type":"Feature","properties":{"id":231717183,"highway":"track","puente":"yes"},"geometry":{"type":"LineString","coordinates":[[-2.79063,43.13253],[-2.79066,43.13263]]}},{"type":"Feature","properties":{"id":231717184,"highway":"service"},"geometry":{"type":"LineString","coordinates":[[-2.7871,43.13363],[-2.78714,43.13369],[-2.78715,43.13374],[-2.78708,43.13388],[-2.78698,43.13412],[-2.78705,43.13429]]}},{"type":"Feature","properties":{"id":232778133,"highway":"tertiary","ref":"BI-3513"},"geometry":{"type":"LineString","coordinates":[[-2.82746,43.11151],[-2.82724,43.11168],[-2.82711,43.11174],[-2.82695,43.11177],[-2.8268,43.11177],[-2.82633,43.11171],[-2.82604,43.11166],[-2.82589,43.11159],[-2.82581,43.11148],[-2.82569,43.11113],[-2.82561,43.11095],[-2.82549,43.11081],[-2.82491,43.11022],[-2.82469,43.11011],[-2.8244,43.11003],[-2.82413,43.10994],[-2.82397,43.10987],[-2.8237,43.10971],[-2.82357,43.10967],[-2.82338,43.10966],[-2.82318,43.1097],[-2.82262,43.10982],[-2.8224,43.10985],[-2.82217,43.10986],[-2.82194,43.10979],[-2.82177,43.1097],[-2.82078,43.10881],[-2.82064,43.10871],[-2.82048,43.10864],[-2.82036,43.10861],[-2.82022,43.10861],[-2.82009,43.10864],[-2.81975,43.10882],[-2.81962,43.10887],[-2.81946,43.1089],[-2.81928,43.10889],[-2.81875,43.10882],[-2.81858,43.10883],[-2.81841,43.10887],[-2.81826,43.10893],[-2.81786,43.10931],[-2.81775,43.10939],[-2.81729,43.10963],[-2.81717,43.10973],[-2.81712,43.10981],[-2.81707,43.10991],[-2.81707,43.11],[-2.81713,43.1101],[-2.81719,43.11017],[-2.81727,43.11023],[-2.81753,43.11041],[-2.81761,43.11047],[-2.81769,43.11056],[-2.81776,43.11066],[-2.81781,43.11078],[-2.818,43.11127],[-2.81803,43.11138],[-2.81802,43.11148],[-2.81799,43.11157],[-2.81792,43.11167],[-2.8178,43.1118],[-2.81763,43.11192],[-2.81745,43.11201],[-2.81729,43.11208],[-2.8171,43.11215],[-2.81687,43.11219],[-2.81669,43.11222],[-2.81649,43.11222],[-2.81639,43.11221],[-2.81628,43.11218],[-2.81601,43.11206],[-2.81589,43.11201],[-2.81578,43.11199],[-2.81562,43.112],[-2.81544,43.11205],[-2.81454,43.11237],[-2.81444,43.11241],[-2.81432,43.11244],[-2.81409,43.11247],[-2.81364,43.1125],[-2.81344,43.11253],[-2.81332,43.11257],[-2.81319,43.11264],[-2.81312,43.1127],[-2.81303,43.11279],[-2.81266,43.11339],[-2.81259,43.11348],[-2.81249,43.1136],[-2.81235,43.11371],[-2.81224,43.1138],[-2.81211,43.11387],[-2.81197,43.11391],[-2.81167,43.11394],[-2.81153,43.11397],[-2.81138,43.11401],[-2.81126,43.11408],[-2.8112,43.11416],[-2.81101,43.11462],[-2.81095,43.11473],[-2.81089,43.11481],[-2.81082,43.11488],[-2.81072,43.11497],[-2.8095,43.11591],[-2.80924,43.11613],[-2.80911,43.11627],[-2.80896,43.11642],[-2.80858,43.11689],[-2.80846,43.11708],[-2.8084,43.11719],[-2.80838,43.11728],[-2.8084,43.11763],[-2.80837,43.11812],[-2.80834,43.11831],[-2.80829,43.11847],[-2.80785,43.11926],[-2.8078,43.11938],[-2.8078,43.11949],[-2.80777,43.11978],[-2.80774,43.11985],[-2.8077,43.11994],[-2.80761,43.12004],[-2.80735,43.12028],[-2.80709,43.12048],[-2.80674,43.12073],[-2.80663,43.12083],[-2.80655,43.12092],[-2.8062,43.12196],[-2.80613,43.1221],[-2.80581,43.1225],[-2.80543,43.12294],[-2.8054,43.12297],[-2.8053,43.12306],[-2.80515,43.12314],[-2.80492,43.12324],[-2.80458,43.12334],[-2.80436,43.12337],[-2.80404,43.12338],[-2.80396,43.1234],[-2.80381,43.12345],[-2.80369,43.12355],[-2.80363,43.12364],[-2.80332,43.12421],[-2.80327,43.12429],[-2.80261,43.12511],[-2.80248,43.12525],[-2.80236,43.12534],[-2.80219,43.12542],[-2.80088,43.12593],[-2.80065,43.12603],[-2.79949,43.12673],[-2.79903,43.12699],[-2.79894,43.12707],[-2.79845,43.12751],[-2.79833,43.12759],[-2.79718,43.12819],[-2.79695,43.12828],[-2.79578,43.12856],[-2.79569,43.12857],[-2.7956,43.12858],[-2.79543,43.12857],[-2.79512,43.12845],[-2.79487,43.12846],[-2.79467,43.12853],[-2.79429,43.1288],[-2.79409,43.12896],[-2.79403,43.1291],[-2.79388,43.12975]]}},{"type":"Feature","properties":{"id":244105963,"highway":"secondary","ref":"BI-2524"},"geometry":{"type":"LineString","coordinates":[[-2.80903,43.13922],[-2.8089,43.1392],[-2.80844,43.13911],[-2.80818,43.13902],[-2.80782,43.13881],[-2.80763,43.13869],[-2.80736,43.13853],[-2.80707,43.13841],[-2.80663,43.13826],[-2.80633,43.13816],[-2.80606,43.13809],[-2.80583,43.13802],[-2.80556,43.13796]]}},{"type":"Feature","properties":{"id":257834094,"highway":"path"},"geometry":{"type":"LineString","coordinates":[[-2.7917,43.11792],[-2.79171,43.11791]]}},{"type":"Feature","properties":{"id":257834095,"highway":"track"},"geometry":{"type":"MultiLineString","coordinates":[[[-2.7876,43.12127],[-2.78763,43.12127],[-2.78766,43.12126],[-2.78773,43.12121],[-2.78787,43.12113],[-2.78795,43.12108],[-2.78804,43.12103],[-2.78812,43.12099],[-2.78837,43.12091],[-2.78846,43.12086],[-2.78857,43.1208],[-2.78876,43.12063],[-2.78883,43.12059],[-2.78889,43.12056],[-2.78899,43.12052],[-2.78912,43.12047],[-2.78923,43.12042],[-2.78932,43.12038],[-2.78952,43.12026],[-2.78961,43.12023],[-2.78969,43.12017],[-2.78978,43.12009],[-2.78984,43.12003],[-2.78986,43.11999],[-2.78986,43.11997],[-2.78986,43.11993],[-2.78983,43.11988],[-2.78981,43.11984],[-2.78978,43.11976],[-2.78978,43.11973],[-2.78978,43.11969],[-2.78979,43.11964],[-2.78986,43.11945],[-2.7899,43.11937],[-2.79002,43.11921],[-2.79016,43.11906],[-2.79024,43.11899],[-2.79031,43.11894],[-2.79042,43.11886],[-2.79054,43.11873],[-2.79061,43.11862],[-2.79067,43.11855],[-2.79078,43.11845],[-2.79085,43.11841],[-2.791,43.11835],[-2.79115,43.11828],[-2.79127,43.11822],[-2.79139,43.11816],[-2.79144,43.11812]],[[-2.79167,43.11795],[-2.79171,43.11791],[-2.79174,43.11789],[-2.7918,43.11787],[-2.79188,43.11786],[-2.79201,43.11782],[-2.79219,43.11779],[-2.79238,43.11774],[-2.79267,43.11766],[-2.79303,43.11755],[-2.79315,43.11751],[-2.79319,43.1175],[-2.79325,43.11748],[-2.79334,43.11745],[-2.79342,43.11742],[-2.7935,43.11739],[-2.79357,43.11735],[-2.79363,43.1173]],[[-2.79372,43.11721],[-2.79375,43.11716],[-2.7938,43.11707],[-2.79384,43.11701],[-2.79388,43.11697],[-2.79394,43.11692],[-2.7942,43.11675],[-2.79424,43.11672],[-2.79425,43.1167],[-2.79429,43.11662],[-2.79435,43.11647],[-2.79442,43.11635],[-2.79443,43.1163]],[[-2.79459,43.11608],[-2.79469,43.11602],[-2.79481,43.11594],[-2.79489,43.11586],[-2.79496,43.11575],[-2.795,43.11568],[-2.79501,43.11561],[-2.79501,43.11552],[-2.79495,43.11536],[-2.79486,43.11511],[-2.79487,43.11507],[-2.79492,43.115],[-2.79493,43.11499]],[[-2.79534,43.11464],[-2.79539,43.1146],[-2.79549,43.11452],[-2.79586,43.11428],[-2.79613,43.11408],[-2.79622,43.11399],[-2.79628,43.11391],[-2.79633,43.11382],[-2.79635,43.11375],[-2.79634,43.11368],[-2.79632,43.11363],[-2.79629,43.11357],[-2.79626,43.11354]]]}},{"type":"Feature","properties":{"id":257834112,"highway":"path"},"geometry":{"type":"LineString","coordinates":[[-2.79319,43.1175],[-2.79318,43.1175]]}},{"type":"Feature","properties":{"id":342771235,"highway":"secondary","ref":"BI-2524"},"geometry":{"type":"LineString","coordinates":[[-2.80556,43.13796],[-2.80535,43.1379],[-2.80519,43.1378],[-2.80503,43.1375],[-2.80497,43.13728],[-2.80493,43.13697],[-2.80486,43.13677],[-2.80474,43.13667],[-2.80441,43.13658],[-2.80427,43.13653],[-2.80422,43.13649],[-2.80418,43.13642],[-2.80411,43.1362],[-2.80402,43.13612],[-2.80391,43.13606],[-2.80338,43.13588],[-2.80299,43.13577],[-2.80276,43.13564],[-2.80254,43.13543],[-2.80247,43.13536],[-2.80244,43.13531],[-2.80239,43.13526],[-2.80229,43.13494],[-2.80211,43.13456],[-2.80206,43.13448],[-2.80194,43.13447],[-2.80186,43.13452],[-2.80186,43.13468],[-2.8019,43.13492],[-2.80188,43.13512],[-2.8017,43.13556],[-2.80172,43.13569],[-2.80182,43.13578],[-2.8023,43.13601],[-2.80236,43.13609],[-2.80237,43.13619],[-2.80239,43.13634],[-2.8025,43.13645],[-2.80263,43.1365],[-2.80288,43.13655],[-2.80298,43.13661],[-2.80303,43.13667],[-2.80308,43.13688],[-2.80305,43.13714],[-2.803,43.13725],[-2.80292,43.13731],[-2.80282,43.13734],[-2.80271,43.13735],[-2.80256,43.1373],[-2.80216,43.13721],[-2.80188,43.1371],[-2.80171,43.13706],[-2.80153,43.13706],[-2.80125,43.13704],[-2.8008,43.1371],[-2.8004,43.13706],[-2.79956,43.13694],[-2.79804,43.13672],[-2.79782,43.13663],[-2.79761,43.13651],[-2.79727,43.13635],[-2.79691,43.1362],[-2.79659,43.13612],[-2.79623,43.13605],[-2.79584,43.13596],[-2.79555,43.13577],[-2.79504,43.1354],[-2.79435,43.13503],[-2.79406,43.13491],[-2.794,43.13488],[-2.79332,43.13456],[-2.79208,43.13408],[-2.79176,43.13398],[-2.79107,43.1338],[-2.79083,43.13374],[-2.79065,43.1337],[-2.79055,43.13368]]}},{"type":"Feature","properties":{"id":342771257,"highway":"track"},"geometry":{"type":"MultiLineString","coordinates":[[[-2.80485,43.1409],[-2.80479,43.14093],[-2.80477,43.14094]],[[-2.80451,43.14116],[-2.80441,43.14125],[-2.80437,43.14131],[-2.80442,43.1414],[-2.80451,43.14151],[-2.80462,43.1416],[-2.80471,43.14169],[-2.80481,43.14186],[-2.80487,43.14205],[-2.80492,43.14226],[-2.80492,43.14241],[-2.80487,43.14256],[-2.8048,43.14273],[-2.80474,43.14286],[-2.80474,43.14296],[-2.80478,43.14312],[-2.80481,43.14321],[-2.8049,43.14329],[-2.80502,43.14338],[-2.80516,43.14344],[-2.80523,43.14348],[-2.80534,43.14354],[-2.80554,43.14368],[-2.80586,43.14392],[-2.806,43.14404]]]}},{"type":"Feature","properties":{"id":342771264,"highway":"track"},"geometry":{"type":"MultiLineString","coordinates":[[[-2.806,43.14404],[-2.80616,43.1442],[-2.80621,43.14425],[-2.80668,43.14463],[-2.80673,43.14476]],[[-2.80675,43.14545],[-2.80673,43.1456],[-2.80681,43.14579],[-2.80689,43.1459]],[[-2.8074,43.14748],[-2.80726,43.14774],[-2.80704,43.14842],[-2.80701,43.14876],[-2.80702,43.14884],[-2.80702,43.14887],[-2.80702,43.14893],[-2.80709,43.149],[-2.80728,43.14902],[-2.80745,43.14902]]]}},{"type":"Feature","properties":{"id":388207485,"highway":"tertiary","ref":"BI-3513","oneway":"yes"},"geometry":{"type":"LineString","coordinates":[[-2.79085,43.1336],[-2.79082,43.13368],[-2.79083,43.13374]]}},{"type":"Feature","properties":{"id":388207486,"highway":"tertiary","ref":"BI-3513","oneway":"yes"},"geometry":{"type":"LineString","coordinates":[[-2.79107,43.1338],[-2.79099,43.13372],[-2.79095,43.13365]]}},{"type":"Feature","properties":{"id":388207487,"highway":"tertiary","ref":"BI-3513","oneway":"yes"},"geometry":{"type":"LineString","coordinates":[[-2.79083,43.13374],[-2.79089,43.1337],[-2.79095,43.13365],[-2.79099,43.13357],[-2.79102,43.13347]]}},{"type":"Feature","properties":{"id":408183131,"highway":"track"},"geometry":{"type":"LineString","coordinates":[[-2.81907,43.10633],[-2.81899,43.10637],[-2.81869,43.10651],[-2.81848,43.10656],[-2.81802,43.10661],[-2.81795,43.10661],[-2.8177,43.10661],[-2.81742,43.10664],[-2.81715,43.10666],[-2.81689,43.10666],[-2.81625,43.10671],[-2.81608,43.10671],[-2.8159,43.10669],[-2.81562,43.10661],[-2.81531,43.10646],[-2.81475,43.10615],[-2.81448,43.10598],[-2.81429,43.10583]]}},{"type":"Feature","properties":{"id":533458915,"highway":"tertiary","puente":"yes"},"geometry":{"type":"LineString","coordinates":[[-2.78428,43.13807],[-2.78406,43.13814],[-2.78394,43.13819]]}},{"type":"Feature","properties":{"id":533605905,"highway":"path"},"geometry":{"type":"LineString","coordinates":[[-2.81262,43.13079],[-2.81281,43.1307],[-2.81299,43.13067],[-2.81343,43.13068],[-2.81378,43.13071],[-2.81423,43.13081],[-2.81436,43.13086],[-2.81435,43.13095],[-2.8142,43.13104],[-2.81401,43.13114],[-2.81375,43.13116]]}},{"type":"Feature","properties":{"id":533605906,"highway":"path"},"geometry":{"type":"LineString","coordinates":[[-2.81395,43.12525],[-2.81399,43.12547],[-2.81409,43.12575],[-2.8142,43.12616],[-2.81435,43.12675],[-2.81437,43.1271],[-2.81444,43.12756],[-2.8146,43.12784],[-2.81483,43.12807],[-2.81519,43.12832]]}},{"type":"Feature","properties":{"id":533605907,"highway":"path"},"geometry":{"type":"LineString","coordinates":[[-2.81519,43.12832],[-2.81544,43.12851],[-2.81596,43.12879],[-2.81663,43.12917],[-2.81712,43.12948],[-2.81729,43.12954],[-2.81744,43.12953],[-2.81756,43.12948],[-2.81759,43.12942],[-2.81763,43.12936],[-2.81763,43.12918],[-2.81756,43.1289],[-2.81744,43.12858],[-2.81732,43.12832],[-2.8173,43.12815],[-2.81733,43.12806],[-2.81743,43.1281],[-2.81756,43.12823],[-2.81778,43.12849],[-2.81805,43.12883],[-2.81822,43.12904],[-2.81839,43.12919]]}},{"type":"Feature","properties":{"id":533605908,"highway":"path"},"geometry":{"type":"LineString","coordinates":[[-2.81805,43.12883],[-2.81809,43.12905],[-2.81818,43.12926]]}},{"type":"Feature","properties":{"id":533605909,"highway":"path"},"geometry":{"type":"LineString","coordinates":[[-2.81763,43.12936],[-2.81751,43.12926],[-2.81726,43.12897],[-2.81686,43.12849],[-2.81663,43.12812],[-2.81652,43.12785],[-2.8165,43.12757],[-2.81653,43.12717],[-2.81654,43.12693],[-2.81624,43.12648],[-2.81589,43.12593],[-2.8158,43.12562],[-2.81567,43.12513],[-2.81556,43.12475],[-2.81547,43.12449]]}},{"type":"Feature","properties":{"id":533605910,"highway":"path"},"geometry":{"type":"LineString","coordinates":[[-2.8139,43.12729],[-2.81397,43.12764],[-2.81406,43.12789],[-2.81434,43.12811],[-2.81473,43.12827],[-2.81502,43.12834],[-2.81519,43.12832],[-2.81527,43.12825],[-2.81527,43.12817],[-2.81527,43.12811],[-2.8152,43.12789],[-2.81513,43.12768],[-2.81518,43.12749],[-2.81524,43.12722],[-2.81524,43.12672]]}},{"type":"Feature","properties":{"id":533627291,"highway":"trunk","nombre":"Tarragona-Bilbo errepidea","izena_eu":"Tarragona-Bilbo errepidea","nombre_es":"Carretera Tarragona-Bilbao","ref":"N-240"},"geometry":{"type":"LineString","coordinates":[[-2.78457,43.13723],[-2.78443,43.13708],[-2.78426,43.13692]]}},{"type":"Feature","properties":{"id":533627292,"highway":"trunk","nombre":"Bildosolagoiti","ref":"N-240"},"geometry":{"type":"LineString","coordinates":[[-2.78108,43.13454],[-2.7805,43.13413]]}},{"type":"Feature","properties":{"id":533627293,"highway":"trunk","nombre":"Bildosolagoiti","ref":"N-240"},"geometry":{"type":"LineString","coordinates":[[-2.7805,43.13413],[-2.78012,43.13384],[-2.78,43.13375],[-2.77974,43.13357]]}},{"type":"Feature","properties":{"id":533627294,"highway":"trunk","nombre":"Tarragona-Bilbo errepidea","izena_eu":"Tarragona-Bilbo errepidea","nombre_es":"Carretera Tarragona-Bilbao","ref":"N-240","puente":"yes"},"geometry":{"type":"LineString","coordinates":[[-2.77974,43.13357],[-2.77941,43.13332]]}},{"type":"Feature","properties":{"id":543489830,"highway":"track"},"geometry":{"type":"LineString","coordinates":[[-2.81727,43.11023],[-2.8173,43.11031],[-2.81745,43.11046],[-2.8175,43.11054],[-2.8175,43.11062],[-2.81737,43.11094],[-2.81733,43.11109],[-2.81726,43.11118],[-2.81718,43.11119],[-2.81695,43.11103],[-2.81676,43.11089],[-2.81658,43.11067],[-2.81648,43.11059],[-2.81632,43.11051],[-2.81569,43.1103],[-2.8155,43.11021],[-2.81538,43.11008],[-2.81527,43.10993]]}},{"type":"Feature","properties":{"id":626438453,"highway":"service"},"geometry":{"type":"LineString","coordinates":[[-2.82756,43.11168],[-2.82746,43.11175]]}},{"type":"Feature","properties":{"id":626438458,"highway":"path"},"geometry":{"type":"LineString","coordinates":[[-2.81878,43.10628],[-2.81863,43.10627],[-2.81737,43.10607],[-2.81728,43.10603]]}},{"type":"Feature","properties":{"id":626438459,"highway":"track"},"geometry":{"type":"LineString","coordinates":[[-2.81285,43.10354],[-2.81282,43.10361],[-2.81277,43.10369],[-2.81268,43.10377],[-2.81262,43.1039],[-2.81259,43.10404],[-2.81261,43.10406],[-2.81269,43.10411],[-2.81287,43.10417],[-2.81302,43.10422],[-2.81336,43.10428],[-2.81356,43.10433],[-2.81369,43.10439],[-2.81381,43.10446],[-2.81407,43.10462],[-2.81455,43.10488],[-2.81478,43.10504],[-2.81491,43.10514],[-2.81504,43.10525],[-2.81509,43.10533],[-2.81511,43.1054],[-2.81512,43.1055],[-2.81515,43.10558],[-2.81522,43.10568],[-2.81529,43.10575],[-2.81549,43.1059],[-2.81571,43.10604],[-2.81589,43.10613],[-2.81605,43.10621],[-2.81623,43.10627],[-2.81643,43.10632],[-2.81663,43.10637],[-2.81708,43.10644],[-2.81734,43.10648],[-2.81765,43.10653],[-2.81792,43.10656],[-2.81802,43.10661]]}},{"type":"Feature","properties":{"id":627036709,"highway":"track"},"geometry":{"type":"LineString","coordinates":[[-2.8154,43.13078],[-2.81534,43.13069],[-2.81539,43.13004]]}},{"type":"Feature","properties":{"id":674896498,"highway":"unclassified","nombre":"Kareaga auzoa"},"geometry":{"type":"LineString","coordinates":[[-2.80485,43.14091],[-2.80485,43.1409]]}},{"type":"Feature","properties":{"id":674896500,"highway":"unclassified","nombre":"Sarasola auzoa"},"geometry":{"type":"LineString","coordinates":[[-2.80485,43.1409],[-2.80484,43.14086],[-2.80498,43.1406],[-2.80501,43.14023],[-2.80496,43.13999],[-2.80493,43.1397],[-2.80483,43.13948],[-2.80472,43.13933],[-2.80473,43.1392],[-2.80484,43.13901],[-2.8051,43.13884],[-2.80521,43.13882],[-2.80549,43.13881],[-2.8056,43.1388],[-2.80565,43.13877],[-2.80566,43.13872],[-2.80565,43.13864],[-2.80557,43.13832]]}},{"type":"Feature","properties":{"id":674896501,"highway":"service"},"geometry":{"type":"LineString","coordinates":[[-2.806,43.14404],[-2.80602,43.14418],[-2.80598,43.14431],[-2.80588,43.14442],[-2.80574,43.14456],[-2.80567,43.14463],[-2.80558,43.14476],[-2.80549,43.1449],[-2.80547,43.14501],[-2.8055,43.14518],[-2.80554,43.14535],[-2.80564,43.14546],[-2.80574,43.14564],[-2.8058,43.14578],[-2.80584,43.14599],[-2.8059,43.14645],[-2.80591,43.14668],[-2.80591,43.14682],[-2.80586,43.14721],[-2.80573,43.14744],[-2.8055,43.14764],[-2.80532,43.14769],[-2.80512,43.14772],[-2.80493,43.14772],[-2.80474,43.1477],[-2.8046,43.14765],[-2.80445,43.14758],[-2.80438,43.14754]]}},{"type":"Feature","properties":{"id":839952120,"highway":"unclassified","nombre":"San Martín auzoa"},"geometry":{"type":"LineString","coordinates":[[-2.79132,43.12805],[-2.79129,43.12839],[-2.79128,43.12856],[-2.79137,43.12873],[-2.79137,43.1288],[-2.79132,43.12886],[-2.79116,43.12896],[-2.7911,43.12901],[-2.7911,43.12903],[-2.79112,43.12934],[-2.79112,43.12975],[-2.79115,43.13013],[-2.79111,43.13022],[-2.79096,43.13029]]}},{"type":"Feature","properties":{"id":839952121,"highway":"service"},"geometry":{"type":"LineString","coordinates":[[-2.78775,43.13196],[-2.78772,43.13202],[-2.78767,43.13208],[-2.78756,43.13216]]}},{"type":"Feature","properties":{"id":839952122,"highway":"service"},"geometry":{"type":"LineString","coordinates":[[-2.78719,43.13193],[-2.7873,43.13194],[-2.78754,43.13193],[-2.78765,43.13193],[-2.78771,43.13195],[-2.78775,43.13196],[-2.78782,43.13199],[-2.7879,43.13203],[-2.78792,43.13206],[-2.78791,43.13211],[-2.78788,43.13217],[-2.78783,43.13222],[-2.78774,43.13229]]}},{"type":"Feature","properties":{"id":839953897,"highway":"track"},"geometry":{"type":"LineString","coordinates":[[-2.81777,43.12031],[-2.81902,43.12066],[-2.81915,43.12065],[-2.82098,43.1212],[-2.82198,43.12151],[-2.82236,43.12168],[-2.82336,43.12203],[-2.82357,43.12211]]}},{"type":"Feature","properties":{"id":839953898,"highway":"path"},"geometry":{"type":"LineString","coordinates":[[-2.81819,43.12955],[-2.818,43.12957],[-2.81759,43.12942]]}},{"type":"Feature","properties":{"id":839953899,"highway":"path"},"geometry":{"type":"LineString","coordinates":[[-2.81744,43.12953],[-2.81716,43.12917],[-2.81683,43.12896],[-2.81611,43.1284],[-2.81559,43.12817],[-2.81527,43.12817]]}},{"type":"Feature","properties":{"id":839953900,"highway":"track"},"geometry":{"type":"LineString","coordinates":[[-2.81832,43.1271],[-2.81826,43.127],[-2.81823,43.12666],[-2.81805,43.12628],[-2.81765,43.12595],[-2.81728,43.12531],[-2.8169,43.12475],[-2.81691,43.12454],[-2.8169,43.12424],[-2.81674,43.12387],[-2.81659,43.12359],[-2.81659,43.12341],[-2.81664,43.12324],[-2.8168,43.12307],[-2.8175,43.12276],[-2.81755,43.12263],[-2.81733,43.12223],[-2.81719,43.12184],[-2.81684,43.12118],[-2.81679,43.12104],[-2.81677,43.12082],[-2.81682,43.12071],[-2.81696,43.12058],[-2.81718,43.12048],[-2.81759,43.12035],[-2.81777,43.12031],[-2.81769,43.12029],[-2.8159,43.11984],[-2.81575,43.11984],[-2.81524,43.12],[-2.81516,43.1201],[-2.8151,43.12112],[-2.81523,43.12131],[-2.81524,43.12145],[-2.81521,43.12156],[-2.81501,43.1217],[-2.81478,43.1219],[-2.81468,43.12207],[-2.8147,43.12236],[-2.81477,43.12263],[-2.81475,43.12282],[-2.81461,43.12304],[-2.81442,43.12315],[-2.81367,43.12334],[-2.81345,43.12336],[-2.81276,43.1233],[-2.81264,43.12336],[-2.8126,43.12345],[-2.81267,43.12359],[-2.81289,43.12392],[-2.81309,43.12461],[-2.8131,43.12551],[-2.81319,43.12572],[-2.81361,43.12632],[-2.8138,43.12678],[-2.8139,43.12729]]}},{"type":"Feature","properties":{"id":839953901,"highway":"track"},"geometry":{"type":"LineString","coordinates":[[-2.81881,43.12838],[-2.81876,43.12839],[-2.81868,43.12809],[-2.81869,43.12793],[-2.81828,43.12732]]}},{"type":"Feature","properties":{"id":842886774,"highway":"track","superficie":"fine_gravel"},"geometry":{"type":"LineString","coordinates":[[-2.79097,43.12577],[-2.79137,43.12527],[-2.79175,43.12502],[-2.79199,43.12494],[-2.79231,43.12492],[-2.79256,43.12479],[-2.79318,43.12431],[-2.79354,43.12421],[-2.79371,43.12411],[-2.79382,43.12395],[-2.7938,43.1237],[-2.79369,43.12348],[-2.79343,43.12326],[-2.79284,43.12292],[-2.79215,43.12265],[-2.79142,43.12223],[-2.79114,43.12206],[-2.79117,43.12194],[-2.79156,43.12175],[-2.79209,43.1214],[-2.7925,43.12124],[-2.79302,43.1211],[-2.79333,43.121],[-2.79355,43.12088],[-2.79369,43.12066],[-2.79363,43.12045],[-2.7933,43.12015],[-2.79335,43.11999],[-2.79356,43.11965],[-2.79381,43.11942],[-2.79405,43.11923],[-2.79427,43.11883],[-2.79458,43.11853],[-2.79497,43.11826],[-2.79538,43.11801],[-2.79586,43.11787],[-2.79608,43.11753],[-2.79603,43.1174],[-2.79599,43.11724],[-2.79604,43.11709],[-2.79623,43.11687],[-2.79642,43.11666],[-2.79641,43.11656],[-2.7963,43.11634],[-2.79635,43.11616],[-2.79673,43.11587],[-2.79685,43.11568],[-2.79685,43.11555],[-2.79664,43.11532],[-2.79668,43.11521],[-2.797,43.11493],[-2.79714,43.11478],[-2.79756,43.11458],[-2.79795,43.11433],[-2.79836,43.11398],[-2.79846,43.11381],[-2.79857,43.11343],[-2.79871,43.11338],[-2.79918,43.11335],[-2.79931,43.11319],[-2.79948,43.11294],[-2.79976,43.11278],[-2.8003,43.11264],[-2.80063,43.11235],[-2.80105,43.11214],[-2.80134,43.11191],[-2.80146,43.11165],[-2.80151,43.11147],[-2.8014,43.11136],[-2.80095,43.11108]]}},{"type":"Feature","properties":{"id":847276232,"highway":"track"},"geometry":{"type":"LineString","coordinates":[[-2.80437,43.14131],[-2.8042,43.14111],[-2.80414,43.14104],[-2.80413,43.14099],[-2.80424,43.14088],[-2.80423,43.1408],[-2.80402,43.14055],[-2.8039,43.14048],[-2.80373,43.14043],[-2.80351,43.14025],[-2.80336,43.1402],[-2.80303,43.1402],[-2.8029,43.14013],[-2.80277,43.14003],[-2.80256,43.13996],[-2.80234,43.13994],[-2.8022,43.13996],[-2.80197,43.14004],[-2.80182,43.13999],[-2.80179,43.13995],[-2.80175,43.13987],[-2.80174,43.13976],[-2.80173,43.13961],[-2.80175,43.13942],[-2.80182,43.1393],[-2.8019,43.1392]]}},{"type":"Feature","properties":{"id":847276233,"highway":"track"},"geometry":{"type":"LineString","coordinates":[[-2.80651,43.14434],[-2.80638,43.14424],[-2.80616,43.1442]]}},{"type":"Feature","properties":{"id":847276234,"highway":"track"},"geometry":{"type":"LineString","coordinates":[[-2.80756,43.14822],[-2.80737,43.14835],[-2.80703,43.14885],[-2.80702,43.14887]]}},{"type":"Feature","properties":{"id":847276309,"highway":"track"},"geometry":{"type":"LineString","coordinates":[[-2.80414,43.14104],[-2.80384,43.14093],[-2.80341,43.14071],[-2.80322,43.14064],[-2.80306,43.14061],[-2.80281,43.14062],[-2.80256,43.14059],[-2.80228,43.14052],[-2.8021,43.14041],[-2.8019,43.14023],[-2.80183,43.14012],[-2.80179,43.14003],[-2.80179,43.13995]]}},{"type":"Feature","properties":{"id":847276310,"highway":"track"},"geometry":{"type":"LineString","coordinates":[[-2.80484,43.14086],[-2.80452,43.1409],[-2.80433,43.1409],[-2.80424,43.14088]]}},{"type":"Feature","properties":{"id":862793349,"highway":"track"},"geometry":{"type":"MultiLineString","coordinates":[[[-2.78285,43.14635],[-2.78278,43.14622],[-2.78258,43.14588],[-2.78246,43.14553],[-2.78241,43.14541],[-2.78231,43.14532],[-2.78224,43.14525],[-2.7822,43.14517],[-2.78223,43.14503],[-2.78221,43.14488],[-2.78217,43.14471],[-2.78223,43.14446],[-2.78214,43.14427],[-2.78197,43.14408],[-2.78169,43.14369],[-2.78151,43.14346],[-2.78143,43.14316],[-2.78138,43.1427],[-2.78134,43.14251],[-2.78127,43.14239],[-2.78107,43.14223],[-2.78097,43.14215],[-2.78091,43.14211]],[[-2.78078,43.14181],[-2.78079,43.14173],[-2.78071,43.14151],[-2.78061,43.14139]],[[-2.78041,43.14092],[-2.78066,43.14057],[-2.7808,43.14029],[-2.78077,43.14018],[-2.78065,43.14005],[-2.78027,43.13977],[-2.77998,43.13946],[-2.77988,43.13925],[-2.77977,43.13897],[-2.77969,43.13885],[-2.7795,43.13876]]]}},{"type":"Feature","properties":{"id":899651636,"highway":"tertiary","superficie":"asphalt"},"geometry":{"type":"LineString","coordinates":[[-2.78447,43.13614],[-2.78438,43.13609],[-2.78427,43.13609]]}},{"type":"Feature","properties":{"id":899651637,"highway":"tertiary","superficie":"asphalt"},"geometry":{"type":"LineString","coordinates":[[-2.78432,43.13632],[-2.78442,43.13631],[-2.78447,43.13626]]}},{"type":"Feature","properties":{"id":899651638,"highway":"tertiary","superficie":"asphalt"},"geometry":{"type":"LineString","coordinates":[[-2.78423,43.1363],[-2.78432,43.13632]]}},{"type":"Feature","properties":{"id":899653751,"highway":"tertiary","superficie":"asphalt"},"geometry":{"type":"LineString","coordinates":[[-2.78366,43.13858],[-2.7837,43.13853],[-2.78371,43.13847],[-2.78369,43.13842],[-2.78363,43.13838]]}},{"type":"Feature","properties":{"id":978100171,"highway":"tertiary","ref":"BI-3513","oneway":"yes"},"geometry":{"type":"LineString","coordinates":[[-2.79102,43.13347],[-2.79085,43.1336],[-2.79055,43.13368]]}},{"type":"Feature","properties":{"id":979408524,"highway":"unclassified","nombre":"Gaztelu"},"geometry":{"type":"LineString","coordinates":[[-2.78506,43.13586],[-2.78502,43.13588],[-2.78499,43.13598],[-2.78501,43.13609],[-2.78505,43.13624],[-2.78507,43.13645]]}},{"type":"Feature","properties":{"id":979408525,"highway":"secondary","ref":"BI-2524","superficie":"asphalt"},"geometry":{"type":"LineString","coordinates":[[-2.78584,43.13431],[-2.78571,43.13429],[-2.78528,43.13419],[-2.78512,43.13415],[-2.78478,43.13408],[-2.78453,43.13397],[-2.784,43.13373],[-2.78386,43.13374]]}},{"type":"Feature","properties":{"id":979408526,"highway":"tertiary","nombre":"Elexabeitia auzoa","ref":"BI-3513"},"geometry":{"type":"LineString","coordinates":[[-2.79147,43.13289],[-2.7913,43.13311],[-2.79102,43.13347]]}},{"type":"Feature","properties":{"id":979408527,"highway":"secondary","ref":"BI-2524"},"geometry":{"type":"LineString","coordinates":[[-2.79055,43.13368],[-2.79031,43.13363],[-2.7901,43.13361],[-2.78992,43.13361],[-2.78956,43.13367],[-2.78886,43.13382],[-2.78861,43.13388],[-2.7879,43.13416],[-2.78767,43.13421],[-2.78745,43.13424],[-2.78718,43.13428],[-2.78705,43.13429],[-2.78675,43.13432],[-2.7866,43.13433],[-2.78655,43.13434],[-2.78621,43.13435],[-2.78618,43.13435],[-2.786,43.13434],[-2.78591,43.13432],[-2.78584,43.13431]]}},{"type":"Feature","properties":{"id":979408528,"highway":"residential","nombre":"Herriko plaza","superficie":"asphalt"},"geometry":{"type":"LineString","coordinates":[[-2.78194,43.13303],[-2.78155,43.13349]]}},{"type":"Feature","properties":{"id":982925649,"highway":"track"},"geometry":{"type":"LineString","coordinates":[[-2.786,43.12726],[-2.78622,43.12683],[-2.78626,43.12676],[-2.7863,43.12671],[-2.78638,43.12665],[-2.78675,43.1265],[-2.78692,43.12645],[-2.78748,43.12648],[-2.78788,43.12641],[-2.78899,43.12606],[-2.78917,43.12603],[-2.78939,43.12603],[-2.79,43.12594],[-2.79047,43.12598],[-2.79079,43.12591],[-2.79097,43.12577]]}},{"type":"Feature","properties":{"id":1013555790,"highway":"path","superficie":"ground"},"geometry":{"type":"LineString","coordinates":[[-2.7816,43.13723],[-2.78118,43.13666],[-2.78071,43.13606],[-2.7804,43.13586],[-2.78013,43.13543],[-2.77989,43.13504],[-2.77956,43.1346],[-2.7792,43.13433]]}},{"type":"Feature","properties":{"id":1013555791,"highway":"path"},"geometry":{"type":"LineString","coordinates":[[-2.77912,43.13427],[-2.77899,43.13417],[-2.77871,43.13378],[-2.77865,43.13353],[-2.77862,43.13337],[-2.77866,43.13328]]}},{"type":"Feature","properties":{"id":1013555792,"highway":"path","puente":"yes"},"geometry":{"type":"LineString","coordinates":[[-2.7792,43.13433],[-2.77912,43.13427]]}},{"type":"Feature","properties":{"id":1016504068,"highway":"service","nombre":"Sarasola auzoa"},"geometry":{"type":"LineString","coordinates":[[-2.80923,43.12806],[-2.80918,43.1281],[-2.80914,43.12815],[-2.80912,43.12819],[-2.8091,43.1283],[-2.80908,43.12835],[-2.80905,43.12839],[-2.80902,43.12843],[-2.80897,43.12846],[-2.80882,43.12853],[-2.80869,43.12864],[-2.80853,43.12878],[-2.80837,43.12897],[-2.8083,43.12907],[-2.80826,43.12916],[-2.80824,43.12925],[-2.80823,43.12934],[-2.80826,43.1295],[-2.80827,43.12959],[-2.80827,43.12969],[-2.80826,43.1298],[-2.80824,43.12991],[-2.8082,43.13004],[-2.80815,43.13013],[-2.8081,43.13023],[-2.80805,43.13031],[-2.80797,43.13047],[-2.8079,43.13057],[-2.80783,43.13068],[-2.8078,43.13076],[-2.80771,43.13092],[-2.80764,43.13105],[-2.8076,43.13113],[-2.80754,43.13117],[-2.80748,43.1312],[-2.80741,43.13121],[-2.80734,43.13121],[-2.80726,43.1312],[-2.80715,43.13117],[-2.80693,43.1311],[-2.8068,43.13107],[-2.80671,43.13107],[-2.80665,43.13108],[-2.80662,43.13111],[-2.8066,43.13113],[-2.8066,43.13116]]}},{"type":"Feature","properties":{"id":1016504069,"highway":"service"},"geometry":{"type":"LineString","coordinates":[[-2.8041,43.12543],[-2.80409,43.12536],[-2.80408,43.12527],[-2.80404,43.12511],[-2.804,43.12498],[-2.80397,43.12493],[-2.80393,43.12487],[-2.80389,43.12484],[-2.80384,43.12481],[-2.80381,43.12478],[-2.80378,43.12474],[-2.80377,43.12469],[-2.80377,43.12461],[-2.80379,43.12451],[-2.80385,43.12438],[-2.80385,43.12434],[-2.80384,43.12427],[-2.80382,43.12423],[-2.80378,43.1242],[-2.80376,43.12419],[-2.80372,43.12418],[-2.80368,43.12418],[-2.8036,43.1242],[-2.80351,43.12421],[-2.80341,43.12422],[-2.80332,43.12421]]}},{"type":"Feature","properties":{"id":1016504070,"highway":"service"},"geometry":{"type":"LineString","coordinates":[[-2.80504,43.12633],[-2.80505,43.12622],[-2.80502,43.12608],[-2.80477,43.12582],[-2.80467,43.1257],[-2.8046,43.1256],[-2.80457,43.12549],[-2.80457,43.12539],[-2.8046,43.12532],[-2.80464,43.12527],[-2.80471,43.12522],[-2.80478,43.12513],[-2.80483,43.12504],[-2.80486,43.1248],[-2.80488,43.12473],[-2.80492,43.12466],[-2.80499,43.12461],[-2.8051,43.12454],[-2.80521,43.1245],[-2.80529,43.12447],[-2.80538,43.12446],[-2.80555,43.12445],[-2.80565,43.12444],[-2.80572,43.12441],[-2.80575,43.12438],[-2.80576,43.12435],[-2.80576,43.12431],[-2.80574,43.12427],[-2.80569,43.12422],[-2.80548,43.12401],[-2.80539,43.12392],[-2.80535,43.12387],[-2.80533,43.12382],[-2.8053,43.12369],[-2.80529,43.12364],[-2.8053,43.1236],[-2.80531,43.12358],[-2.80534,43.12355],[-2.80539,43.12353],[-2.80548,43.12348],[-2.80553,43.12343],[-2.80559,43.12338],[-2.80565,43.12329],[-2.80566,43.12325],[-2.80566,43.12321],[-2.80564,43.12317],[-2.80562,43.12314],[-2.80557,43.1231],[-2.80545,43.12302],[-2.8054,43.12297]]}},{"type":"Feature","properties":{"id":1154747033,"highway":"track"},"geometry":{"type":"LineString","coordinates":[[-2.78971,43.14145],[-2.78988,43.14128],[-2.79033,43.14103],[-2.79064,43.14091],[-2.79076,43.14093],[-2.79085,43.14099],[-2.79125,43.1415],[-2.79159,43.1417],[-2.79166,43.1418],[-2.79171,43.14225],[-2.79173,43.14247],[-2.79189,43.14279],[-2.79207,43.14295],[-2.79234,43.14304],[-2.79265,43.14305],[-2.79369,43.1428],[-2.79399,43.14266],[-2.79427,43.14246],[-2.79442,43.14242],[-2.79455,43.14238],[-2.79523,43.14233],[-2.79605,43.14228],[-2.79626,43.1423]]}},{"type":"Feature","properties":{"id":1154747034,"highway":"track"},"geometry":{"type":"LineString","coordinates":[[-2.79442,43.14242],[-2.79477,43.14222],[-2.79548,43.14185],[-2.79605,43.14155],[-2.79619,43.14142],[-2.79636,43.14117],[-2.79649,43.14096],[-2.79662,43.14084],[-2.797,43.14061],[-2.79722,43.14045],[-2.79722,43.14043],[-2.79723,43.1404],[-2.79715,43.14027],[-2.79676,43.13987],[-2.79664,43.13984]]}},{"type":"Feature","properties":{"id":1154747035,"highway":"track"},"geometry":{"type":"LineString","coordinates":[[-2.80187,43.14645],[-2.80223,43.14614],[-2.80252,43.14592],[-2.80262,43.14581],[-2.80268,43.14567],[-2.8027,43.14557],[-2.80268,43.14545],[-2.80257,43.14542],[-2.8019,43.14537],[-2.80123,43.14535],[-2.80093,43.14537],[-2.80089,43.14544]]}},{"type":"Feature","properties":{"id":1166232116,"highway":"track"},"geometry":{"type":"LineString","coordinates":[[-2.79535,43.13708],[-2.79553,43.13721],[-2.79574,43.1373],[-2.79607,43.13742],[-2.79638,43.13756],[-2.7965,43.13766],[-2.79671,43.13787],[-2.79694,43.13799],[-2.79709,43.13809],[-2.79731,43.13841],[-2.79738,43.13884],[-2.79731,43.13901],[-2.79713,43.13924],[-2.79708,43.13939],[-2.79709,43.13953],[-2.79712,43.13967],[-2.79731,43.13995],[-2.7977,43.14002],[-2.79835,43.14006],[-2.79864,43.14008],[-2.79878,43.13999],[-2.79892,43.13993],[-2.79917,43.13994],[-2.8,43.14007],[-2.80021,43.14007],[-2.80036,43.14012],[-2.80044,43.1402],[-2.80055,43.14044],[-2.80064,43.14057],[-2.80091,43.14072],[-2.8011,43.14076],[-2.80119,43.14077],[-2.80128,43.14053],[-2.80135,43.1403],[-2.80149,43.14005],[-2.80159,43.13993],[-2.80174,43.13976]]}},{"type":"Feature","properties":{"id":1166232119,"highway":"track"},"geometry":{"type":"LineString","coordinates":[[-2.79731,43.13995],[-2.79727,43.14009],[-2.79728,43.1402],[-2.79729,43.14029],[-2.79729,43.14036],[-2.79727,43.14039],[-2.79722,43.14043]]}},{"type":"Feature","properties":{"id":1166232120,"highway":"track"},"geometry":{"type":"LineString","coordinates":[[-2.80591,43.14668],[-2.80563,43.14676],[-2.80525,43.14677],[-2.80494,43.14674],[-2.80472,43.14664],[-2.80447,43.1465],[-2.80414,43.14622],[-2.80398,43.14613],[-2.80383,43.1461],[-2.80367,43.14615],[-2.80347,43.14628],[-2.80322,43.14643],[-2.80299,43.1465],[-2.80228,43.14651],[-2.80211,43.14652],[-2.80194,43.14652]]}},{"type":"Feature","properties":{"id":1166232122,"highway":"track"},"geometry":{"type":"LineString","coordinates":[[-2.79891,43.14294],[-2.79917,43.14297]]}},{"type":"Feature","properties":{"id":1167961789,"highway":"tertiary","oneway":"yes"},"geometry":{"type":"LineString","coordinates":[[-2.78432,43.13632],[-2.78456,43.13654]]}},{"type":"Feature","properties":{"id":1167961790,"highway":"tertiary","nombre":"Bildosola-Goiti auzoa","oneway":"yes"},"geometry":{"type":"LineString","coordinates":[[-2.78456,43.13654],[-2.78448,43.13629],[-2.78447,43.13626]]}},{"type":"Feature","properties":{"id":1188419623,"highway":"tertiary","nombre":"Bildosola-Goiti auzoa","superficie":"asphalt"},"geometry":{"type":"LineString","coordinates":[[-2.78447,43.13626],[-2.78449,43.1362],[-2.78447,43.13614]]}},{"type":"Feature","properties":{"id":1255188871,"highway":"track","superficie":"paved"},"geometry":{"type":"LineString","coordinates":[[-2.77858,43.12758],[-2.77852,43.12752],[-2.77845,43.12743],[-2.77841,43.12737]]}},{"type":"Feature","properties":{"id":1255188872,"highway":"track"},"geometry":{"type":"LineString","coordinates":[[-2.77841,43.12737],[-2.77841,43.1273],[-2.77848,43.12707],[-2.77856,43.12692],[-2.7787,43.12662],[-2.77884,43.12643],[-2.7789,43.12636]]}},{"type":"Feature","properties":{"id":1255188874,"highway":"service"},"geometry":{"type":"LineString","coordinates":[[-2.777,43.12592],[-2.77706,43.1259],[-2.77716,43.12583],[-2.77721,43.12578],[-2.77724,43.12576],[-2.7773,43.12569],[-2.77734,43.12566],[-2.77745,43.1256],[-2.77749,43.12559],[-2.77752,43.12561],[-2.77757,43.12568],[-2.77758,43.12571],[-2.77759,43.12576],[-2.77762,43.12582],[-2.77773,43.1259]]}},{"type":"Feature","properties":{"id":1255188875,"highway":"track"},"geometry":{"type":"LineString","coordinates":[[-2.77934,43.12732],[-2.77956,43.12725],[-2.77991,43.12713],[-2.78007,43.12708],[-2.78054,43.12692],[-2.78086,43.12684],[-2.78099,43.12683]]}},{"type":"Feature","properties":{"id":1255188878,"highway":"service","oneway":"yes"},"geometry":{"type":"LineString","coordinates":[[-2.78292,43.13257],[-2.78311,43.13248],[-2.78286,43.13222],[-2.78266,43.13233]]}},{"type":"Feature","properties":{"id":1255768767,"highway":"service"},"geometry":{"type":"LineString","coordinates":[[-2.77559,43.12525],[-2.77548,43.12517],[-2.77532,43.12501],[-2.7752,43.1248],[-2.77512,43.12469],[-2.775,43.12455],[-2.77477,43.12444],[-2.77448,43.1244],[-2.77416,43.1244],[-2.77404,43.12439]]}},{"type":"Feature","properties":{"id":1256478302,"highway":"service"},"geometry":{"type":"LineString","coordinates":[[-2.78675,43.13432],[-2.78677,43.13444],[-2.78674,43.13455],[-2.78664,43.13473]]}},{"type":"Feature","properties":{"id":1256478304,"highway":"service"},"geometry":{"type":"LineString","coordinates":[[-2.7866,43.13433],[-2.7866,43.13455]]}},{"type":"Feature","properties":{"id":1256478305,"highway":"service"},"geometry":{"type":"LineString","coordinates":[[-2.78591,43.13432],[-2.78591,43.13436],[-2.78592,43.13439],[-2.78594,43.13444],[-2.78597,43.13447],[-2.78601,43.13448],[-2.78608,43.13448]]}},{"type":"Feature","properties":{"id":1256478307,"highway":"footway"},"geometry":{"type":"LineString","coordinates":[[-2.78535,43.13327],[-2.7853,43.13322],[-2.78524,43.13326],[-2.78519,43.13327],[-2.78511,43.13326],[-2.78496,43.13326],[-2.78486,43.13327],[-2.78476,43.1333]]}},{"type":"Feature","properties":{"id":1256478308,"highway":"footway"},"geometry":{"type":"LineString","coordinates":[[-2.78524,43.13326],[-2.78517,43.13321],[-2.78513,43.13316],[-2.78511,43.13312],[-2.78509,43.13308],[-2.78509,43.13303],[-2.78511,43.13298],[-2.78511,43.13295],[-2.78508,43.13292],[-2.78504,43.13289],[-2.78499,43.13289],[-2.78495,43.13289],[-2.78491,43.13291],[-2.78488,43.13293],[-2.78485,43.13296],[-2.78486,43.13299],[-2.78488,43.13301],[-2.7849,43.13304],[-2.78491,43.13306],[-2.78494,43.13311],[-2.78494,43.13313],[-2.78494,43.13315],[-2.78492,43.13319],[-2.7849,43.13321],[-2.78489,43.13324],[-2.78486,43.13327]]}},{"type":"Feature","properties":{"id":1256478310,"highway":"service"},"geometry":{"type":"LineString","coordinates":[[-2.79132,43.12805],[-2.79134,43.12794],[-2.79136,43.12787],[-2.79138,43.12783],[-2.79144,43.12779],[-2.79146,43.12778],[-2.79148,43.12779],[-2.79152,43.12782],[-2.79157,43.12784],[-2.79163,43.12787]]}},{"type":"Feature","properties":{"id":1256478311,"highway":"track"},"geometry":{"type":"LineString","coordinates":[[-2.7911,43.12903],[-2.79105,43.129],[-2.791,43.12895],[-2.79094,43.12886],[-2.79081,43.12876],[-2.79073,43.12871],[-2.79057,43.12868],[-2.79047,43.12866],[-2.79041,43.12864],[-2.79036,43.12861],[-2.79034,43.12859],[-2.79036,43.12853],[-2.79041,43.12848],[-2.79046,43.12841],[-2.79046,43.12831],[-2.79042,43.12825],[-2.79039,43.12815]]}},{"type":"Feature","properties":{"id":1256478320,"highway":"service"},"geometry":{"type":"LineString","coordinates":[[-2.78077,43.12736],[-2.78094,43.12733],[-2.7813,43.12726]]}},{"type":"Feature","properties":{"id":1256478321,"highway":"service"},"geometry":{"type":"LineString","coordinates":[[-2.78183,43.12684],[-2.78175,43.12671],[-2.78169,43.12665],[-2.78163,43.12662],[-2.78155,43.12662],[-2.78142,43.1267],[-2.78139,43.12674],[-2.78139,43.12686],[-2.78135,43.1269],[-2.78131,43.1269],[-2.7811,43.12681],[-2.78104,43.12681],[-2.78099,43.12683]]}},{"type":"Feature","properties":{"id":1256502500,"highway":"service"},"geometry":{"type":"LineString","coordinates":[[-2.78211,43.13282],[-2.7822,43.13292],[-2.78231,43.13304],[-2.78232,43.13306],[-2.78233,43.13312]]}},{"type":"Feature","properties":{"id":1256502501,"highway":"service"},"geometry":{"type":"LineString","coordinates":[[-2.78411,43.13472],[-2.78401,43.1347],[-2.78363,43.13458],[-2.78345,43.13457],[-2.78327,43.13454],[-2.7831,43.1345],[-2.78293,43.13447],[-2.78278,43.13444],[-2.78258,43.1344],[-2.78248,43.13437]]}},{"type":"Feature","properties":{"id":1256502502,"highway":"track","superficie":"concrete"},"geometry":{"type":"LineString","coordinates":[[-2.78289,43.14642],[-2.78287,43.14639],[-2.78285,43.14635]]}},{"type":"Feature","properties":{"id":1303519658,"highway":"unclassified","nombre":"Sarasola auzoa"},"geometry":{"type":"LineString","coordinates":[[-2.80557,43.13832],[-2.8057,43.13823],[-2.80592,43.13817],[-2.80606,43.13809]]}},{"type":"Feature","properties":{"id":1332816983,"highway":"track"},"geometry":{"type":"LineString","coordinates":[[-2.79569,43.12857],[-2.79565,43.12841],[-2.79556,43.12827],[-2.79545,43.12784],[-2.79544,43.12763],[-2.79537,43.12712],[-2.79536,43.1268],[-2.79542,43.12653],[-2.79548,43.1264],[-2.79557,43.12629],[-2.79595,43.12585],[-2.79622,43.12559],[-2.79632,43.12543],[-2.79641,43.12534],[-2.79646,43.1253],[-2.79648,43.12528],[-2.79656,43.12524],[-2.7966,43.1252],[-2.79662,43.12517],[-2.79659,43.12513],[-2.79653,43.1251],[-2.79631,43.12504]]}},{"type":"Feature","properties":{"id":1332816984,"highway":"track"},"geometry":{"type":"LineString","coordinates":[[-2.79631,43.12504],[-2.79627,43.12498],[-2.79627,43.12487],[-2.79631,43.12481],[-2.79643,43.12473],[-2.7967,43.12463],[-2.79683,43.12456],[-2.79689,43.12446],[-2.79689,43.12442],[-2.79678,43.12432],[-2.7966,43.12416],[-2.7963,43.124],[-2.79625,43.12394],[-2.79624,43.12388],[-2.79627,43.12382],[-2.79631,43.12377],[-2.79648,43.12368],[-2.79678,43.12356],[-2.79698,43.12348],[-2.7974,43.12323],[-2.79775,43.12313],[-2.79797,43.12306],[-2.79847,43.12269],[-2.79865,43.12253],[-2.79869,43.12246],[-2.79871,43.12239],[-2.79865,43.12222],[-2.79859,43.12195],[-2.79856,43.12182],[-2.79868,43.12159],[-2.79884,43.12142],[-2.79897,43.12133],[-2.79909,43.12125],[-2.79921,43.1211],[-2.79932,43.12094],[-2.79932,43.12069],[-2.79931,43.12054],[-2.79934,43.12046],[-2.7994,43.12045]]}},{"type":"Feature","properties":{"id":1332816985,"highway":"track"},"geometry":{"type":"LineString","coordinates":[[-2.7995,43.12041],[-2.79958,43.12039],[-2.79979,43.12028],[-2.79987,43.1202],[-2.79991,43.12013],[-2.79992,43.12005],[-2.79988,43.11983],[-2.79977,43.11965],[-2.7997,43.11955],[-2.79965,43.11932],[-2.79956,43.11886],[-2.7994,43.1185],[-2.7992,43.11826],[-2.79912,43.11807],[-2.79909,43.11792],[-2.79917,43.11768],[-2.79924,43.11738],[-2.79924,43.11714],[-2.79923,43.11686],[-2.79929,43.11668],[-2.79933,43.11657],[-2.79929,43.11632],[-2.79923,43.11619],[-2.79919,43.11603],[-2.79918,43.11595],[-2.7992,43.11582],[-2.79927,43.11551],[-2.79931,43.11532],[-2.79931,43.11524],[-2.79949,43.11506],[-2.79996,43.11472]]}},{"type":"Feature","properties":{"id":1332816986,"highway":"track","puente":"yes"},"geometry":{"type":"LineString","coordinates":[[-2.7994,43.12045],[-2.7995,43.12041]]}},{"type":"Feature","properties":{"id":1385109746,"highway":"service","oneway":"yes","superficie":"asphalt"},"geometry":{"type":"LineString","coordinates":[[-2.78771,43.14511],[-2.78768,43.14519],[-2.78769,43.14523],[-2.78773,43.14536],[-2.78775,43.14543],[-2.78774,43.14545],[-2.78768,43.14549]]}},{"type":"Feature","properties":{"id":1385109747,"highway":"service","oneway":"yes"},"geometry":{"type":"LineString","coordinates":[[-2.78768,43.14549],[-2.78776,43.14549],[-2.7878,43.1455],[-2.78783,43.14552],[-2.78792,43.14559]]}},{"type":"Feature","properties":{"id":1468659565,"highway":"service","oneway":"yes","superficie":"asphalt"},"geometry":{"type":"LineString","coordinates":[[-2.78046,43.13389],[-2.78036,43.13382]]}},{"type":"Feature","properties":{"id":1468659566,"highway":"service","oneway":"yes","superficie":"asphalt"},"geometry":{"type":"LineString","coordinates":[[-2.78036,43.13382],[-2.78024,43.13372],[-2.78017,43.13369],[-2.7801,43.13369],[-2.78,43.13375]]}},{"type":"Feature","properties":{"id":1475547231,"highway":"service"},"geometry":{"type":"LineString","coordinates":[[-2.78228,43.13107],[-2.78212,43.1309]]}},{"type":"Feature","properties":{"id":1475547235,"highway":"service"},"geometry":{"type":"LineString","coordinates":[[-2.78375,43.12547],[-2.78365,43.12535],[-2.78361,43.12533],[-2.78357,43.12534],[-2.78352,43.12536],[-2.78344,43.12542],[-2.78339,43.12557]]}},{"type":"Feature","properties":{"id":1475547241,"highway":"unclassified","nombre":"Herriko Plaza auzoa","izena_eu":"Herriko Plaza auzoa","nombre_es":"Barrio Herriko Plaza"},"geometry":{"type":"LineString","coordinates":[[-2.78718,43.13428],[-2.78713,43.13439],[-2.78682,43.13492],[-2.78678,43.13502],[-2.7868,43.13514],[-2.78692,43.13523]]}},{"type":"Feature","properties":{"id":1475547243,"highway":"service"},"geometry":{"type":"LineString","coordinates":[[-2.7916,43.1369],[-2.79149,43.13678],[-2.79139,43.1367],[-2.7913,43.13667],[-2.79122,43.13667],[-2.7912,43.13668],[-2.79116,43.13672]]}},{"type":"Feature","properties":{"id":1475547244,"highway":"track","nombre":"Sarasola auzoa"},"geometry":{"type":"LineString","coordinates":[[-2.81602,43.1304],[-2.81577,43.13021],[-2.81539,43.13004],[-2.81521,43.13002],[-2.81504,43.13003],[-2.81461,43.13013],[-2.81366,43.13022],[-2.81326,43.13034],[-2.81298,43.1304],[-2.81286,43.13046],[-2.81272,43.13059],[-2.81262,43.13079],[-2.81241,43.13113],[-2.81229,43.13126],[-2.81213,43.13134],[-2.8119,43.13141],[-2.81169,43.13145],[-2.81085,43.13151],[-2.80818,43.13183],[-2.80786,43.13183],[-2.80761,43.1318],[-2.80741,43.1317],[-2.8069,43.13129],[-2.80683,43.13121],[-2.80672,43.13116],[-2.80662,43.13115],[-2.8066,43.13116],[-2.80655,43.13119],[-2.80651,43.13126],[-2.80645,43.13155],[-2.80645,43.13165],[-2.80653,43.13189],[-2.80651,43.13211],[-2.80605,43.13271],[-2.80586,43.1329],[-2.8056,43.1333],[-2.80533,43.1335],[-2.80512,43.1337],[-2.80508,43.13381],[-2.80506,43.13395],[-2.80511,43.1341],[-2.80523,43.13428],[-2.80524,43.13471],[-2.80536,43.13499],[-2.80568,43.1354],[-2.80575,43.13611],[-2.806,43.13655],[-2.80604,43.13682],[-2.80607,43.13729],[-2.80609,43.13739],[-2.8062,43.13761],[-2.80619,43.1377],[-2.80578,43.13788],[-2.80556,43.13796]]}},{"type":"Feature","properties":{"id":1475547245,"highway":"track"},"geometry":{"type":"LineString","coordinates":[[-2.8076,43.13113],[-2.80776,43.13104],[-2.80799,43.13089],[-2.80811,43.13074],[-2.80817,43.13054],[-2.80816,43.13042],[-2.8081,43.13023]]}},{"type":"Feature","properties":{"id":1475547246,"highway":"track","nombre":"Bildosola auzoa","superficie":"asphalt"},"geometry":{"type":"LineString","coordinates":[[-2.78892,43.14448],[-2.7889,43.14443],[-2.78843,43.14335],[-2.78797,43.14229],[-2.78775,43.14172]]}},{"type":"Feature","properties":{"id":1475547247,"highway":"service","nombre":"Bildosola-Goiti auzoa"},"geometry":{"type":"LineString","coordinates":[[-2.78119,43.13727],[-2.78084,43.1372],[-2.78049,43.13718],[-2.78039,43.13714],[-2.78021,43.13695],[-2.78014,43.13688],[-2.77963,43.13685],[-2.7795,43.13687],[-2.7793,43.13693],[-2.77916,43.13702],[-2.77912,43.13711],[-2.77917,43.1372],[-2.77928,43.1373],[-2.77938,43.13743],[-2.77951,43.13776],[-2.7795,43.13785],[-2.77946,43.13799],[-2.77928,43.13823]]}},{"type":"Feature","properties":{"id":1475547249,"highway":"service"},"geometry":{"type":"LineString","coordinates":[[-2.78303,43.136],[-2.78267,43.13623],[-2.78266,43.13629],[-2.78263,43.13634],[-2.78258,43.13636],[-2.78254,43.13636]]}},{"type":"Feature","properties":{"id":1475677922,"highway":"residential","nombre":"Infante kalea"},"geometry":{"type":"LineString","coordinates":[[-2.78528,43.13419],[-2.78538,43.13391]]}},{"type":"Feature","properties":{"id":1475677923,"highway":"service"},"geometry":{"type":"LineString","coordinates":[[-2.7905,43.13318],[-2.79013,43.13302],[-2.79007,43.13301],[-2.78963,43.13306],[-2.78935,43.13308]]}},{"type":"Feature","properties":{"id":1475677925,"highway":"unclassified","nombre":"Madariaga auzoa"},"geometry":{"type":"LineString","coordinates":[[-2.79738,43.13109],[-2.79746,43.13109],[-2.79762,43.13094],[-2.79773,43.13089],[-2.7978,43.13092],[-2.79785,43.13105],[-2.79786,43.13128],[-2.79803,43.13152],[-2.79805,43.13161],[-2.79803,43.1318],[-2.79802,43.13209],[-2.79792,43.13223],[-2.79783,43.13231],[-2.79767,43.13238],[-2.79753,43.13253],[-2.79741,43.13262],[-2.79721,43.13283],[-2.7971,43.13293],[-2.79692,43.13302],[-2.7968,43.13302]]}},{"type":"Feature","properties":{"id":1475677926,"highway":"service","nombre":"Madariaga auzoa"},"geometry":{"type":"LineString","coordinates":[[-2.79584,43.132],[-2.79583,43.13194],[-2.79584,43.13187],[-2.79588,43.13178],[-2.79589,43.13173],[-2.79587,43.13168],[-2.79582,43.13162],[-2.79577,43.13159],[-2.79572,43.13155],[-2.79566,43.13152],[-2.79571,43.13144],[-2.79578,43.13146]]}},{"type":"Feature","properties":{"id":1475677927,"highway":"track"},"geometry":{"type":"LineString","coordinates":[[-2.7879,43.13203],[-2.78815,43.13213],[-2.78823,43.13216],[-2.78832,43.13222],[-2.78836,43.13226],[-2.78841,43.1324],[-2.78841,43.13246],[-2.78837,43.13251],[-2.78833,43.13256],[-2.78809,43.1327],[-2.78823,43.13271],[-2.78835,43.13271],[-2.78846,43.13267],[-2.78859,43.13263],[-2.78861,43.13263],[-2.78854,43.13272],[-2.78844,43.1328],[-2.78822,43.13294],[-2.78811,43.13301]]}},{"type":"Feature","properties":{"id":1475997888,"highway":"service"},"geometry":{"type":"LineString","coordinates":[[-2.78094,43.13062],[-2.77999,43.13109]]}},{"type":"Feature","properties":{"id":1475997890,"highway":"service"},"geometry":{"type":"LineString","coordinates":[[-2.78069,43.13037],[-2.78002,43.1307],[-2.78,43.13073],[-2.77998,43.13077]]}},{"type":"Feature","properties":{"id":1475997891,"highway":"service"},"geometry":{"type":"LineString","coordinates":[[-2.78002,43.1307],[-2.77955,43.1309],[-2.77943,43.13095]]}},{"type":"Feature","properties":{"id":1475997892,"highway":"service"},"geometry":{"type":"LineString","coordinates":[[-2.77647,43.12983],[-2.77596,43.12969],[-2.77569,43.12963],[-2.77549,43.12962],[-2.77531,43.12927]]}},{"type":"Feature","properties":{"id":1475997899,"highway":"unclassified","nombre":"Iturriotz auzoa"},"geometry":{"type":"LineString","coordinates":[[-2.77264,43.12784],[-2.77274,43.12795],[-2.77295,43.12815],[-2.77312,43.12824],[-2.7733,43.12831],[-2.77337,43.12839],[-2.7733,43.12842],[-2.77322,43.12842],[-2.77302,43.12839],[-2.77279,43.12834],[-2.77255,43.12828],[-2.77237,43.12824]]}},{"type":"Feature","properties":{"id":1476227001,"highway":"unclassified","nombre":"Akarate auzoa"},"geometry":{"type":"LineString","coordinates":[[-2.78756,43.12101],[-2.78763,43.12118],[-2.7876,43.12127],[-2.78757,43.12139],[-2.78756,43.12155],[-2.78759,43.12177],[-2.78758,43.12194],[-2.78755,43.1221],[-2.78755,43.12221],[-2.7875,43.12226],[-2.78741,43.12227],[-2.7873,43.12223],[-2.78698,43.12206],[-2.78689,43.12203],[-2.78674,43.12192],[-2.78655,43.12182],[-2.78597,43.1216],[-2.7857,43.1215],[-2.7855,43.12142],[-2.78518,43.1212],[-2.78508,43.12115],[-2.7849,43.12101],[-2.78475,43.12092],[-2.7846,43.12083]]}},{"type":"Feature","properties":{"id":1498916965,"highway":"residential","nombre":"Bildosola-Goiti auzoa","izena_eu":"Bildosola-Goiti auzoa","nombre_es":"Barrio Bildosola-Goiti"},"geometry":{"type":"LineString","coordinates":[[-2.78119,43.13727],[-2.7816,43.13723],[-2.78195,43.13727],[-2.78218,43.13734],[-2.78238,43.13743]]}},{"type":"Feature","properties":{"id":1560788309,"highway":"track"},"geometry":{"type":"LineString","coordinates":[[-2.80622,43.11144],[-2.80627,43.1116],[-2.80648,43.11186],[-2.80664,43.11201],[-2.80676,43.11214],[-2.8073,43.11259],[-2.80747,43.11272],[-2.80766,43.11285],[-2.80802,43.11312],[-2.80819,43.11326],[-2.8083,43.11339],[-2.80855,43.11361],[-2.8087,43.11372],[-2.80883,43.11383],[-2.80888,43.11393],[-2.80889,43.11403],[-2.80884,43.11408],[-2.80874,43.11411],[-2.8086,43.11413],[-2.80843,43.11411],[-2.80813,43.11412],[-2.80786,43.11415],[-2.80751,43.11428],[-2.80702,43.11449],[-2.80654,43.11474],[-2.8061,43.11499],[-2.8059,43.11507],[-2.80563,43.11514],[-2.80508,43.11528],[-2.80498,43.11528],[-2.80493,43.1153],[-2.80481,43.11537],[-2.80469,43.11547],[-2.80464,43.1156],[-2.8046,43.11573],[-2.80455,43.1158],[-2.80436,43.11596],[-2.80419,43.11607],[-2.80404,43.11619],[-2.80383,43.11641],[-2.8038,43.11651],[-2.80379,43.11665],[-2.80383,43.11678],[-2.80389,43.1169],[-2.80395,43.11695],[-2.80421,43.11719],[-2.80448,43.11749]]}},{"type":"Feature","properties":{"id":1560788310,"highway":"track"},"geometry":{"type":"LineString","coordinates":[[-2.80884,43.11408],[-2.80877,43.11414],[-2.80852,43.11425],[-2.80829,43.11428],[-2.80817,43.11428],[-2.808,43.11435],[-2.80776,43.11454],[-2.80757,43.11467],[-2.80711,43.115],[-2.80703,43.11511],[-2.807,43.1152],[-2.80689,43.11556],[-2.80664,43.11601],[-2.80654,43.11612],[-2.80642,43.11618],[-2.80609,43.1163],[-2.80597,43.11636],[-2.80589,43.11645],[-2.80585,43.11653],[-2.80582,43.11664],[-2.8058,43.11674],[-2.80588,43.11684],[-2.80603,43.11699],[-2.80618,43.11711],[-2.80632,43.11721],[-2.80662,43.11762],[-2.80667,43.11783],[-2.80662,43.11827],[-2.80653,43.11855],[-2.80638,43.11895],[-2.80624,43.11918],[-2.80611,43.11929],[-2.80579,43.11966],[-2.80539,43.11995],[-2.8051,43.12027],[-2.80469,43.12068],[-2.80441,43.12094],[-2.80418,43.12107],[-2.8039,43.12118],[-2.80368,43.12126],[-2.80336,43.12133],[-2.80309,43.12141],[-2.80285,43.12154],[-2.80255,43.12164],[-2.8024,43.12173],[-2.80224,43.1218],[-2.80208,43.12187],[-2.80197,43.12193],[-2.80186,43.12196]]}}]}
