{"type":"FeatureCollection","features":[{"type":"Feature","properties":{"id":41383656,"highway":"secondary","ref":"GI-2130"},"geometry":{"type":"LineString","coordinates":[[-2.03637,43.14211],[-2.03629,43.14215],[-2.03588,43.14233],[-2.03558,43.14248],[-2.03547,43.14254],[-2.03529,43.14264],[-2.03497,43.14289],[-2.03479,43.14316],[-2.03468,43.14334],[-2.03457,43.1435],[-2.0344,43.14364],[-2.03427,43.14372],[-2.0341,43.14376],[-2.03384,43.1438],[-2.03357,43.14387],[-2.03315,43.14408],[-2.03273,43.14429],[-2.03237,43.14447],[-2.03224,43.14454],[-2.03213,43.14463],[-2.03205,43.14472],[-2.03203,43.14485],[-2.03203,43.14501],[-2.03205,43.14514]]}},{"type":"Feature","properties":{"id":55885222,"highway":"unclassified","nombre":"Ospela auzoa"},"geometry":{"type":"LineString","coordinates":[[-2.02612,43.14383],[-2.02581,43.1435],[-2.02562,43.14317],[-2.02561,43.14284],[-2.02563,43.14255],[-2.02555,43.14217],[-2.02553,43.14182],[-2.02551,43.14177],[-2.02547,43.14172],[-2.02542,43.14172],[-2.02537,43.14174],[-2.02536,43.14176],[-2.02526,43.14208],[-2.02521,43.14213],[-2.02516,43.14215],[-2.02509,43.14216],[-2.02501,43.14213],[-2.02492,43.14208],[-2.02485,43.14199],[-2.02486,43.14193],[-2.02493,43.14188],[-2.02504,43.14182],[-2.02508,43.14178],[-2.02511,43.14173],[-2.02512,43.14164],[-2.02511,43.1416],[-2.02508,43.14156],[-2.02503,43.14154],[-2.02497,43.14155],[-2.02491,43.14157],[-2.02479,43.14164],[-2.02473,43.14168],[-2.02465,43.14169],[-2.02458,43.14168],[-2.02452,43.14165],[-2.0245,43.14161],[-2.02452,43.14155],[-2.0246,43.1415],[-2.0247,43.14144],[-2.02473,43.14141],[-2.02476,43.14135],[-2.02475,43.14122],[-2.02468,43.14095],[-2.02487,43.14074],[-2.02523,43.1401],[-2.02507,43.13969],[-2.02452,43.13927],[-2.02409,43.13906],[-2.02402,43.13889],[-2.02417,43.13859],[-2.02403,43.13825],[-2.02423,43.13787]]}},{"type":"Feature","properties":{"id":55885225,"highway":"unclassified","nombre":"Eutela auzoa"},"geometry":{"type":"LineString","coordinates":[[-2.02658,43.14696],[-2.0264,43.147],[-2.02622,43.1471],[-2.02613,43.14719],[-2.02609,43.14729],[-2.02591,43.14796],[-2.02587,43.14804],[-2.02582,43.14811],[-2.02549,43.1485],[-2.02544,43.14865],[-2.02544,43.14883],[-2.02555,43.14919],[-2.02557,43.14937],[-2.02556,43.14941],[-2.02554,43.14943],[-2.02551,43.14943],[-2.02541,43.14939],[-2.02522,43.14932],[-2.02511,43.14931],[-2.02503,43.14933],[-2.02486,43.14946],[-2.02473,43.14958],[-2.02462,43.14972],[-2.02458,43.14982],[-2.02455,43.15007],[-2.02454,43.15024],[-2.02448,43.15039],[-2.02445,43.15046],[-2.02438,43.15051],[-2.02431,43.15052],[-2.02422,43.1505],[-2.02417,43.15047],[-2.02412,43.15041],[-2.02407,43.15031],[-2.02389,43.14987],[-2.02384,43.1498],[-2.02379,43.14978],[-2.02373,43.1498],[-2.02366,43.14996],[-2.02352,43.15009],[-2.02345,43.15033],[-2.02357,43.15066],[-2.02349,43.15091],[-2.0233,43.15114],[-2.0232,43.1512],[-2.02303,43.15125],[-2.02298,43.15131],[-2.0228,43.15154],[-2.0227,43.15164],[-2.02263,43.15168],[-2.02251,43.15171],[-2.02227,43.15171],[-2.02215,43.15174],[-2.02207,43.15178],[-2.02193,43.1519],[-2.02184,43.15195],[-2.02176,43.15198],[-2.02144,43.15198],[-2.02127,43.15196],[-2.02091,43.15202],[-2.02051,43.15194],[-2.02009,43.15179],[-2.01989,43.15134],[-2.01997,43.15094],[-2.01989,43.15046],[-2.01952,43.14995],[-2.01934,43.1496],[-2.0193,43.14955],[-2.01926,43.14954],[-2.01923,43.14952],[-2.01916,43.14955],[-2.01916,43.1496],[-2.01922,43.14985],[-2.01929,43.15036],[-2.01925,43.15048],[-2.0191,43.15045],[-2.01901,43.15023],[-2.01855,43.14996],[-2.01839,43.14973],[-2.01788,43.14909],[-2.01779,43.14887],[-2.01784,43.14861],[-2.01782,43.14826],[-2.01786,43.14817],[-2.018,43.14806],[-2.01806,43.148],[-2.01809,43.14792],[-2.018,43.1475],[-2.01799,43.14727],[-2.01801,43.14709],[-2.01797,43.14682],[-2.01801,43.1467],[-2.01803,43.14663],[-2.01804,43.14661],[-2.01802,43.14651],[-2.01798,43.14629],[-2.018,43.14619],[-2.0181,43.14607],[-2.01826,43.14579],[-2.0184,43.14548],[-2.01852,43.14533],[-2.01886,43.14511],[-2.01908,43.14492],[-2.01939,43.14472],[-2.01958,43.14466],[-2.01984,43.14461],[-2.01995,43.14459],[-2.02007,43.14454],[-2.02014,43.14447],[-2.0202,43.14439],[-2.02024,43.14421],[-2.02027,43.14414],[-2.02035,43.14411],[-2.02073,43.14414],[-2.02085,43.14411]]}},{"type":"Feature","properties":{"id":55885226,"highway":"steps"},"geometry":{"type":"LineString","coordinates":[[-2.02745,43.14563],[-2.02725,43.14587],[-2.02714,43.146],[-2.02703,43.14613]]}},{"type":"Feature","properties":{"id":55885228,"highway":"residential","nombre":"Ospela auzoa","puente":"yes"},"geometry":{"type":"LineString","coordinates":[[-2.02662,43.1441],[-2.02656,43.14394]]}},{"type":"Feature","properties":{"id":55885230,"highway":"residential","nombre":"Eutela auzoa"},"geometry":{"type":"LineString","coordinates":[[-2.02598,43.14626],[-2.02591,43.14627],[-2.02585,43.14625],[-2.02578,43.14617],[-2.02555,43.14602]]}},{"type":"Feature","properties":{"id":55885233,"highway":"residential","nombre":"Sorone taldea"},"geometry":{"type":"LineString","coordinates":[[-2.0277,43.14654],[-2.02791,43.1463],[-2.02746,43.14612],[-2.02714,43.146]]}},{"type":"Feature","properties":{"id":55885235,"highway":"residential","nombre":"Anton kalea"},"geometry":{"type":"LineString","coordinates":[[-2.0264,43.14544],[-2.02642,43.14535],[-2.02657,43.14504],[-2.02673,43.14487]]}},{"type":"Feature","properties":{"id":55885242,"highway":"track","nombre":"Ospela auzoa","superficie":"ground"},"geometry":{"type":"LineString","coordinates":[[-2.02258,43.13906],[-2.02258,43.13912],[-2.02295,43.13923],[-2.02303,43.13933],[-2.02306,43.13943],[-2.02297,43.13966],[-2.02291,43.13998],[-2.02289,43.14],[-2.02282,43.14003],[-2.0224,43.14006],[-2.02218,43.14019],[-2.02201,43.14036],[-2.02186,43.14065],[-2.02176,43.14085],[-2.02183,43.14097]]}},{"type":"Feature","properties":{"id":55885245,"highway":"unclassified","nombre":"Ospela auzoa"},"geometry":{"type":"LineString","coordinates":[[-2.02893,43.14267],[-2.02894,43.14283],[-2.02938,43.14331],[-2.02971,43.14353],[-2.02993,43.14364],[-2.0304,43.14414],[-2.03056,43.14426],[-2.03068,43.14439]]}},{"type":"Feature","properties":{"id":55885249,"highway":"unclassified","nombre":"Ospela auzoa"},"geometry":{"type":"LineString","coordinates":[[-2.02423,43.13787],[-2.02417,43.13787],[-2.02412,43.1379],[-2.02396,43.13808],[-2.02367,43.1385],[-2.0232,43.13894],[-2.02304,43.13903],[-2.02272,43.13902],[-2.02258,43.13906]]}},{"type":"Feature","properties":{"id":55885251,"highway":"unclassified","nombre":"Ospela auzoa"},"geometry":{"type":"LineString","coordinates":[[-2.02666,43.13837],[-2.02676,43.13841],[-2.02701,43.13875],[-2.02719,43.13917],[-2.02728,43.1392],[-2.02753,43.13921],[-2.02764,43.13931],[-2.02766,43.13957],[-2.02756,43.13987],[-2.02759,43.13992],[-2.02767,43.13992],[-2.02795,43.13967],[-2.02819,43.13947]]}},{"type":"Feature","properties":{"id":55885254,"highway":"unclassified","nombre":"Ospela auzoa"},"geometry":{"type":"LineString","coordinates":[[-2.02487,43.14074],[-2.02481,43.1407],[-2.02473,43.1407],[-2.02465,43.14073],[-2.02459,43.14076],[-2.02439,43.14108],[-2.0243,43.14115],[-2.0241,43.14124],[-2.02379,43.14134],[-2.02378,43.14134],[-2.02368,43.14135],[-2.02358,43.14135],[-2.02346,43.14134],[-2.02338,43.14129],[-2.02261,43.14069],[-2.02247,43.14064],[-2.02235,43.14061],[-2.02224,43.14063],[-2.02221,43.14064],[-2.02211,43.14068],[-2.02183,43.14097],[-2.02164,43.14114],[-2.02142,43.14152],[-2.02127,43.14174],[-2.02097,43.1418],[-2.02066,43.14175],[-2.02052,43.14159],[-2.02057,43.14141]]}},{"type":"Feature","properties":{"id":55885256,"highway":"steps"},"geometry":{"type":"LineString","coordinates":[[-2.02581,43.14552],[-2.02579,43.14571],[-2.02576,43.14571],[-2.02567,43.14587]]}},{"type":"Feature","properties":{"id":55885257,"highway":"residential","nombre":"Ospela auzoa"},"geometry":{"type":"LineString","coordinates":[[-2.02677,43.14369],[-2.02686,43.1436],[-2.02688,43.1434],[-2.02671,43.14323],[-2.02666,43.14294],[-2.02668,43.14276],[-2.02701,43.1423],[-2.02702,43.14228],[-2.02725,43.142],[-2.02736,43.1417],[-2.02741,43.14142],[-2.02753,43.14133],[-2.0276,43.14113],[-2.02774,43.14108],[-2.02801,43.14091],[-2.02811,43.14078]]}},{"type":"Feature","properties":{"id":55885258,"highway":"residential","nombre":"Muntegi kalea"},"geometry":{"type":"LineString","coordinates":[[-2.02444,43.1445],[-2.02412,43.14498]]}},{"type":"Feature","properties":{"id":55885260,"highway":"residential","nombre":"Eutela auzoa"},"geometry":{"type":"LineString","coordinates":[[-2.02578,43.14617],[-2.02575,43.14602],[-2.0257,43.14595],[-2.02565,43.14591],[-2.02563,43.14589],[-2.02556,43.14586],[-2.02543,43.14585],[-2.02531,43.14583],[-2.02519,43.1458],[-2.02511,43.14574]]}},{"type":"Feature","properties":{"id":55885262,"highway":"pedestrian"},"geometry":{"type":"LineString","coordinates":[[-2.02511,43.14574],[-2.0249,43.14559]]}},{"type":"Feature","properties":{"id":55885263,"highway":"residential","nombre":"Sorone taldea"},"geometry":{"type":"LineString","coordinates":[[-2.02739,43.14623],[-2.02746,43.14612]]}},{"type":"Feature","properties":{"id":55885265,"highway":"residential","nombre":"Ospela auzoa"},"geometry":{"type":"LineString","coordinates":[[-2.02656,43.14394],[-2.02648,43.14383],[-2.02625,43.14381],[-2.02612,43.14383],[-2.02557,43.14421],[-2.02528,43.14427],[-2.02523,43.14445]]}},{"type":"Feature","properties":{"id":55885267,"highway":"residential","nombre":"Eutela auzoa"},"geometry":{"type":"LineString","coordinates":[[-2.02598,43.14626],[-2.0259,43.14684],[-2.02593,43.14689],[-2.02599,43.14691],[-2.02609,43.14689],[-2.02622,43.14682],[-2.02637,43.14677],[-2.02644,43.14677],[-2.02652,43.14677],[-2.02659,43.1468],[-2.02662,43.14683],[-2.02663,43.14687],[-2.02662,43.14692],[-2.02658,43.14696]]}},{"type":"Feature","properties":{"id":55885269,"highway":"track","nombre":"Ospela auzoa","superficie":"ground"},"geometry":{"type":"LineString","coordinates":[[-2.02338,43.14129],[-2.02345,43.14123],[-2.02362,43.14121],[-2.02385,43.14108],[-2.02397,43.14093],[-2.02399,43.14086],[-2.02396,43.14077],[-2.02378,43.14055],[-2.02359,43.14037],[-2.0235,43.14031],[-2.0234,43.14032],[-2.0233,43.14034],[-2.02301,43.14011],[-2.02292,43.14003],[-2.02289,43.14]]}},{"type":"Feature","properties":{"id":55885270,"highway":"service","nombre":"Ospela auzoa"},"geometry":{"type":"LineString","coordinates":[[-2.0292,43.14205],[-2.02927,43.14192],[-2.0293,43.14173],[-2.02943,43.1416]]}},{"type":"Feature","properties":{"id":55885271,"highway":"residential","nombre":"Andres Donea kalea"},"geometry":{"type":"LineString","coordinates":[[-2.02658,43.14547],[-2.02651,43.1456],[-2.02641,43.14567],[-2.02633,43.14572],[-2.02629,43.14576],[-2.02626,43.1458]]}},{"type":"Feature","properties":{"id":55885274,"highway":"track","nombre":"Ospela auzoa","superficie":"concrete"},"geometry":{"type":"LineString","coordinates":[[-2.02811,43.14078],[-2.02808,43.14051],[-2.02795,43.14015],[-2.02798,43.13996],[-2.02821,43.13952],[-2.02822,43.13948],[-2.02819,43.13947]]}},{"type":"Feature","properties":{"id":55885275,"highway":"residential","nombre":"Ibai-gain kalea"},"geometry":{"type":"LineString","coordinates":[[-2.02542,43.14505],[-2.02536,43.14506],[-2.02527,43.14509],[-2.0252,43.14514],[-2.02512,43.14527],[-2.0251,43.14531]]}},{"type":"Feature","properties":{"id":55885276,"highway":"unclassified","nombre":"Ospela auzoa","puente":"yes"},"geometry":{"type":"LineString","coordinates":[[-2.02654,43.14377],[-2.0266,43.14374]]}},{"type":"Feature","properties":{"id":55885281,"highway":"residential","nombre":"Eliz-Gain taldea"},"geometry":{"type":"LineString","coordinates":[[-2.0261,43.14547],[-2.02611,43.14567],[-2.02611,43.14571],[-2.02623,43.14578],[-2.02626,43.1458],[-2.02628,43.14581],[-2.02629,43.14582],[-2.0263,43.14586],[-2.02629,43.14589],[-2.02603,43.14612],[-2.026,43.14617],[-2.02599,43.14621],[-2.02598,43.14626]]}},{"type":"Feature","properties":{"id":55885282,"highway":"unclassified","nombre":"Ospela auzoa"},"geometry":{"type":"LineString","coordinates":[[-2.0266,43.14374],[-2.02663,43.1437],[-2.02677,43.14369],[-2.02751,43.14382],[-2.02841,43.14399],[-2.02921,43.14429],[-2.02932,43.14429],[-2.02939,43.14421],[-2.02929,43.14391],[-2.02885,43.14309],[-2.02885,43.14277],[-2.02893,43.14267],[-2.02902,43.14246],[-2.02907,43.14213],[-2.0292,43.14205],[-2.02978,43.14197],[-2.03031,43.14197],[-2.03091,43.14209],[-2.03122,43.1421],[-2.03156,43.14204],[-2.03189,43.14206],[-2.032,43.14183]]}},{"type":"Feature","properties":{"id":55885284,"highway":"unclassified","nombre":"Ospela auzoa"},"geometry":{"type":"LineString","coordinates":[[-2.02648,43.14383],[-2.02654,43.14377]]}},{"type":"Feature","properties":{"id":55885289,"highway":"steps"},"geometry":{"type":"LineString","coordinates":[[-2.02579,43.14571],[-2.02587,43.14571]]}},{"type":"Feature","properties":{"id":55885290,"highway":"unclassified","nombre":"Ospela auzoa"},"geometry":{"type":"LineString","coordinates":[[-2.02663,43.1437],[-2.02661,43.14351],[-2.02647,43.1432],[-2.02629,43.14293],[-2.02627,43.14279],[-2.02642,43.14242],[-2.02657,43.14143],[-2.02652,43.14114],[-2.02652,43.14089],[-2.02675,43.14002],[-2.02698,43.1397],[-2.02696,43.13939],[-2.02688,43.13919],[-2.02689,43.13888],[-2.02664,43.13845],[-2.02666,43.13837]]}},{"type":"Feature","properties":{"id":55893548,"highway":"track","nombre":"Eutela"},"geometry":{"type":"LineString","coordinates":[[-2.02236,43.14489],[-2.02185,43.14517],[-2.02164,43.14534],[-2.02165,43.14538],[-2.02214,43.14534],[-2.02234,43.14539],[-2.0227,43.14569],[-2.02299,43.14601],[-2.02311,43.14616],[-2.02341,43.14627],[-2.0237,43.14633],[-2.02377,43.14633],[-2.02384,43.14631],[-2.02395,43.14623],[-2.02411,43.14604],[-2.0242,43.14601]]}},{"type":"Feature","properties":{"id":55893550,"highway":"residential","nombre":"Ospela auzoa"},"geometry":{"type":"LineString","coordinates":[[-2.0212,43.1439],[-2.02113,43.14423]]}},{"type":"Feature","properties":{"id":55893551,"highway":"residential","nombre":"Ospela auzoa","puente":"yes"},"geometry":{"type":"LineString","coordinates":[[-2.02122,43.1438],[-2.0212,43.1439]]}},{"type":"Feature","properties":{"id":55893553,"highway":"residential","nombre":"Ibai-gain kalea"},"geometry":{"type":"LineString","coordinates":[[-2.02527,43.14462],[-2.02544,43.14462],[-2.02543,43.14484]]}},{"type":"Feature","properties":{"id":55893554,"highway":"track","nombre":"Eutela"},"geometry":{"type":"LineString","coordinates":[[-2.0242,43.14601],[-2.02429,43.14606],[-2.02451,43.14623],[-2.02468,43.14631],[-2.02478,43.14633],[-2.02488,43.14631],[-2.02499,43.14626],[-2.02513,43.14621],[-2.02529,43.14618],[-2.02544,43.14617],[-2.02561,43.14619],[-2.02574,43.14624],[-2.02585,43.14625]]}},{"type":"Feature","properties":{"id":55893555,"highway":"residential","nombre":"Jose Maria Goikoetxea kalea"},"geometry":{"type":"LineString","coordinates":[[-2.02239,43.14483],[-2.02246,43.14486],[-2.0226,43.14484],[-2.02278,43.14486]]}},{"type":"Feature","properties":{"id":55893559,"highway":"residential","nombre":"Upelategi kalea"},"geometry":{"type":"LineString","coordinates":[[-2.02527,43.14462],[-2.02506,43.14465],[-2.02494,43.14466],[-2.02484,43.14464],[-2.02473,43.14463],[-2.02463,43.1446],[-2.02444,43.1445],[-2.02434,43.14445],[-2.0242,43.14436],[-2.02393,43.14424]]}},{"type":"Feature","properties":{"id":55893563,"highway":"pedestrian"},"geometry":{"type":"LineString","coordinates":[[-2.0252,43.14514],[-2.02522,43.14505],[-2.02527,43.1447],[-2.02527,43.14462]]}},{"type":"Feature","properties":{"id":55893566,"highway":"residential","nombre":"Jose Maria Goikoetxea kalea"},"geometry":{"type":"LineString","coordinates":[[-2.02233,43.14459],[-2.02235,43.14472],[-2.02239,43.14483],[-2.02236,43.14489]]}},{"type":"Feature","properties":{"id":55893568,"highway":"residential","nombre":"Eutela auzoa"},"geometry":{"type":"LineString","coordinates":[[-2.02629,43.14582],[-2.02632,43.14584],[-2.02637,43.14588],[-2.02647,43.14593],[-2.02662,43.14599],[-2.02697,43.14611],[-2.02703,43.14613],[-2.02739,43.14623],[-2.02756,43.14641],[-2.0277,43.14654],[-2.02784,43.14668],[-2.02772,43.14692],[-2.0277,43.14709],[-2.02784,43.14725],[-2.02806,43.1473]]}},{"type":"Feature","properties":{"id":55893569,"highway":"residential","nombre":"Ospela auzoa"},"geometry":{"type":"LineString","coordinates":[[-2.02528,43.14427],[-2.0251,43.14425],[-2.02475,43.14421],[-2.02457,43.14418],[-2.02439,43.14414],[-2.0241,43.14404],[-2.02384,43.14392],[-2.02371,43.14386],[-2.02351,43.14382],[-2.02301,43.14377],[-2.02269,43.14369],[-2.02202,43.14369],[-2.02196,43.14369],[-2.02169,43.14378],[-2.02152,43.1438],[-2.02123,43.14375],[-2.02122,43.1438]]}},{"type":"Feature","properties":{"id":55893570,"highway":"secondary","nombre":"Jose Maria Goikoetxea kalea","ref":"GI-2130"},"geometry":{"type":"LineString","coordinates":[[-2.03205,43.14514],[-2.03205,43.14531],[-2.03202,43.14544],[-2.03195,43.14556],[-2.03185,43.14566],[-2.03169,43.14575],[-2.03149,43.14585],[-2.03131,43.14591],[-2.03109,43.14598],[-2.0308,43.14603],[-2.03048,43.14605],[-2.0301,43.14605],[-2.02994,43.14604],[-2.02967,43.14601],[-2.02963,43.14601],[-2.02921,43.14595],[-2.0286,43.14585],[-2.0283,43.14579],[-2.02812,43.14576],[-2.02745,43.14563],[-2.02723,43.14558],[-2.02712,43.14556],[-2.02678,43.1455],[-2.02658,43.14547],[-2.0264,43.14544],[-2.02626,43.14546],[-2.02615,43.14546],[-2.0261,43.14547],[-2.02593,43.14548],[-2.02582,43.14548],[-2.02577,43.14547],[-2.0256,43.14545],[-2.02536,43.1454],[-2.0251,43.14531],[-2.02461,43.14514],[-2.02429,43.14504],[-2.02412,43.14498],[-2.02395,43.14493],[-2.02376,43.14488],[-2.02364,43.14486]]}},{"type":"Feature","properties":{"id":55893571,"highway":"steps"},"geometry":{"type":"LineString","coordinates":[[-2.02506,43.14536],[-2.02499,43.14546],[-2.02485,43.14554],[-2.0249,43.14559]]}},{"type":"Feature","properties":{"id":55893576,"highway":"residential","nombre":"Ibai-gain kalea"},"geometry":{"type":"LineString","coordinates":[[-2.02543,43.14484],[-2.02598,43.14488],[-2.02598,43.14491],[-2.02631,43.14493]]}},{"type":"Feature","properties":{"id":55893579,"highway":"residential","nombre":"Ibai-gain kalea"},"geometry":{"type":"LineString","coordinates":[[-2.02543,43.14484],[-2.02542,43.14505],[-2.02603,43.14509]]}},{"type":"Feature","properties":{"id":58230696,"highway":"service"},"geometry":{"type":"LineString","coordinates":[[-2.01513,43.1537],[-2.01518,43.15359],[-2.01531,43.15345],[-2.01545,43.15326]]}},{"type":"Feature","properties":{"id":58230699,"highway":"unclassified","nombre":"Eutela"},"geometry":{"type":"LineString","coordinates":[[-2.02298,43.15131],[-2.02319,43.15132],[-2.02327,43.15134],[-2.02336,43.15135],[-2.02358,43.15144],[-2.02377,43.15151],[-2.02404,43.15159],[-2.02437,43.15175],[-2.0247,43.15181],[-2.02486,43.15176],[-2.02509,43.15143],[-2.02525,43.15133],[-2.0254,43.15129],[-2.02555,43.15116],[-2.02695,43.15096],[-2.02744,43.15107],[-2.02761,43.15107],[-2.02767,43.15101]]}},{"type":"Feature","properties":{"id":58230713,"highway":"service"},"geometry":{"type":"LineString","coordinates":[[-2.01567,43.15369],[-2.01592,43.15377],[-2.0161,43.15394]]}},{"type":"Feature","properties":{"id":58230718,"highway":"service"},"geometry":{"type":"LineString","coordinates":[[-2.0233,43.15114],[-2.02311,43.15112],[-2.02285,43.15114],[-2.02274,43.1512],[-2.02266,43.15132]]}},{"type":"Feature","properties":{"id":58230728,"highway":"service"},"geometry":{"type":"LineString","coordinates":[[-2.02176,43.15198],[-2.02151,43.15211],[-2.02109,43.15235],[-2.02066,43.15254]]}},{"type":"Feature","properties":{"id":58230730,"highway":"unclassified","nombre":"Eutela"},"geometry":{"type":"LineString","coordinates":[[-2.02437,43.15175],[-2.02486,43.15199],[-2.02495,43.15201],[-2.02501,43.15199],[-2.02505,43.15195],[-2.02511,43.15178],[-2.02522,43.15164],[-2.02536,43.15153],[-2.02552,43.15144],[-2.02572,43.15135],[-2.02603,43.15127],[-2.02641,43.15125],[-2.02667,43.15127],[-2.02716,43.15141],[-2.02742,43.15146],[-2.0276,43.15146],[-2.02779,43.15147],[-2.02792,43.15149],[-2.02816,43.15156],[-2.02823,43.15157],[-2.02831,43.15154],[-2.02887,43.15124],[-2.02921,43.15109],[-2.02948,43.15101],[-2.02975,43.15097],[-2.0301,43.15099],[-2.03045,43.15107],[-2.03116,43.15138],[-2.03206,43.15165],[-2.0324,43.15168],[-2.03278,43.1518]]}},{"type":"Feature","properties":{"id":58230735,"highway":"unclassified","nombre":"Eutela"},"geometry":{"type":"LineString","coordinates":[[-2.02144,43.15198],[-2.02095,43.15215],[-2.02051,43.15228],[-2.01961,43.15284],[-2.0194,43.15306],[-2.01909,43.15329],[-2.01893,43.1535],[-2.01881,43.1536],[-2.01866,43.15367],[-2.01855,43.15371],[-2.0184,43.15374],[-2.01831,43.15374],[-2.01821,43.15371],[-2.01808,43.15366],[-2.01782,43.15361],[-2.0176,43.15358],[-2.0174,43.15358],[-2.01714,43.15362],[-2.01692,43.15364],[-2.0168,43.15364],[-2.01652,43.15364],[-2.01635,43.15364],[-2.01625,43.15361],[-2.01619,43.15356],[-2.01617,43.15349],[-2.01628,43.15329],[-2.01626,43.15322],[-2.01617,43.1532],[-2.0161,43.15322],[-2.01603,43.15329],[-2.01567,43.15369],[-2.01554,43.15378],[-2.01544,43.15381],[-2.01535,43.1538],[-2.01524,43.15377],[-2.01513,43.1537]]}},{"type":"Feature","properties":{"id":58230738,"highway":"track","nombre":"Eutela"},"geometry":{"type":"LineString","coordinates":[[-2.02311,43.14616],[-2.02339,43.14646],[-2.02367,43.14673],[-2.02431,43.14704],[-2.02452,43.1472],[-2.02466,43.14745],[-2.02472,43.14773],[-2.02468,43.14805],[-2.02437,43.14853],[-2.02413,43.14907],[-2.02383,43.14952],[-2.02373,43.1498]]}},{"type":"Feature","properties":{"id":58230741,"highway":"track","superficie":"ground"},"geometry":{"type":"LineString","coordinates":[[-2.01513,43.1537],[-2.01506,43.15371],[-2.01499,43.15374],[-2.01471,43.15412],[-2.01447,43.15431],[-2.0141,43.1545],[-2.01367,43.15475],[-2.0136,43.15483],[-2.01355,43.15492],[-2.01354,43.15509],[-2.01357,43.15517],[-2.01364,43.15527],[-2.0137,43.15528],[-2.0138,43.15527],[-2.0141,43.1552],[-2.01438,43.15524],[-2.01449,43.15524],[-2.01452,43.15524],[-2.01457,43.15522],[-2.01467,43.15513],[-2.01471,43.15509],[-2.01478,43.15507],[-2.01487,43.15509],[-2.01492,43.15511],[-2.01508,43.15526],[-2.01526,43.15534],[-2.01558,43.15536]]}},{"type":"Feature","properties":{"id":58230747,"highway":"unclassified"},"geometry":{"type":"LineString","coordinates":[[-2.02551,43.14943],[-2.02559,43.14947],[-2.02567,43.14948],[-2.02571,43.14946],[-2.02576,43.14942],[-2.02587,43.14907],[-2.0259,43.14901],[-2.02594,43.14897],[-2.02601,43.14896],[-2.02673,43.14921],[-2.02675,43.14926],[-2.02672,43.14929],[-2.02662,43.14934],[-2.02653,43.14941],[-2.02652,43.14947],[-2.02652,43.14956],[-2.02654,43.1496],[-2.02658,43.14961],[-2.02664,43.14959],[-2.02671,43.14953],[-2.02676,43.14952],[-2.02689,43.14953],[-2.02709,43.14957],[-2.02751,43.14961]]}},{"type":"Feature","properties":{"id":58974283,"highway":"residential","nombre":"Arkaitz kalea"},"geometry":{"type":"LineString","coordinates":[[-2.02812,43.14576],[-2.02819,43.14585],[-2.0285,43.14593],[-2.02949,43.14625],[-2.02953,43.14626],[-2.03048,43.14638],[-2.03091,43.1463],[-2.03151,43.1463],[-2.03206,43.14609],[-2.03226,43.14604],[-2.0324,43.14593],[-2.03225,43.14563]]}},{"type":"Feature","properties":{"id":58974284,"highway":"unclassified","nombre":"Erbaita kalea"},"geometry":{"type":"LineString","coordinates":[[-2.0301,43.14605],[-2.03017,43.14593],[-2.03027,43.14586]]}},{"type":"Feature","properties":{"id":58974285,"highway":"unclassified","nombre":"Ospela auzoa"},"geometry":{"type":"LineString","coordinates":[[-2.03043,43.14581],[-2.0306,43.14581],[-2.03078,43.1458],[-2.03096,43.14576],[-2.03113,43.14572],[-2.03128,43.14564],[-2.03142,43.1455],[-2.03145,43.1454],[-2.03142,43.14533],[-2.03131,43.14526],[-2.0312,43.14522],[-2.03105,43.14516],[-2.03095,43.14514],[-2.03095,43.14516],[-2.03101,43.14529]]}},{"type":"Feature","properties":{"id":58974286,"highway":"unclassified","nombre":"Eutela auzoa"},"geometry":{"type":"LineString","coordinates":[[-2.03225,43.14563],[-2.0323,43.14549],[-2.03245,43.14543],[-2.0325,43.14532],[-2.03238,43.1451],[-2.03259,43.14478],[-2.03289,43.14459],[-2.03358,43.14436],[-2.03398,43.14429],[-2.03452,43.14409],[-2.03468,43.14403],[-2.03486,43.14402],[-2.03508,43.14394],[-2.03518,43.14391],[-2.03531,43.14382]]}},{"type":"Feature","properties":{"id":58974289,"highway":"unclassified","nombre":"Jose Maria Goikoetxea kalea","puente":"yes"},"geometry":{"type":"LineString","coordinates":[[-2.03205,43.14514],[-2.03187,43.14513]]}},{"type":"Feature","properties":{"id":58974290,"highway":"unclassified","nombre":"Erbaita kalea"},"geometry":{"type":"LineString","coordinates":[[-2.03043,43.14581],[-2.0301,43.14563],[-2.02999,43.14559],[-2.02988,43.14558],[-2.02966,43.14557],[-2.02953,43.14555],[-2.02944,43.14551],[-2.0292,43.14535],[-2.02904,43.14523],[-2.029,43.14525]]}},{"type":"Feature","properties":{"id":58974291,"highway":"service"},"geometry":{"type":"LineString","coordinates":[[-2.03547,43.14254],[-2.03538,43.14247],[-2.03515,43.1424]]}},{"type":"Feature","properties":{"id":58974292,"highway":"service","puente":"yes"},"geometry":{"type":"LineString","coordinates":[[-2.03515,43.1424],[-2.03509,43.14238]]}},{"type":"Feature","properties":{"id":58974293,"highway":"track","nombre":"Jose Maria Goikoetxea kalea"},"geometry":{"type":"LineString","coordinates":[[-2.03172,43.14503],[-2.03172,43.14493],[-2.0317,43.14475],[-2.03175,43.14459],[-2.03185,43.14447],[-2.03225,43.14421],[-2.03279,43.14399],[-2.03336,43.14364],[-2.03391,43.14348],[-2.03396,43.14344],[-2.03394,43.14321],[-2.03387,43.14296],[-2.03382,43.14275],[-2.03361,43.14254]]}},{"type":"Feature","properties":{"id":58974295,"highway":"track","nombre":"Jose Maria Goikoetxea kalea","superficie":"concrete"},"geometry":{"type":"LineString","coordinates":[[-2.03187,43.14513],[-2.03176,43.14512],[-2.03175,43.14503],[-2.03172,43.14503],[-2.03168,43.14503],[-2.03154,43.14506],[-2.03138,43.14507],[-2.03129,43.14513],[-2.0312,43.14522]]}},{"type":"Feature","properties":{"id":58974296,"highway":"unclassified","nombre":"Erbaita kalea","puente":"yes"},"geometry":{"type":"LineString","coordinates":[[-2.03027,43.14586],[-2.03043,43.14581]]}},{"type":"Feature","properties":{"id":233503236,"highway":"track","nombre":"Hiriburu gunea"},"geometry":{"type":"LineString","coordinates":[[-2.03244,43.13928],[-2.03243,43.13929],[-2.03242,43.1393]]}},{"type":"Feature","properties":{"id":289640727,"highway":"track","superficie":"ground"},"geometry":{"type":"LineString","coordinates":[[-2.01558,43.15536],[-2.01564,43.15538],[-2.01566,43.15541],[-2.01563,43.15544],[-2.01555,43.1555],[-2.01541,43.15556],[-2.01519,43.15569],[-2.01501,43.15585],[-2.01477,43.15606],[-2.01447,43.15618],[-2.01429,43.15627],[-2.01424,43.15631],[-2.01421,43.15639],[-2.01413,43.15649],[-2.0138,43.15666],[-2.01317,43.15705],[-2.01282,43.15721],[-2.01269,43.15722],[-2.01223,43.15712],[-2.01204,43.1571],[-2.01189,43.15713],[-2.01171,43.15722],[-2.01162,43.15728],[-2.01154,43.1574],[-2.01146,43.15747],[-2.01145,43.15747]]}},{"type":"Feature","properties":{"id":566434385,"highway":"service"},"geometry":{"type":"LineString","coordinates":[[-2.01692,43.15364],[-2.01703,43.15368],[-2.01717,43.15371]]}},{"type":"Feature","properties":{"id":566434387,"highway":"service"},"geometry":{"type":"LineString","coordinates":[[-2.01916,43.14955],[-2.01908,43.14934],[-2.01903,43.14912],[-2.019,43.14883],[-2.01887,43.14841]]}},{"type":"Feature","properties":{"id":566434399,"highway":"service"},"geometry":{"type":"LineString","coordinates":[[-2.02353,43.14956],[-2.02322,43.14901]]}},{"type":"Feature","properties":{"id":566434400,"highway":"unclassified"},"geometry":{"type":"LineString","coordinates":[[-2.02352,43.15009],[-2.02353,43.14956]]}},{"type":"Feature","properties":{"id":566434401,"highway":"track"},"geometry":{"type":"LineString","coordinates":[[-2.02353,43.14956],[-2.02353,43.14938],[-2.02348,43.14912],[-2.02333,43.14878],[-2.02327,43.14871],[-2.02316,43.14868],[-2.0231,43.14864],[-2.02294,43.14848],[-2.02284,43.14833],[-2.02275,43.14825],[-2.02268,43.14817],[-2.02263,43.14803],[-2.02243,43.14756],[-2.02241,43.14748],[-2.0224,43.1474],[-2.02241,43.14736],[-2.02246,43.14734]]}},{"type":"Feature","properties":{"id":566434406,"highway":"residential"},"geometry":{"type":"LineString","coordinates":[[-2.02611,43.14571],[-2.02587,43.14571]]}},{"type":"Feature","properties":{"id":566434407,"highway":"footway"},"geometry":{"type":"LineString","coordinates":[[-2.02582,43.14548],[-2.02581,43.14552]]}},{"type":"Feature","properties":{"id":566434408,"highway":"footway"},"geometry":{"type":"LineString","coordinates":[[-2.0251,43.14531],[-2.02506,43.14536]]}},{"type":"Feature","properties":{"id":967292625,"highway":"track"},"geometry":{"type":"LineString","coordinates":[[-2.02306,43.13943],[-2.02295,43.13945],[-2.02285,43.13941],[-2.02275,43.13941],[-2.02266,43.13945],[-2.02251,43.1395],[-2.02238,43.13954],[-2.02224,43.13956],[-2.02204,43.13957],[-2.0218,43.13955],[-2.02155,43.13952],[-2.02132,43.13949],[-2.02117,43.13946],[-2.02112,43.13942],[-2.0211,43.13934],[-2.02107,43.13923],[-2.02107,43.13911],[-2.0211,43.13902],[-2.02118,43.13879],[-2.02117,43.13875],[-2.02113,43.13873],[-2.02109,43.13875],[-2.02105,43.13881],[-2.02099,43.13889],[-2.02093,43.13891],[-2.02084,43.13892],[-2.02069,43.1389],[-2.0206,43.13888],[-2.02053,43.13888],[-2.02042,43.13891],[-2.02022,43.13901],[-2.02013,43.13902],[-2.02005,43.139],[-2.02004,43.13896],[-2.02006,43.13886],[-2.02024,43.13842],[-2.02031,43.13829],[-2.02038,43.13823],[-2.0205,43.13815],[-2.02074,43.13802],[-2.02089,43.13793],[-2.02096,43.13786],[-2.02106,43.13768],[-2.02107,43.13758]]}},{"type":"Feature","properties":{"id":967292626,"highway":"track"},"geometry":{"type":"LineString","coordinates":[[-2.02107,43.13758],[-2.02102,43.13752],[-2.02093,43.13745],[-2.02078,43.13741],[-2.02064,43.1374],[-2.02047,43.13741],[-2.02023,43.13742],[-2.02003,43.13742],[-2.01956,43.13738],[-2.01934,43.13737],[-2.01929,43.13737]]}},{"type":"Feature","properties":{"id":1144176648,"highway":"service"},"geometry":{"type":"LineString","coordinates":[[-2.02967,43.14601],[-2.02957,43.14609],[-2.02951,43.14615],[-2.02949,43.1462],[-2.02949,43.14625]]}},{"type":"Feature","properties":{"id":1144176649,"highway":"service"},"geometry":{"type":"LineString","coordinates":[[-2.02819,43.14585],[-2.02822,43.14597],[-2.02829,43.14612],[-2.02837,43.14618],[-2.02842,43.14621]]}},{"type":"Feature","properties":{"id":1144176651,"highway":"service"},"geometry":{"type":"LineString","coordinates":[[-2.01926,43.14954],[-2.01931,43.14949],[-2.01936,43.14942],[-2.01937,43.14934],[-2.01937,43.14923],[-2.01941,43.14916],[-2.01945,43.14908],[-2.01948,43.14896]]}},{"type":"Feature","properties":{"id":1144176652,"highway":"service"},"geometry":{"type":"LineString","coordinates":[[-2.01628,43.15329],[-2.01643,43.15318],[-2.01656,43.15309]]}},{"type":"Feature","properties":{"id":1144176654,"highway":"service"},"geometry":{"type":"LineString","coordinates":[[-2.02327,43.15134],[-2.02341,43.15133],[-2.02358,43.15134],[-2.02369,43.15131],[-2.02378,43.15128],[-2.02382,43.15111]]}},{"type":"Feature","properties":{"id":1248081428,"highway":"service","nombre":"Eutela auzoa","superficie":"asphalt"},"geometry":{"type":"LineString","coordinates":[[-2.03531,43.14382],[-2.03566,43.14387],[-2.03642,43.14369],[-2.03697,43.14363],[-2.03721,43.14361],[-2.03738,43.14363],[-2.03746,43.14366],[-2.03751,43.14374],[-2.03749,43.14389]]}},{"type":"Feature","properties":{"id":1270966095,"highway":"residential"},"geometry":{"type":"LineString","coordinates":[[-2.02526,43.14457],[-2.02527,43.14458],[-2.02527,43.14462]]}},{"type":"Feature","properties":{"id":1270966096,"highway":"residential","nombre":"Ospela auzoa","puente":"yes"},"geometry":{"type":"LineString","coordinates":[[-2.02523,43.14445],[-2.02526,43.14457]]}},{"type":"Feature","properties":{"id":1297189324,"highway":"service","nombre":"Erbaita kalea"},"geometry":{"type":"LineString","coordinates":[[-2.0289,43.14533],[-2.02864,43.14571],[-2.0286,43.14585]]}},{"type":"Feature","properties":{"id":1297189325,"highway":"service","nombre":"Erbaita kalea","puente":"yes"},"geometry":{"type":"LineString","coordinates":[[-2.029,43.14525],[-2.0289,43.14533]]}},{"type":"Feature","properties":{"id":1297189328,"highway":"track","nombre":"Errota kalea","superficie":"paved"},"geometry":{"type":"LineString","coordinates":[[-2.02702,43.14434],[-2.02721,43.14431],[-2.0274,43.1443],[-2.02765,43.14432],[-2.02778,43.14437],[-2.02799,43.14455],[-2.02818,43.14473],[-2.02818,43.1448],[-2.02813,43.14502],[-2.0281,43.14517],[-2.0281,43.14526],[-2.02812,43.14533],[-2.02816,43.14542],[-2.0282,43.14552],[-2.02821,43.14556],[-2.02821,43.14558],[-2.0282,43.1456],[-2.02814,43.14568],[-2.02812,43.14576]]}},{"type":"Feature","properties":{"id":1297189337,"highway":"service","nombre":"Ospela auzoa"},"geometry":{"type":"LineString","coordinates":[[-2.02423,43.13787],[-2.02428,43.13771],[-2.02432,43.13746],[-2.0243,43.13727],[-2.02424,43.13707]]}},{"type":"Feature","properties":{"id":1297189359,"highway":"service"},"geometry":{"type":"LineString","coordinates":[[-2.01855,43.14636],[-2.01821,43.14656],[-2.0181,43.14662],[-2.01803,43.14663]]}},{"type":"Feature","properties":{"id":1302092190,"highway":"track"},"geometry":{"type":"LineString","coordinates":[[-2.02399,43.14086],[-2.02394,43.14081],[-2.02382,43.14075],[-2.02371,43.14068],[-2.0236,43.14061],[-2.02347,43.14051],[-2.0234,43.14045],[-2.0233,43.14034]]}},{"type":"Feature","properties":{"id":1302092191,"highway":"track","nombre":"Ospela"},"geometry":{"type":"LineString","coordinates":[[-2.02666,43.13837],[-2.02662,43.13815],[-2.02657,43.13787],[-2.02656,43.13777],[-2.02656,43.13769],[-2.02652,43.13761],[-2.02649,43.13756],[-2.02642,43.13746],[-2.0264,43.13741],[-2.0264,43.13736],[-2.02642,43.13731],[-2.02644,43.13724],[-2.02643,43.13718],[-2.02642,43.13712],[-2.02638,43.13704],[-2.02634,43.13697],[-2.02633,43.13689],[-2.02632,43.13682],[-2.02634,43.13675],[-2.02633,43.1366],[-2.02632,43.13646],[-2.02627,43.13627],[-2.02625,43.13604],[-2.02625,43.13592],[-2.02624,43.1358],[-2.02623,43.13572],[-2.0262,43.13565],[-2.02615,43.13558],[-2.02608,43.13551]]}},{"type":"Feature","properties":{"id":1302093424,"highway":"track"},"geometry":{"type":"LineString","coordinates":[[-2.03651,43.14253],[-2.03637,43.14261],[-2.03606,43.14278],[-2.0358,43.14292],[-2.03557,43.14309],[-2.03538,43.1433],[-2.03529,43.14341],[-2.03516,43.14358],[-2.03507,43.1437],[-2.03503,43.14381],[-2.03505,43.14387],[-2.03508,43.14394]]}},{"type":"Feature","properties":{"id":1455328239,"highway":"service","nombre":"Errota kalea"},"geometry":{"type":"LineString","coordinates":[[-2.0281,43.14526],[-2.02809,43.14524],[-2.02805,43.14521],[-2.02796,43.14514]]}},{"type":"Feature","properties":{"id":1455328240,"highway":"residential","nombre":"Ospela auzoa"},"geometry":{"type":"LineString","coordinates":[[-2.02702,43.14434],[-2.0268,43.14428],[-2.02662,43.1441]]}},{"type":"Feature","properties":{"id":1455328241,"highway":"residential","nombre":"Errota kalea"},"geometry":{"type":"LineString","coordinates":[[-2.02673,43.14487],[-2.02699,43.14458],[-2.02707,43.14443],[-2.02706,43.14435],[-2.02702,43.14434]]}},{"type":"Feature","properties":{"id":1455328243,"highway":"residential","nombre":"Jose Maria Goikoetxea kalea"},"geometry":{"type":"LineString","coordinates":[[-2.02725,43.14587],[-2.02708,43.14582],[-2.02696,43.14578],[-2.02686,43.14578],[-2.02679,43.14581],[-2.02672,43.14585],[-2.02668,43.14589],[-2.02666,43.14591],[-2.02662,43.14599]]}},{"type":"Feature","properties":{"id":1455328244,"highway":"residential"},"geometry":{"type":"LineString","coordinates":[[-2.02567,43.14587],[-2.02565,43.14591]]}},{"type":"Feature","properties":{"id":1455366923,"highway":"service"},"geometry":{"type":"LineString","coordinates":[[-2.02143,43.14465],[-2.02158,43.14444]]}},{"type":"Feature","properties":{"id":1455432962,"highway":"track","nombre":"Ospela auzoa"},"geometry":{"type":"LineString","coordinates":[[-2.03242,43.1393],[-2.0324,43.13931],[-2.03239,43.13932],[-2.03237,43.13933],[-2.03235,43.13935],[-2.03233,43.13936],[-2.03231,43.13937],[-2.03229,43.13938],[-2.03227,43.13938],[-2.03225,43.13939],[-2.03223,43.1394],[-2.03221,43.1394],[-2.03219,43.13941],[-2.03217,43.13941],[-2.03215,43.13942],[-2.03213,43.13942],[-2.03211,43.13942],[-2.03209,43.13942],[-2.03207,43.13942],[-2.03204,43.13942],[-2.03202,43.13942],[-2.032,43.13942],[-2.03198,43.13942],[-2.03196,43.13942],[-2.03194,43.13941],[-2.03192,43.13941],[-2.03172,43.13936],[-2.03144,43.13927],[-2.03124,43.13917],[-2.03108,43.13913],[-2.03095,43.13912],[-2.03066,43.13909],[-2.03054,43.13905],[-2.03037,43.13896],[-2.03018,43.13883],[-2.03003,43.13878],[-2.02964,43.13871],[-2.02946,43.13866],[-2.02924,43.13857],[-2.02909,43.13856],[-2.02898,43.13859],[-2.02886,43.13868],[-2.02873,43.1388],[-2.02864,43.13893],[-2.02854,43.13902],[-2.02844,43.1391],[-2.02839,43.13923],[-2.02836,43.13931],[-2.02822,43.13948]]}},{"type":"Feature","properties":{"id":1455596791,"highway":"unclassified","nombre":"Orietape auzoa"},"geometry":{"type":"LineString","coordinates":[[-2.03278,43.1518],[-2.03283,43.15182]]}},{"type":"Feature","properties":{"id":1460588745,"highway":"residential","nombre":"Atseden kalea"},"geometry":{"type":"LineString","coordinates":[[-2.02723,43.14558],[-2.02736,43.14537],[-2.02751,43.14515],[-2.02758,43.14514],[-2.02768,43.14507],[-2.02747,43.14494],[-2.02737,43.14506],[-2.02751,43.14515]]}},{"type":"Feature","properties":{"id":1460588746,"highway":"residential","nombre":"Atseden kalea"},"geometry":{"type":"LineString","coordinates":[[-2.02736,43.14537],[-2.02777,43.14544]]}},{"type":"Feature","properties":{"id":1460588747,"highway":"residential","nombre":"Errezpe kalea"},"geometry":{"type":"LineString","coordinates":[[-2.02678,43.1455],[-2.02681,43.14546],[-2.02703,43.14529],[-2.02706,43.14524],[-2.02699,43.14518],[-2.02698,43.14511],[-2.02692,43.14503],[-2.02686,43.14495],[-2.0268,43.1449],[-2.02673,43.14487]]}},{"type":"Feature","properties":{"id":1460588748,"highway":"residential","nombre":"Atseden kalea"},"geometry":{"type":"LineString","coordinates":[[-2.02737,43.14506],[-2.02719,43.14526],[-2.02706,43.14524]]}},{"type":"Feature","properties":{"id":1493434761,"highway":"secondary","nombre":"Jose Maria Goikoetxea kalea","ref":"GI-2130"},"geometry":{"type":"LineString","coordinates":[[-2.02323,43.14476],[-2.02275,43.14467],[-2.02247,43.14461],[-2.02233,43.14459],[-2.02212,43.14455],[-2.02192,43.14451],[-2.0217,43.14447],[-2.02158,43.14444],[-2.02153,43.14442],[-2.02139,43.14437],[-2.02113,43.14423],[-2.02085,43.14411]]}},{"type":"Feature","properties":{"id":1493434762,"highway":"secondary","nombre":"Jose Maria Goikoetxea kalea","ref":"GI-2130","oneway":"yes"},"geometry":{"type":"LineString","coordinates":[[-2.02323,43.14476],[-2.02344,43.14483],[-2.02364,43.14486]]}},{"type":"Feature","properties":{"id":1493434763,"highway":"secondary","nombre":"Jose Maria Goikoetxea kalea","ref":"GI-2130","oneway":"yes"},"geometry":{"type":"LineString","coordinates":[[-2.02364,43.14486],[-2.02354,43.14481],[-2.02346,43.14478],[-2.02337,43.14477],[-2.02323,43.14476]]}},{"type":"Feature","properties":{"id":1493434764,"highway":"footway"},"geometry":{"type":"LineString","coordinates":[[-2.02343,43.14485],[-2.02344,43.14483],[-2.02346,43.14478],[-2.02347,43.14477]]}},{"type":"Feature","properties":{"id":1493434765,"highway":"secondary","ref":"GI-2130"},"geometry":{"type":"LineString","coordinates":[[-2.02085,43.14411],[-2.02066,43.14404],[-2.02037,43.14395]]}}]}
