{"type":"FeatureCollection","features":[{"type":"Feature","properties":{"id":85226484,"highway":"service","superficie":"asphalt"},"geometry":{"type":"LineString","coordinates":[[-2.68465,43.34272],[-2.68463,43.3426],[-2.68457,43.34246],[-2.6845,43.34239],[-2.6844,43.34237],[-2.68422,43.34238],[-2.68413,43.34234],[-2.684,43.34208],[-2.68397,43.3419],[-2.68392,43.34184],[-2.68383,43.34182],[-2.68219,43.34198],[-2.68185,43.34207],[-2.68132,43.34158],[-2.68108,43.34138],[-2.6807,43.34131],[-2.6805,43.34127],[-2.68033,43.34116],[-2.68023,43.34106],[-2.68015,43.34091],[-2.68007,43.34075],[-2.68003,43.34064],[-2.67993,43.34032],[-2.67987,43.34006],[-2.67986,43.33968],[-2.67986,43.33966],[-2.67928,43.33902],[-2.67907,43.33868],[-2.67874,43.33818],[-2.67844,43.33767],[-2.67837,43.33761],[-2.67829,43.33758],[-2.67814,43.33756],[-2.67778,43.33757],[-2.6776,43.33754],[-2.67745,43.33747],[-2.67741,43.33745],[-2.67729,43.33738]]}},{"type":"Feature","properties":{"id":111646123,"highway":"residential","oneway":"yes","superficie":"asphalt"},"geometry":{"type":"LineString","coordinates":[[-2.6764,43.33486],[-2.67646,43.33493],[-2.67653,43.33504]]}},{"type":"Feature","properties":{"id":111646124,"highway":"service","nombre":"Elexalde auzoa"},"geometry":{"type":"LineString","coordinates":[[-2.67771,43.33437],[-2.67794,43.33427],[-2.67803,43.33423],[-2.6781,43.33414],[-2.67811,43.33407],[-2.67811,43.334],[-2.67805,43.33379],[-2.67803,43.33349],[-2.67804,43.33331],[-2.67806,43.33304]]}},{"type":"Feature","properties":{"id":111646127,"highway":"residential","oneway":"yes","superficie":"asphalt"},"geometry":{"type":"LineString","coordinates":[[-2.67656,43.33482],[-2.6764,43.33477],[-2.67634,43.33477],[-2.67627,43.33479],[-2.67634,43.33483],[-2.6764,43.33486],[-2.67647,43.33485],[-2.67656,43.33482]]}},{"type":"Feature","properties":{"id":111646129,"highway":"residential","oneway":"yes","superficie":"asphalt"},"geometry":{"type":"LineString","coordinates":[[-2.67659,43.33463],[-2.67651,43.33469],[-2.67645,43.33474],[-2.6764,43.33477]]}},{"type":"Feature","properties":{"id":111646130,"highway":"residential","superficie":"asphalt"},"geometry":{"type":"LineString","coordinates":[[-2.67696,43.33205],[-2.67691,43.33205]]}},{"type":"Feature","properties":{"id":111646131,"highway":"residential","nombre":"Elexalde auzoa","superficie":"asphalt"},"geometry":{"type":"LineString","coordinates":[[-2.67627,43.33479],[-2.67565,43.33468],[-2.67556,43.33467],[-2.67537,43.33463],[-2.67527,43.33461],[-2.6749,43.33452]]}},{"type":"Feature","properties":{"id":218664195,"highway":"unclassified"},"geometry":{"type":"LineString","coordinates":[[-2.67963,43.32415],[-2.6797,43.32411],[-2.67975,43.32407],[-2.67977,43.32404],[-2.67979,43.32399]]}},{"type":"Feature","properties":{"id":218664209,"highway":"cycleway","oneway":"no","superficie":"asphalt"},"geometry":{"type":"LineString","coordinates":[[-2.68008,43.34693],[-2.67995,43.34665],[-2.67932,43.3454],[-2.6793,43.34537],[-2.67926,43.34533],[-2.67919,43.34528],[-2.67915,43.3452],[-2.67913,43.34516],[-2.67913,43.34502],[-2.67835,43.34312],[-2.67779,43.34175],[-2.67738,43.3407],[-2.67736,43.34066],[-2.67662,43.33887],[-2.67661,43.33882],[-2.67624,43.33791],[-2.67616,43.33756]]}},{"type":"Feature","properties":{"id":244019126,"highway":"service"},"geometry":{"type":"LineString","coordinates":[[-2.70867,43.33975],[-2.70863,43.33981],[-2.70855,43.33989],[-2.70847,43.33996],[-2.70841,43.34003],[-2.70839,43.34007],[-2.70838,43.34012]]}},{"type":"Feature","properties":{"id":244019131,"highway":"service"},"geometry":{"type":"LineString","coordinates":[[-2.70837,43.34074],[-2.70837,43.34072],[-2.7084,43.34062],[-2.70839,43.34038],[-2.70837,43.34019],[-2.70838,43.34012]]}},{"type":"Feature","properties":{"id":244019141,"highway":"path"},"geometry":{"type":"LineString","coordinates":[[-2.70254,43.3424],[-2.70234,43.34235],[-2.70191,43.34224],[-2.70175,43.3422],[-2.70153,43.34212],[-2.70121,43.34198],[-2.70099,43.34182],[-2.70071,43.3416],[-2.70015,43.34113],[-2.69985,43.34084],[-2.69952,43.34051],[-2.69929,43.34015],[-2.69924,43.34009],[-2.69898,43.33989],[-2.69871,43.33962],[-2.69848,43.33942],[-2.69839,43.33931],[-2.69818,43.33917],[-2.69778,43.33885],[-2.69724,43.33857],[-2.69638,43.33817],[-2.69607,43.33805],[-2.69555,43.33793],[-2.69539,43.33791],[-2.69533,43.33793],[-2.6953,43.33795],[-2.69528,43.33797]]}},{"type":"Feature","properties":{"id":291576622,"highway":"residential","nombre":"Ibarra auzoa"},"geometry":{"type":"LineString","coordinates":[[-2.67769,43.3312],[-2.67769,43.33124],[-2.67768,43.33132],[-2.67763,43.33172],[-2.67759,43.33195],[-2.67758,43.33204]]}},{"type":"Feature","properties":{"id":291576624,"highway":"service"},"geometry":{"type":"LineString","coordinates":[[-2.67719,43.33034],[-2.67738,43.33038],[-2.67759,43.33041],[-2.67789,43.3304],[-2.67833,43.33043],[-2.67859,43.33044],[-2.67868,43.33045],[-2.67874,43.33048],[-2.67892,43.33063],[-2.679,43.33067],[-2.67909,43.33067],[-2.6792,43.33062],[-2.6793,43.33055],[-2.67935,43.33049],[-2.6794,43.33042],[-2.67944,43.33032],[-2.67942,43.33021],[-2.67935,43.33014]]}},{"type":"Feature","properties":{"id":305707408,"highway":"service"},"geometry":{"type":"LineString","coordinates":[[-2.68558,43.32636],[-2.68562,43.32635],[-2.68565,43.32633],[-2.68569,43.3263],[-2.68573,43.32626],[-2.68579,43.32619],[-2.68583,43.32613],[-2.68584,43.32606],[-2.68585,43.32599],[-2.68586,43.3259]]}},{"type":"Feature","properties":{"id":305707409,"highway":"unclassified"},"geometry":{"type":"LineString","coordinates":[[-2.6841,43.33138],[-2.68417,43.33138],[-2.68447,43.33139],[-2.68475,43.3314],[-2.68484,43.33141],[-2.68492,43.33143],[-2.68513,43.33149],[-2.68524,43.33151],[-2.68532,43.33152],[-2.68543,43.33152],[-2.68564,43.33153],[-2.68573,43.33153]]}},{"type":"Feature","properties":{"id":305707410,"highway":"unclassified"},"geometry":{"type":"LineString","coordinates":[[-2.68071,43.32644],[-2.68089,43.32663],[-2.68094,43.3267],[-2.68096,43.32675],[-2.68098,43.32679],[-2.68099,43.32693],[-2.681,43.32711],[-2.68101,43.32739],[-2.68102,43.32747],[-2.68103,43.32752],[-2.68104,43.32756],[-2.68106,43.3276]]}},{"type":"Feature","properties":{"id":305707411,"highway":"service"},"geometry":{"type":"LineString","coordinates":[[-2.68106,43.3276],[-2.68116,43.32756],[-2.68136,43.3275],[-2.68163,43.32743],[-2.68185,43.32738],[-2.68207,43.32733],[-2.68219,43.32733],[-2.68232,43.32734],[-2.68267,43.32738],[-2.68286,43.3274],[-2.68298,43.32741],[-2.68312,43.3274],[-2.68324,43.32741]]}},{"type":"Feature","properties":{"id":305707412,"highway":"unclassified"},"geometry":{"type":"LineString","coordinates":[[-2.68209,43.33216],[-2.68223,43.33214],[-2.68231,43.33213],[-2.68236,43.33212],[-2.68237,43.33211],[-2.68246,43.33204],[-2.68253,43.33199],[-2.68263,43.33192],[-2.68278,43.33183],[-2.68291,43.33176],[-2.68302,43.33171],[-2.68321,43.33166],[-2.68331,43.33165]]}},{"type":"Feature","properties":{"id":305707413,"highway":"service"},"geometry":{"type":"LineString","coordinates":[[-2.68329,43.32978],[-2.68334,43.32977],[-2.68337,43.32977],[-2.68341,43.32976],[-2.68361,43.32969],[-2.68446,43.32936],[-2.68484,43.32923],[-2.68504,43.32917],[-2.68509,43.32916],[-2.68515,43.32915],[-2.6852,43.32915],[-2.68528,43.32916],[-2.68539,43.32918]]}},{"type":"Feature","properties":{"id":305707414,"highway":"unclassified"},"geometry":{"type":"LineString","coordinates":[[-2.68322,43.32999],[-2.68323,43.33007],[-2.68326,43.33016],[-2.68329,43.33023],[-2.68336,43.33032],[-2.6835,43.33048],[-2.68368,43.33069],[-2.68386,43.3309],[-2.68393,43.33099],[-2.68397,43.33106],[-2.68403,43.33117],[-2.68409,43.33134],[-2.6841,43.33138]]}},{"type":"Feature","properties":{"id":305707415,"highway":"service"},"geometry":{"type":"LineString","coordinates":[[-2.68516,43.32728],[-2.68522,43.32726],[-2.68529,43.32722],[-2.68535,43.32719],[-2.68539,43.32716],[-2.68543,43.32711],[-2.68545,43.32706],[-2.68546,43.32702],[-2.68547,43.32698],[-2.68547,43.32688],[-2.68546,43.32671],[-2.68547,43.32662],[-2.68549,43.32656],[-2.68551,43.32652]]}},{"type":"Feature","properties":{"id":305707416,"highway":"service"},"geometry":{"type":"LineString","coordinates":[[-2.69796,43.33298],[-2.69814,43.33297],[-2.69851,43.33287],[-2.69854,43.33286],[-2.69856,43.33285],[-2.69872,43.33279],[-2.69886,43.33274],[-2.69889,43.33272],[-2.69895,43.33269],[-2.69903,43.33262],[-2.69909,43.33255],[-2.6991,43.33253],[-2.69911,43.33249],[-2.69912,43.33247],[-2.69912,43.33244],[-2.69911,43.33242],[-2.6991,43.3324],[-2.69906,43.33236],[-2.69903,43.33234],[-2.6989,43.33223],[-2.69877,43.33215],[-2.69866,43.33208],[-2.69862,43.33203],[-2.6986,43.33201],[-2.69857,43.33191],[-2.69854,43.33178],[-2.69853,43.33173],[-2.69853,43.3317],[-2.69853,43.33168],[-2.69854,43.33164],[-2.69855,43.33162],[-2.69857,43.33158],[-2.69861,43.33153],[-2.69868,43.33144],[-2.69871,43.33141],[-2.69872,43.33139],[-2.69873,43.33138],[-2.69873,43.33136],[-2.69874,43.33134],[-2.69875,43.33128],[-2.69876,43.33124],[-2.69876,43.33121],[-2.69878,43.33118],[-2.69886,43.33105],[-2.69893,43.33094],[-2.69894,43.33092],[-2.69895,43.3309],[-2.69897,43.33087],[-2.69898,43.33085],[-2.69898,43.33083],[-2.69897,43.33081],[-2.69896,43.33078],[-2.69889,43.33063],[-2.69884,43.33052],[-2.6988,43.33038],[-2.69878,43.33033],[-2.69876,43.33031],[-2.69874,43.33027],[-2.69866,43.33023],[-2.69862,43.33022],[-2.69859,43.33021],[-2.69857,43.3302],[-2.69853,43.33018],[-2.69851,43.33016],[-2.69851,43.33015],[-2.6985,43.33013],[-2.6985,43.33012],[-2.6985,43.33011],[-2.6985,43.3301],[-2.69851,43.33009],[-2.69852,43.33007],[-2.69854,43.33006],[-2.69864,43.32997],[-2.69869,43.32991],[-2.6987,43.3299],[-2.69871,43.32989],[-2.69877,43.32967],[-2.69877,43.32966],[-2.69882,43.32942],[-2.69884,43.32935],[-2.69884,43.32931],[-2.69884,43.32929],[-2.69883,43.32924],[-2.69883,43.32922],[-2.69881,43.32917],[-2.69879,43.32911],[-2.69879,43.32908],[-2.69878,43.32905],[-2.69879,43.32897],[-2.6988,43.32894],[-2.69882,43.32882],[-2.69883,43.32876],[-2.69884,43.32872],[-2.69885,43.32861],[-2.69885,43.32859],[-2.69885,43.32857],[-2.69886,43.32855],[-2.69887,43.32854],[-2.6989,43.32851],[-2.69893,43.3285],[-2.69902,43.32846],[-2.69917,43.32839],[-2.69932,43.32834],[-2.69944,43.32831],[-2.6995,43.3283],[-2.69959,43.32829],[-2.69972,43.32828],[-2.69998,43.32825],[-2.70009,43.32824],[-2.70033,43.32823],[-2.70045,43.32822],[-2.70059,43.32822],[-2.70063,43.32821],[-2.70068,43.3282],[-2.70072,43.32819],[-2.70075,43.32818],[-2.7008,43.32815],[-2.70091,43.32806],[-2.70096,43.32803],[-2.70101,43.32801],[-2.70106,43.32799],[-2.70109,43.32798],[-2.70113,43.32798],[-2.70118,43.32797],[-2.70135,43.32797],[-2.70157,43.32796],[-2.70164,43.32797],[-2.70167,43.32797],[-2.70172,43.32796],[-2.70177,43.32796],[-2.70183,43.32795],[-2.70189,43.32794],[-2.70203,43.32791],[-2.70232,43.32785],[-2.70241,43.32785],[-2.7025,43.32786],[-2.70262,43.32791],[-2.70279,43.32797],[-2.70284,43.32799],[-2.7029,43.328],[-2.70297,43.328],[-2.70304,43.328],[-2.70314,43.32797],[-2.70322,43.32791],[-2.70324,43.32783]]}},{"type":"Feature","properties":{"id":305707417,"highway":"service"},"geometry":{"type":"LineString","coordinates":[[-2.68324,43.32741],[-2.6834,43.32743],[-2.68355,43.32746],[-2.68367,43.32749],[-2.68379,43.32751],[-2.68393,43.32753],[-2.68403,43.32754],[-2.68409,43.32754],[-2.68416,43.32754],[-2.68424,43.32752],[-2.68463,43.32744],[-2.68481,43.3274],[-2.6849,43.32738],[-2.6851,43.32731],[-2.68516,43.32728]]}},{"type":"Feature","properties":{"id":305707418,"highway":"unclassified"},"geometry":{"type":"LineString","coordinates":[[-2.67963,43.32415],[-2.67964,43.32419],[-2.67959,43.32434],[-2.67958,43.32439],[-2.67959,43.32446],[-2.67966,43.32456],[-2.6799,43.32496],[-2.68001,43.32515],[-2.68016,43.32544],[-2.68032,43.3259],[-2.68035,43.32596],[-2.68038,43.32601],[-2.68043,43.32609],[-2.68049,43.32617],[-2.68071,43.32644]]}},{"type":"Feature","properties":{"id":305707419,"highway":"unclassified"},"geometry":{"type":"LineString","coordinates":[[-2.68642,43.33077],[-2.68645,43.33079],[-2.6865,43.33085],[-2.68661,43.33107],[-2.68668,43.33116],[-2.68679,43.33127],[-2.68723,43.33166],[-2.68749,43.33182],[-2.68778,43.33197],[-2.68809,43.33219],[-2.68814,43.33222],[-2.68824,43.33225],[-2.68834,43.33225],[-2.68842,43.33223],[-2.68849,43.3322],[-2.68878,43.33188],[-2.68895,43.33173],[-2.68936,43.33141],[-2.68941,43.33135],[-2.68946,43.33127],[-2.68952,43.33094],[-2.68957,43.33085],[-2.68966,43.33077],[-2.68987,43.33065],[-2.69027,43.33044],[-2.6904,43.33039],[-2.69053,43.33036],[-2.69067,43.33037],[-2.69075,43.33039],[-2.69082,43.33042],[-2.69113,43.33073],[-2.69129,43.33087],[-2.69139,43.33091],[-2.69144,43.33093],[-2.69153,43.33094],[-2.6918,43.33093],[-2.69187,43.33093],[-2.692,43.33096],[-2.6921,43.33101],[-2.69233,43.3312],[-2.69242,43.33126],[-2.69253,43.33131],[-2.69265,43.33134],[-2.6932,43.33139],[-2.69351,43.3314],[-2.69372,43.33141],[-2.69394,43.33144],[-2.69405,43.33147],[-2.69419,43.33151],[-2.69434,43.33158],[-2.69444,43.33164],[-2.69456,43.33171],[-2.69461,43.33177],[-2.69467,43.33188],[-2.69473,43.33196],[-2.69481,43.33202],[-2.69491,43.33209],[-2.69516,43.33221],[-2.6954,43.33227],[-2.69575,43.33234],[-2.69638,43.33249],[-2.69656,43.33256],[-2.6968,43.33264],[-2.69691,43.33267],[-2.69787,43.33296]]}},{"type":"Feature","properties":{"id":305707420,"highway":"service"},"geometry":{"type":"LineString","coordinates":[[-2.68539,43.32918],[-2.68558,43.32923],[-2.68569,43.32924],[-2.68578,43.32925],[-2.68588,43.32925],[-2.68598,43.32925],[-2.68609,43.32924],[-2.68632,43.32919],[-2.68637,43.32918]]}},{"type":"Feature","properties":{"id":305707421,"highway":"unclassified"},"geometry":{"type":"LineString","coordinates":[[-2.70012,43.33344],[-2.70036,43.33349],[-2.70093,43.33354],[-2.70112,43.33355],[-2.70132,43.33356],[-2.70141,43.33357],[-2.70148,43.3336],[-2.70153,43.33365],[-2.70164,43.33381],[-2.70168,43.33385],[-2.70171,43.33389],[-2.70181,43.33394],[-2.70207,43.33401],[-2.70225,43.33404],[-2.70248,43.33405],[-2.70259,43.33407],[-2.70263,43.33407],[-2.70269,43.33411],[-2.70283,43.33432],[-2.703,43.33451],[-2.70303,43.33456],[-2.70304,43.33461],[-2.70301,43.33489],[-2.70303,43.33497],[-2.70307,43.33502],[-2.70325,43.33518],[-2.70338,43.33528],[-2.70353,43.33536],[-2.70365,43.33541],[-2.70404,43.33556],[-2.70412,43.33559],[-2.70433,43.33563],[-2.70449,43.33568],[-2.70456,43.33571],[-2.70459,43.33574],[-2.70467,43.33585],[-2.70472,43.33594],[-2.70478,43.336],[-2.70492,43.3361],[-2.70516,43.33623],[-2.7053,43.33629],[-2.70554,43.33635],[-2.70571,43.33639],[-2.70593,43.3364],[-2.70618,43.3364],[-2.7063,43.33638],[-2.70662,43.33632],[-2.7067,43.33629],[-2.7068,43.33625],[-2.70689,43.33622],[-2.707,43.33621],[-2.70718,43.3362],[-2.70727,43.3362],[-2.70733,43.33622],[-2.70742,43.33626],[-2.70773,43.33642],[-2.70778,43.33646],[-2.70781,43.33651],[-2.70791,43.33674],[-2.70795,43.33679],[-2.70809,43.33691],[-2.70816,43.33698],[-2.70835,43.33728],[-2.70837,43.33732],[-2.70839,43.33739],[-2.70838,43.33748],[-2.70829,43.33762],[-2.70823,43.33779],[-2.7082,43.33789],[-2.70823,43.33826],[-2.70827,43.33839],[-2.70838,43.33862],[-2.70844,43.33871],[-2.70851,43.33879],[-2.70855,43.33883],[-2.7087,43.33893]]}},{"type":"Feature","properties":{"id":305707422,"highway":"service"},"geometry":{"type":"LineString","coordinates":[[-2.70198,43.33017],[-2.70206,43.33014],[-2.70216,43.33013],[-2.70231,43.33013],[-2.7024,43.33012],[-2.70313,43.32993],[-2.7032,43.32991],[-2.70329,43.32989],[-2.70344,43.32988],[-2.70348,43.32987],[-2.70374,43.32983],[-2.70378,43.32983],[-2.70385,43.32983],[-2.70412,43.32987],[-2.7042,43.32987],[-2.7043,43.32986],[-2.70446,43.32983],[-2.70455,43.32983],[-2.70464,43.32982],[-2.70474,43.32982]]}},{"type":"Feature","properties":{"id":305707423,"highway":"unclassified"},"geometry":{"type":"LineString","coordinates":[[-2.67888,43.33211],[-2.67931,43.33215],[-2.67952,43.33216],[-2.67966,43.33215],[-2.67982,43.33214],[-2.67994,43.33213],[-2.68006,43.33213],[-2.68022,43.33215],[-2.6804,43.33217],[-2.68063,43.33218],[-2.68073,43.33218],[-2.68093,43.33218],[-2.68121,43.33218],[-2.68142,43.33216],[-2.68163,43.33213],[-2.68181,43.33212],[-2.68201,43.33213],[-2.68209,43.33216]]}},{"type":"Feature","properties":{"id":305707425,"highway":"unclassified"},"geometry":{"type":"LineString","coordinates":[[-2.68573,43.33153],[-2.68579,43.3315],[-2.68582,43.33147],[-2.68585,43.33141],[-2.68585,43.33132],[-2.68584,43.3312],[-2.68585,43.33108],[-2.68587,43.33101],[-2.68589,43.33096],[-2.68591,43.33093],[-2.68594,43.33089],[-2.68599,43.33086],[-2.68604,43.33082],[-2.6861,43.3308],[-2.68624,43.33076],[-2.68632,43.33075],[-2.68637,43.33075],[-2.68642,43.33077]]}},{"type":"Feature","properties":{"id":305707426,"highway":"service"},"geometry":{"type":"LineString","coordinates":[[-2.68243,43.33032],[-2.68236,43.33012]]}},{"type":"Feature","properties":{"id":305707427,"highway":"service"},"geometry":{"type":"LineString","coordinates":[[-2.68324,43.32741],[-2.68312,43.32718]]}},{"type":"Feature","properties":{"id":305707428,"highway":"service"},"geometry":{"type":"LineString","coordinates":[[-2.67812,43.33226],[-2.67841,43.33227]]}},{"type":"Feature","properties":{"id":305707429,"highway":"service"},"geometry":{"type":"LineString","coordinates":[[-2.67931,43.33215],[-2.67932,43.33225]]}},{"type":"Feature","properties":{"id":305707430,"highway":"service"},"geometry":{"type":"LineString","coordinates":[[-2.67806,43.33205],[-2.67812,43.33226]]}},{"type":"Feature","properties":{"id":305707431,"highway":"service"},"geometry":{"type":"MultiLineString","coordinates":[[[-2.68647,43.32686],[-2.68666,43.32694],[-2.68682,43.327],[-2.68704,43.32706],[-2.68724,43.3271],[-2.68741,43.32712],[-2.68786,43.32711],[-2.68812,43.32711],[-2.6884,43.32713],[-2.68854,43.32715],[-2.68871,43.32721],[-2.68876,43.32723],[-2.68885,43.32729],[-2.68898,43.32743],[-2.68904,43.32747],[-2.68912,43.32748],[-2.68916,43.32748],[-2.68921,43.32747],[-2.6894,43.32738],[-2.6895,43.32735],[-2.6896,43.32732],[-2.68973,43.32729],[-2.69008,43.32724],[-2.6903,43.32722],[-2.69049,43.32721],[-2.69058,43.32723],[-2.69067,43.32726],[-2.69094,43.32738],[-2.6911,43.32743],[-2.69127,43.32746],[-2.69187,43.32753],[-2.692,43.32756],[-2.69209,43.32761],[-2.69231,43.32782],[-2.69245,43.32793],[-2.6929,43.32817],[-2.69309,43.32828],[-2.69333,43.32838],[-2.69369,43.32845],[-2.69388,43.32852],[-2.69416,43.32863],[-2.69436,43.32866],[-2.6945,43.32865],[-2.69492,43.32856],[-2.69557,43.32846],[-2.69603,43.32845],[-2.69647,43.32839],[-2.69662,43.32839],[-2.6969,43.3284],[-2.69699,43.32839],[-2.69708,43.32835],[-2.69711,43.32832],[-2.69714,43.32827],[-2.69715,43.32823],[-2.69713,43.32817],[-2.69707,43.32804],[-2.69698,43.32789],[-2.69696,43.32785],[-2.69696,43.32777],[-2.69697,43.32772],[-2.69701,43.32766],[-2.69714,43.32756],[-2.69728,43.3275],[-2.69737,43.32748],[-2.69751,43.32747],[-2.69763,43.3275],[-2.69771,43.32751],[-2.69785,43.32749],[-2.69795,43.32745],[-2.69807,43.32736],[-2.69812,43.32733],[-2.69823,43.3273],[-2.69836,43.32729],[-2.69844,43.3273]],[[-2.69894,43.32733],[-2.69901,43.32732],[-2.69975,43.32717],[-2.69991,43.32714],[-2.69996,43.32713],[-2.7,43.32708],[-2.70001,43.32705],[-2.70001,43.32693]],[[-2.7002,43.3268],[-2.7003,43.32678],[-2.70074,43.32675],[-2.70133,43.32674],[-2.70143,43.32671],[-2.70156,43.32665],[-2.70158,43.32663]]]}},{"type":"Feature","properties":{"id":305707432,"highway":"service"},"geometry":{"type":"LineString","coordinates":[[-2.68551,43.32652],[-2.68553,43.32645],[-2.68558,43.32636]]}},{"type":"Feature","properties":{"id":305707433,"highway":"service"},"geometry":{"type":"LineString","coordinates":[[-2.68071,43.32644],[-2.68057,43.32649],[-2.68043,43.32655],[-2.68026,43.32659],[-2.68019,43.32658],[-2.68012,43.32656]]}},{"type":"Feature","properties":{"id":305707434,"highway":"unclassified"},"geometry":{"type":"LineString","coordinates":[[-2.68329,43.32978],[-2.68324,43.32992],[-2.68322,43.32999]]}},{"type":"Feature","properties":{"id":305707435,"highway":"residential","nombre":"Ibarra auzoa","oneway":"yes"},"geometry":{"type":"LineString","coordinates":[[-2.67763,43.33172],[-2.67804,43.33175],[-2.67849,43.33178],[-2.67856,43.33175],[-2.6786,43.33174]]}},{"type":"Feature","properties":{"id":305707436,"highway":"service"},"geometry":{"type":"LineString","coordinates":[[-2.68331,43.33165],[-2.68341,43.33168],[-2.68366,43.33186]]}},{"type":"Feature","properties":{"id":305707437,"highway":"unclassified"},"geometry":{"type":"LineString","coordinates":[[-2.68106,43.3276],[-2.6811,43.32768],[-2.68114,43.32773],[-2.68119,43.32777],[-2.68127,43.32782],[-2.68141,43.32789],[-2.68156,43.32796],[-2.68172,43.32803],[-2.68179,43.32808],[-2.68184,43.32811],[-2.6819,43.32816],[-2.68194,43.32821],[-2.68199,43.32829],[-2.68202,43.32836],[-2.68205,43.32845],[-2.68212,43.32863],[-2.68214,43.32868],[-2.68217,43.32872],[-2.6822,43.32877],[-2.68224,43.32882],[-2.68232,43.32891],[-2.68242,43.32901],[-2.68249,43.32908],[-2.68256,43.32913],[-2.68264,43.32918],[-2.68281,43.32929],[-2.68296,43.32936],[-2.68301,43.32939],[-2.68304,43.32941],[-2.68308,43.32944],[-2.68312,43.32947],[-2.68316,43.32952],[-2.6832,43.32957],[-2.68326,43.32968],[-2.68329,43.32978]]}},{"type":"Feature","properties":{"id":305707438,"highway":"service"},"geometry":{"type":"LineString","coordinates":[[-2.68516,43.32728],[-2.68526,43.32733],[-2.68533,43.32737],[-2.68538,43.32742],[-2.6854,43.32746],[-2.68547,43.32756],[-2.68552,43.32766],[-2.68554,43.32771],[-2.68555,43.32774],[-2.68555,43.32778],[-2.68556,43.32781],[-2.68558,43.32786],[-2.68564,43.32805],[-2.68565,43.3281],[-2.68567,43.32827],[-2.68568,43.3283],[-2.6857,43.32833],[-2.68571,43.32836],[-2.68575,43.32841],[-2.68585,43.32851],[-2.68589,43.32855],[-2.68591,43.32858],[-2.68592,43.32859],[-2.68593,43.32862],[-2.68594,43.32864],[-2.68594,43.32866],[-2.68594,43.32867],[-2.68594,43.3287],[-2.68593,43.32873],[-2.68592,43.32874],[-2.68591,43.32876],[-2.68589,43.32878],[-2.68587,43.3288],[-2.68583,43.32884],[-2.68576,43.32889],[-2.68557,43.32902],[-2.68547,43.32909],[-2.68539,43.32918]]}},{"type":"Feature","properties":{"id":305707439,"highway":"track"},"geometry":{"type":"LineString","coordinates":[[-2.68209,43.33216],[-2.68204,43.33222],[-2.68195,43.33229],[-2.68192,43.33233],[-2.68191,43.33238],[-2.68195,43.33248],[-2.68199,43.33256],[-2.68204,43.33262],[-2.68222,43.33285],[-2.68225,43.3329],[-2.68227,43.33294],[-2.68229,43.33301],[-2.68231,43.33308],[-2.68233,43.33323],[-2.68235,43.33334],[-2.68238,43.3334],[-2.6824,43.33344],[-2.68244,43.33351],[-2.6825,43.3336],[-2.68252,43.33365],[-2.68253,43.33369],[-2.68254,43.33374],[-2.68255,43.33381],[-2.68255,43.33389],[-2.68254,43.33401],[-2.68251,43.33413],[-2.68248,43.33422],[-2.68246,43.33433],[-2.68245,43.33442],[-2.68245,43.33447],[-2.68245,43.33452],[-2.6825,43.33479],[-2.68253,43.33498],[-2.68254,43.33512],[-2.68254,43.33521],[-2.68252,43.33533],[-2.68246,43.33542],[-2.68242,43.33547],[-2.68236,43.33552],[-2.68223,43.33558],[-2.68224,43.33566],[-2.6823,43.33599],[-2.68229,43.33619],[-2.6821,43.33646],[-2.68187,43.33667],[-2.68164,43.33682],[-2.68142,43.33701],[-2.68114,43.33736],[-2.68115,43.33754],[-2.68124,43.33782],[-2.68123,43.33811],[-2.68094,43.33844],[-2.68066,43.33867],[-2.68054,43.33872]]}},{"type":"Feature","properties":{"id":305707441,"highway":"residential","nombre":"Ibarra auzoa","oneway":"yes"},"geometry":{"type":"LineString","coordinates":[[-2.67888,43.33211],[-2.6782,43.33205],[-2.67806,43.33205],[-2.67762,43.33204],[-2.67758,43.33204]]}},{"type":"Feature","properties":{"id":305707443,"highway":"service"},"geometry":{"type":"LineString","coordinates":[[-2.68015,43.32987],[-2.68014,43.32984],[-2.68016,43.32983],[-2.6802,43.3298],[-2.6804,43.32966],[-2.68044,43.32963],[-2.68047,43.32961],[-2.68048,43.32959],[-2.68049,43.32957],[-2.6805,43.32954],[-2.6805,43.32951],[-2.6805,43.32948],[-2.68049,43.32944],[-2.68047,43.32941],[-2.68045,43.32937],[-2.68042,43.32933],[-2.68034,43.32926],[-2.68031,43.32922],[-2.6803,43.32919],[-2.6803,43.32916],[-2.6803,43.32912],[-2.6803,43.3291],[-2.68032,43.32908],[-2.68052,43.32891],[-2.68055,43.32887],[-2.68057,43.32884],[-2.68057,43.32881],[-2.68057,43.32877],[-2.68048,43.32855],[-2.68047,43.32852],[-2.68047,43.32847],[-2.68048,43.32841],[-2.68056,43.32825],[-2.68059,43.32815],[-2.68062,43.32802],[-2.68063,43.32798],[-2.68065,43.32794],[-2.68067,43.32792],[-2.6807,43.3279],[-2.68072,43.32787],[-2.68093,43.32773],[-2.68099,43.32769],[-2.68106,43.3276]]}},{"type":"Feature","properties":{"id":305707444,"highway":"service"},"geometry":{"type":"LineString","coordinates":[[-2.68243,43.33032],[-2.68237,43.33032],[-2.68227,43.33033],[-2.68217,43.33033],[-2.68213,43.33034],[-2.68207,43.33036],[-2.682,43.33039],[-2.68195,43.33042],[-2.68188,43.33047],[-2.68183,43.33052],[-2.6818,43.33056],[-2.68179,43.33061],[-2.68179,43.33078],[-2.68178,43.33087],[-2.68178,43.33092],[-2.68177,43.33096],[-2.68176,43.33099],[-2.68175,43.33102],[-2.68172,43.33105],[-2.68169,43.33107],[-2.68165,43.33109],[-2.6816,43.3311],[-2.68155,43.33111],[-2.6815,43.33111],[-2.68146,43.3311],[-2.68141,43.33109],[-2.68134,43.33107],[-2.68128,43.33104],[-2.68101,43.33091],[-2.68095,43.33088],[-2.68091,43.33084],[-2.68088,43.3308],[-2.68086,43.33076],[-2.68081,43.33068],[-2.68071,43.33056],[-2.68063,43.33048],[-2.68057,43.3304],[-2.68052,43.33032],[-2.68047,43.33023],[-2.68045,43.33017],[-2.68041,43.33011],[-2.68038,43.33007],[-2.68019,43.32991],[-2.68016,43.32989],[-2.68015,43.32987]]}},{"type":"Feature","properties":{"id":305707445,"highway":"service"},"geometry":{"type":"LineString","coordinates":[[-2.68551,43.32652],[-2.68558,43.32653],[-2.68566,43.32655],[-2.68574,43.32658],[-2.68647,43.32686]]}},{"type":"Feature","properties":{"id":305707446,"highway":"service"},"geometry":{"type":"LineString","coordinates":[[-2.70198,43.33017],[-2.70198,43.33021],[-2.70195,43.33027],[-2.70181,43.33038],[-2.70162,43.33054]]}},{"type":"Feature","properties":{"id":305707448,"highway":"unclassified"},"geometry":{"type":"LineString","coordinates":[[-2.69787,43.33296],[-2.69796,43.33298],[-2.69825,43.33307],[-2.69847,43.33313],[-2.69876,43.33318],[-2.69901,43.33322],[-2.6992,43.33324],[-2.69947,43.33325],[-2.69961,43.33327],[-2.69987,43.33336],[-2.70012,43.33344]]}},{"type":"Feature","properties":{"id":305707449,"highway":"service"},"geometry":{"type":"LineString","coordinates":[[-2.70474,43.32982],[-2.70479,43.3298],[-2.70487,43.32977],[-2.70494,43.32972],[-2.70498,43.32969],[-2.70505,43.32962]]}},{"type":"Feature","properties":{"id":305707450,"highway":"service"},"geometry":{"type":"LineString","coordinates":[[-2.68558,43.32636],[-2.68555,43.32632],[-2.68551,43.32628],[-2.68545,43.32624],[-2.68543,43.32621],[-2.68542,43.32618]]}},{"type":"Feature","properties":{"id":305707451,"highway":"unclassified"},"geometry":{"type":"LineString","coordinates":[[-2.68331,43.33165],[-2.68343,43.33163],[-2.68352,43.33161],[-2.68365,43.33157],[-2.68383,43.33151],[-2.6841,43.33138]]}},{"type":"Feature","properties":{"id":305707452,"highway":"service"},"geometry":{"type":"LineString","coordinates":[[-2.70474,43.32982],[-2.70482,43.32982],[-2.70488,43.32981],[-2.70501,43.32978],[-2.70506,43.32977],[-2.7051,43.32977],[-2.70531,43.32975]]}},{"type":"Feature","properties":{"id":305707454,"highway":"service"},"geometry":{"type":"LineString","coordinates":[[-2.67812,43.33226],[-2.67809,43.33226],[-2.67804,43.33227],[-2.678,43.33229],[-2.67798,43.33231],[-2.67796,43.33232],[-2.67794,43.33235],[-2.67791,43.33246]]}},{"type":"Feature","properties":{"id":305707456,"highway":"service"},"geometry":{"type":"LineString","coordinates":[[-2.67964,43.32419],[-2.67972,43.32423],[-2.68147,43.32479],[-2.68153,43.32481],[-2.68157,43.32481],[-2.6816,43.32479],[-2.68161,43.3247],[-2.68162,43.32459],[-2.68129,43.32435],[-2.68122,43.32425],[-2.68135,43.32416]]}},{"type":"Feature","properties":{"id":305707458,"highway":"service"},"geometry":{"type":"LineString","coordinates":[[-2.68322,43.32999],[-2.6831,43.33007],[-2.68295,43.33016],[-2.68278,43.33025],[-2.68271,43.33029],[-2.68266,43.3303],[-2.68259,43.33032],[-2.68253,43.33032],[-2.68243,43.33032]]}},{"type":"Feature","properties":{"id":308125505,"highway":"service"},"geometry":{"type":"LineString","coordinates":[[-2.69578,43.32426],[-2.69571,43.32441],[-2.6957,43.32447],[-2.69577,43.32459],[-2.69578,43.3247],[-2.6958,43.32477],[-2.69599,43.32475],[-2.69617,43.32473],[-2.69635,43.32468],[-2.69657,43.32457]]}},{"type":"Feature","properties":{"id":308411082,"highway":"tertiary","nombre":"Carlos Gangoiti kalea","izena_eu":"Carlos Gangoiti kalea","nombre_es":"Calle Carlos Gangoiti","ref":"BI-3215","superficie":"asphalt"},"geometry":{"type":"LineString","coordinates":[[-2.6774,43.32864],[-2.67754,43.32754],[-2.67764,43.32687],[-2.6777,43.32642]]}},{"type":"Feature","properties":{"id":308411084,"highway":"tertiary","nombre":"Carlos Gangoiti kalea","izena_eu":"Carlos Gangoiti kalea","nombre_es":"Calle Carlos Gangoiti","ref":"BI-3215","superficie":"asphalt"},"geometry":{"type":"LineString","coordinates":[[-2.67801,43.32413],[-2.67804,43.32391],[-2.67805,43.32389]]}},{"type":"Feature","properties":{"id":317383296,"highway":"service"},"geometry":{"type":"LineString","coordinates":[[-2.68418,43.32318],[-2.68432,43.32321],[-2.68443,43.32321],[-2.68452,43.32314]]}},{"type":"Feature","properties":{"id":338342163,"highway":"service"},"geometry":{"type":"LineString","coordinates":[[-2.67927,43.34514],[-2.67919,43.34513],[-2.67904,43.34517],[-2.67883,43.34524]]}},{"type":"Feature","properties":{"id":338342164,"highway":"service"},"geometry":{"type":"LineString","coordinates":[[-2.67883,43.34524],[-2.67871,43.34533],[-2.67855,43.34551],[-2.67836,43.34565],[-2.67816,43.34578],[-2.67795,43.34591],[-2.67775,43.34604],[-2.67761,43.34613],[-2.67732,43.34632]]}},{"type":"Feature","properties":{"id":338342165,"highway":"service"},"geometry":{"type":"LineString","coordinates":[[-2.67883,43.34524],[-2.67877,43.34524],[-2.6787,43.34521],[-2.67859,43.34512],[-2.67843,43.34498],[-2.67832,43.34489],[-2.67826,43.34485],[-2.67799,43.34472],[-2.67791,43.3447],[-2.67777,43.34465],[-2.67761,43.34462],[-2.67744,43.34458]]}},{"type":"Feature","properties":{"id":338342166,"highway":"service"},"geometry":{"type":"LineString","coordinates":[[-2.67485,43.33624],[-2.67471,43.33645],[-2.67463,43.33661],[-2.67457,43.33678],[-2.67451,43.33695],[-2.67443,43.33704],[-2.67437,43.33716],[-2.67435,43.33726],[-2.67434,43.33741]]}},{"type":"Feature","properties":{"id":338342167,"highway":"service"},"geometry":{"type":"LineString","coordinates":[[-2.67434,43.33741],[-2.6744,43.33744],[-2.67468,43.33747],[-2.67485,43.33751]]}},{"type":"Feature","properties":{"id":338342168,"highway":"service"},"geometry":{"type":"LineString","coordinates":[[-2.67434,43.33741],[-2.67431,43.33753],[-2.67428,43.33774],[-2.67425,43.33784],[-2.67418,43.33805],[-2.67404,43.33821],[-2.67392,43.33834],[-2.6739,43.33836],[-2.67374,43.33849],[-2.67352,43.33864],[-2.6734,43.33874],[-2.67335,43.3388],[-2.67331,43.33887],[-2.67318,43.339],[-2.67305,43.33915],[-2.67295,43.33927],[-2.67289,43.33936],[-2.67287,43.33946],[-2.67287,43.33959],[-2.67287,43.33968],[-2.67289,43.33992],[-2.67289,43.34011],[-2.67286,43.34034],[-2.67284,43.34055],[-2.67279,43.3407],[-2.67271,43.3408],[-2.67266,43.34084],[-2.67278,43.34091],[-2.67292,43.34102],[-2.67297,43.34111],[-2.67302,43.34126],[-2.67312,43.34138],[-2.67316,43.34153],[-2.67315,43.34164],[-2.6731,43.34173]]}},{"type":"Feature","properties":{"id":338342169,"highway":"track"},"geometry":{"type":"LineString","coordinates":[[-2.6731,43.34173],[-2.67304,43.34181],[-2.67294,43.34184],[-2.67291,43.34187],[-2.67287,43.34207],[-2.6729,43.3421],[-2.673,43.34227],[-2.67306,43.34247],[-2.67312,43.34259],[-2.6732,43.34264],[-2.67344,43.34269],[-2.67364,43.34273],[-2.67377,43.34275],[-2.67389,43.3428],[-2.67403,43.3429],[-2.67419,43.34301],[-2.67433,43.34311],[-2.67447,43.34319],[-2.67462,43.34324],[-2.67471,43.34331],[-2.67471,43.34339],[-2.67467,43.34358],[-2.67463,43.3437],[-2.6746,43.34383],[-2.67462,43.34396],[-2.67473,43.34407],[-2.67487,43.34419],[-2.67507,43.34427],[-2.6753,43.34436],[-2.67556,43.34443],[-2.6758,43.34444],[-2.67613,43.34441],[-2.67638,43.34439],[-2.67649,43.34437],[-2.67664,43.34435],[-2.67682,43.3444],[-2.67709,43.34448],[-2.67734,43.34457],[-2.67744,43.34458]]}},{"type":"Feature","properties":{"id":338342170,"highway":"service"},"geometry":{"type":"LineString","coordinates":[[-2.67266,43.34084],[-2.67253,43.34088],[-2.67243,43.34094],[-2.67235,43.34099],[-2.67228,43.34101],[-2.67218,43.34104],[-2.67213,43.3411],[-2.67209,43.34132],[-2.67199,43.3414],[-2.67158,43.34159],[-2.67125,43.34174],[-2.67109,43.34181],[-2.67104,43.34189],[-2.67102,43.34199],[-2.67101,43.34223],[-2.67091,43.34233],[-2.67075,43.34239],[-2.67052,43.34249],[-2.67023,43.34256],[-2.67011,43.34261],[-2.67004,43.34271],[-2.67,43.34283],[-2.66993,43.34292],[-2.66984,43.34298],[-2.66975,43.34311],[-2.66969,43.34318],[-2.66953,43.34328],[-2.66946,43.34332],[-2.66936,43.34337],[-2.66922,43.34348],[-2.66916,43.34363],[-2.66915,43.34381],[-2.66918,43.34396],[-2.66922,43.34414],[-2.66923,43.34438]]}},{"type":"Feature","properties":{"id":338927714,"highway":"service","superficie":"asphalt"},"geometry":{"type":"LineString","coordinates":[[-2.67808,43.32557],[-2.67811,43.32557]]}},{"type":"Feature","properties":{"id":343485658,"highway":"unclassified","nombre":"Atxondoa auzoa"},"geometry":{"type":"LineString","coordinates":[[-2.68238,43.34652],[-2.68229,43.34648],[-2.68206,43.34642],[-2.6819,43.34642],[-2.68162,43.3464],[-2.68135,43.34638],[-2.6811,43.34636],[-2.68099,43.34637],[-2.68087,43.34637],[-2.68073,43.34632],[-2.68053,43.34623],[-2.6805,43.34622],[-2.68035,43.34616],[-2.68021,43.34611],[-2.67994,43.34609],[-2.67975,43.3461]]}},{"type":"Feature","properties":{"id":343485659,"highway":"unclassified","nombre":"Atxondoa auzoa"},"geometry":{"type":"LineString","coordinates":[[-2.68087,43.34637],[-2.68082,43.34642],[-2.68052,43.34656],[-2.68034,43.34663],[-2.68019,43.3467],[-2.68006,43.34672]]}},{"type":"Feature","properties":{"id":343485660,"highway":"service"},"geometry":{"type":"LineString","coordinates":[[-2.67927,43.34514],[-2.67947,43.3451],[-2.67962,43.3451],[-2.67983,43.34502],[-2.67989,43.34499],[-2.67997,43.34493],[-2.68022,43.34474],[-2.68032,43.34471]]}},{"type":"Feature","properties":{"id":343485661,"highway":"service"},"geometry":{"type":"LineString","coordinates":[[-2.68185,43.34207],[-2.68206,43.34233],[-2.6823,43.34265],[-2.68256,43.34297],[-2.6828,43.34326],[-2.68299,43.34359],[-2.68314,43.3438],[-2.68324,43.34405],[-2.68336,43.34422],[-2.68349,43.34443],[-2.68366,43.34463],[-2.6838,43.34479],[-2.68391,43.3449],[-2.68403,43.34499]]}},{"type":"Feature","properties":{"id":343486597,"highway":"service"},"geometry":{"type":"LineString","coordinates":[[-2.67986,43.33966],[-2.68006,43.33961],[-2.68024,43.33956],[-2.68045,43.33952],[-2.68068,43.33949],[-2.68083,43.3395],[-2.68099,43.33952],[-2.68102,43.33952],[-2.68115,43.33952],[-2.68124,43.33948],[-2.68131,43.33941],[-2.68132,43.33931],[-2.68136,43.33931],[-2.6814,43.33945],[-2.68147,43.3396],[-2.68151,43.3397],[-2.68163,43.33976],[-2.6817,43.33981],[-2.68171,43.33992],[-2.68172,43.34009],[-2.68179,43.34016],[-2.68192,43.34018],[-2.68203,43.34022],[-2.68206,43.34023],[-2.6821,43.34034]]}},{"type":"Feature","properties":{"id":343486598,"highway":"service"},"geometry":{"type":"LineString","coordinates":[[-2.67907,43.33868],[-2.67912,43.33866],[-2.6792,43.33861],[-2.67931,43.33847],[-2.67945,43.33834],[-2.67951,43.33827],[-2.67963,43.3382],[-2.67982,43.33814],[-2.67993,43.3381]]}},{"type":"Feature","properties":{"id":343486599,"highway":"service"},"geometry":{"type":"LineString","coordinates":[[-2.67729,43.33738],[-2.67752,43.33747],[-2.67765,43.33749],[-2.67778,43.3375],[-2.67797,43.33749],[-2.67808,43.33749],[-2.67821,43.33749],[-2.67835,43.33751],[-2.67851,43.33756],[-2.67861,43.33757],[-2.67926,43.33757]]}},{"type":"Feature","properties":{"id":343486600,"highway":"residential","nombre":"Atxondoa auzoa","superficie":"asphalt"},"geometry":{"type":"LineString","coordinates":[[-2.67729,43.33738],[-2.67696,43.33719],[-2.67693,43.33713],[-2.67693,43.33707],[-2.67705,43.33643],[-2.67714,43.33609],[-2.6772,43.33592],[-2.67753,43.33518],[-2.67777,43.33465],[-2.6778,43.3346],[-2.67784,43.33452],[-2.67784,43.33448],[-2.67783,43.33444],[-2.6778,43.33441],[-2.67776,43.33438],[-2.67771,43.33437]]}},{"type":"Feature","properties":{"id":343486601,"highway":"footway"},"geometry":{"type":"LineString","coordinates":[[-2.67696,43.33719],[-2.67645,43.33691],[-2.6763,43.33687]]}},{"type":"Feature","properties":{"id":343486602,"highway":"service","nombre":"Atxondoa auzoa"},"geometry":{"type":"LineString","coordinates":[[-2.67794,43.33427],[-2.67798,43.33436],[-2.67803,43.33447],[-2.67809,43.33456],[-2.67813,43.33462],[-2.67815,43.33475],[-2.67816,43.33487],[-2.6782,43.33498],[-2.67826,43.33508],[-2.67842,43.33528],[-2.67869,43.33561],[-2.67872,43.33569]]}},{"type":"Feature","properties":{"id":343487010,"highway":"residential","nombre":"Elexalde auzoa"},"geometry":{"type":"LineString","coordinates":[[-2.67397,43.33283],[-2.67396,43.33304],[-2.67396,43.33319],[-2.67402,43.33332],[-2.6741,43.33338],[-2.67428,43.33345],[-2.6745,43.33354],[-2.6746,43.33361],[-2.67472,43.33376],[-2.67487,43.33405],[-2.67493,43.33416],[-2.67494,43.33427],[-2.67495,43.33433],[-2.67493,43.33446],[-2.6749,43.33452],[-2.67485,43.33467],[-2.67483,43.33483],[-2.6748,43.33526],[-2.67477,43.33597],[-2.67477,43.33609],[-2.6748,43.3362],[-2.67485,43.33624]]}},{"type":"Feature","properties":{"id":343494564,"highway":"track"},"geometry":{"type":"LineString","coordinates":[[-2.67423,43.332],[-2.67404,43.33213],[-2.67394,43.33225],[-2.6738,43.33235],[-2.6738,43.33236],[-2.67376,43.33238],[-2.67368,43.33242],[-2.67354,43.33245],[-2.67352,43.33245],[-2.67343,43.33245],[-2.67332,43.33243],[-2.67324,43.33242],[-2.6731,43.33242],[-2.67277,43.3325],[-2.67261,43.33254]]}},{"type":"Feature","properties":{"id":343494565,"highway":"footway","superficie":"ground"},"geometry":{"type":"LineString","coordinates":[[-2.67261,43.33254],[-2.6724,43.3327],[-2.67218,43.33285],[-2.672,43.33296],[-2.67187,43.33307],[-2.67179,43.33318],[-2.67172,43.33327],[-2.67163,43.33339],[-2.67157,43.33345],[-2.67151,43.33344],[-2.67138,43.33341],[-2.67132,43.33337],[-2.67122,43.33337],[-2.67112,43.3334],[-2.67095,43.3335],[-2.67083,43.33357],[-2.67069,43.33364],[-2.67053,43.3337],[-2.67036,43.33377],[-2.67029,43.33379],[-2.67024,43.33379],[-2.67018,43.3338],[-2.67005,43.33383],[-2.66988,43.33388],[-2.66983,43.33389]]}},{"type":"Feature","properties":{"id":343494566,"highway":"footway","superficie":"fine_gravel"},"geometry":{"type":"LineString","coordinates":[[-2.66816,43.34746],[-2.66804,43.34716],[-2.66786,43.3468],[-2.66773,43.3465],[-2.66758,43.34613],[-2.66754,43.346],[-2.66744,43.3458],[-2.66726,43.34557],[-2.66714,43.34533],[-2.66704,43.34507],[-2.66695,43.3448],[-2.66684,43.34443],[-2.66672,43.34403],[-2.66661,43.34369],[-2.66653,43.3433],[-2.66651,43.34298],[-2.6665,43.34279],[-2.66646,43.34262],[-2.66644,43.34243],[-2.6664,43.34204],[-2.66638,43.34159],[-2.66638,43.34118],[-2.66639,43.34095],[-2.66647,43.34029],[-2.66651,43.34002],[-2.66656,43.3397],[-2.6666,43.33936],[-2.66664,43.33919],[-2.66669,43.33898],[-2.66674,43.33877],[-2.66686,43.33836],[-2.667,43.33792],[-2.66717,43.33749],[-2.66738,43.337],[-2.66748,43.33679]]}},{"type":"Feature","properties":{"id":343494570,"highway":"footway"},"geometry":{"type":"LineString","coordinates":[[-2.66664,43.33919],[-2.66682,43.33916],[-2.66713,43.33894],[-2.66737,43.33878],[-2.6676,43.33862],[-2.66787,43.33847],[-2.66804,43.33838],[-2.66824,43.33829],[-2.66843,43.33821],[-2.66864,43.33814],[-2.6688,43.33808],[-2.66908,43.33795],[-2.66918,43.3379],[-2.66927,43.33786],[-2.66937,43.33779],[-2.66956,43.33771],[-2.66972,43.33769],[-2.66988,43.33769],[-2.67008,43.3377],[-2.67036,43.33767],[-2.67077,43.33754],[-2.67101,43.33748],[-2.6713,43.33726],[-2.67149,43.33717],[-2.67166,43.33712],[-2.67188,43.33703],[-2.67207,43.33693],[-2.67226,43.33687],[-2.67248,43.33679],[-2.6727,43.33675],[-2.67294,43.33674],[-2.67311,43.33676],[-2.67329,43.33676],[-2.67358,43.33678],[-2.67376,43.33676],[-2.67385,43.33669],[-2.67396,43.33663],[-2.67412,43.33649],[-2.67426,43.3364],[-2.67436,43.33638],[-2.67471,43.33645]]}},{"type":"Feature","properties":{"id":352255729,"highway":"service"},"geometry":{"type":"LineString","coordinates":[[-2.68642,43.33077],[-2.68653,43.33065],[-2.68665,43.33048],[-2.68678,43.33032],[-2.68695,43.33019],[-2.6873,43.33],[-2.68746,43.3299],[-2.68766,43.32981],[-2.68766,43.3297],[-2.68764,43.32954],[-2.6876,43.32946],[-2.6875,43.32936],[-2.68743,43.32926],[-2.68733,43.32916],[-2.68719,43.32908],[-2.68705,43.32898],[-2.68693,43.32888]]}},{"type":"Feature","properties":{"id":352255730,"highway":"service"},"geometry":{"type":"LineString","coordinates":[[-2.68693,43.32888],[-2.6871,43.32877],[-2.68718,43.32866]]}},{"type":"Feature","properties":{"id":352255731,"highway":"track"},"geometry":{"type":"LineString","coordinates":[[-2.68766,43.32981],[-2.68778,43.32977],[-2.68797,43.32971],[-2.68816,43.32965],[-2.68834,43.32959],[-2.68845,43.32951],[-2.68857,43.32939],[-2.68864,43.32929],[-2.68872,43.32915],[-2.68882,43.32905],[-2.68898,43.32888],[-2.68916,43.32868]]}},{"type":"Feature","properties":{"id":352255732,"highway":"track"},"geometry":{"type":"LineString","coordinates":[[-2.68876,43.32723],[-2.68876,43.32715],[-2.6887,43.32708],[-2.68861,43.32704],[-2.68854,43.32696],[-2.68847,43.32686],[-2.68841,43.32681],[-2.68824,43.3267],[-2.68814,43.32659],[-2.68808,43.32653],[-2.68805,43.32646],[-2.68808,43.32636],[-2.68816,43.32622],[-2.68822,43.32614],[-2.68826,43.32607],[-2.68829,43.32595],[-2.68833,43.32585]]}},{"type":"Feature","properties":{"id":352258264,"highway":"footway","nombre":"Bidegorri"},"geometry":{"type":"LineString","coordinates":[[-2.67794,43.32388],[-2.67791,43.32414]]}},{"type":"Feature","properties":{"id":357158598,"highway":"path"},"geometry":{"type":"LineString","coordinates":[[-2.69699,43.32839],[-2.69707,43.32841],[-2.69716,43.32844],[-2.69725,43.32846],[-2.69736,43.32845],[-2.6974,43.3284],[-2.69743,43.32832],[-2.69742,43.32824],[-2.69741,43.32815],[-2.69741,43.32809]]}},{"type":"Feature","properties":{"id":357158604,"highway":"service","puente":"yes"},"geometry":{"type":"LineString","coordinates":[[-2.68718,43.32866],[-2.68723,43.3286]]}},{"type":"Feature","properties":{"id":357158605,"highway":"service"},"geometry":{"type":"LineString","coordinates":[[-2.68723,43.3286],[-2.68732,43.32853],[-2.68741,43.32848]]}},{"type":"Feature","properties":{"id":357158608,"highway":"service","puente":"yes"},"geometry":{"type":"LineString","coordinates":[[-2.68637,43.32918],[-2.68648,43.32919]]}},{"type":"Feature","properties":{"id":357158609,"highway":"service"},"geometry":{"type":"LineString","coordinates":[[-2.68648,43.32919],[-2.68655,43.32919],[-2.68659,43.32918],[-2.68661,43.32916],[-2.68667,43.3291],[-2.68678,43.32901],[-2.68693,43.32888]]}},{"type":"Feature","properties":{"id":357158610,"highway":"service"},"geometry":{"type":"LineString","coordinates":[[-2.67833,43.33043],[-2.67836,43.33048],[-2.67843,43.33059],[-2.67853,43.33069],[-2.67871,43.33085],[-2.67879,43.33094],[-2.67886,43.331],[-2.67905,43.33111],[-2.67923,43.33124]]}},{"type":"Feature","properties":{"id":360479516,"highway":"residential","nombre":"Torre Barri","oneway":"yes"},"geometry":{"type":"LineString","coordinates":[[-2.67565,43.33468],[-2.67563,43.33476],[-2.6756,43.3349],[-2.67559,43.33495],[-2.67554,43.33522],[-2.67548,43.33521],[-2.67528,43.33518],[-2.67529,43.33486],[-2.67527,43.33461]]}},{"type":"Feature","properties":{"id":360479518,"highway":"residential","nombre":"Torre Barri","oneway":"yes"},"geometry":{"type":"LineString","coordinates":[[-2.67554,43.33522],[-2.67583,43.33526],[-2.67587,43.33526],[-2.67594,43.335],[-2.67595,43.33496],[-2.67589,43.33494],[-2.6756,43.3349]]}},{"type":"Feature","properties":{"id":360479520,"highway":"residential","nombre":"Torre Barri"},"geometry":{"type":"LineString","coordinates":[[-2.67614,43.33513],[-2.67616,43.33499],[-2.67595,43.33496]]}},{"type":"Feature","properties":{"id":360479535,"highway":"footway"},"geometry":{"type":"LineString","coordinates":[[-2.67642,43.33535],[-2.67634,43.33535],[-2.67606,43.33531]]}},{"type":"Feature","properties":{"id":360479537,"highway":"footway"},"geometry":{"type":"LineString","coordinates":[[-2.67606,43.33531],[-2.6758,43.3359],[-2.67568,43.33607],[-2.6756,43.3362],[-2.67555,43.33643]]}},{"type":"Feature","properties":{"id":360479538,"highway":"residential"},"geometry":{"type":"LineString","coordinates":[[-2.67606,43.33531],[-2.67589,43.33529],[-2.67587,43.33526]]}},{"type":"Feature","properties":{"id":360479540,"highway":"residential","nombre":"Askatasun bidea","superficie":"asphalt"},"geometry":{"type":"LineString","coordinates":[[-2.67485,43.33624],[-2.67493,43.33628],[-2.67516,43.33634],[-2.67543,43.3364],[-2.67555,43.33643],[-2.67592,43.33652],[-2.67597,43.33653],[-2.67618,43.33658],[-2.67634,43.33661]]}},{"type":"Feature","properties":{"id":360480635,"highway":"residential"},"geometry":{"type":"LineString","coordinates":[[-2.67556,43.33467],[-2.67552,43.33458]]}},{"type":"Feature","properties":{"id":360480636,"highway":"residential","oneway":"yes"},"geometry":{"type":"LineString","coordinates":[[-2.67552,43.33458],[-2.67555,43.33431],[-2.67539,43.3343],[-2.67537,43.33449],[-2.67549,43.33451],[-2.67552,43.33458]]}},{"type":"Feature","properties":{"id":360481759,"highway":"residential","nombre":"Elexalde auzoa","superficie":"asphalt"},"geometry":{"type":"LineString","coordinates":[[-2.67771,43.33437],[-2.67743,43.33436],[-2.67714,43.33432],[-2.67703,43.3343],[-2.67687,43.3343],[-2.6767,43.33429],[-2.67664,43.33429]]}},{"type":"Feature","properties":{"id":360484969,"highway":"service"},"geometry":{"type":"LineString","coordinates":[[-2.67494,43.33427],[-2.67505,43.33427],[-2.67514,43.33427],[-2.67518,43.33416],[-2.67521,43.33408],[-2.67524,43.33402],[-2.67545,43.33386],[-2.67555,43.33376],[-2.67556,43.3336]]}},{"type":"Feature","properties":{"id":360485522,"highway":"service"},"geometry":{"type":"LineString","coordinates":[[-2.67592,43.33652],[-2.67596,43.33623]]}},{"type":"Feature","properties":{"id":360485524,"highway":"service"},"geometry":{"type":"LineString","coordinates":[[-2.67597,43.33653],[-2.67597,43.33654]]}},{"type":"Feature","properties":{"id":360489039,"highway":"residential","nombre":"Ibarra auzoa"},"geometry":{"type":"LineString","coordinates":[[-2.67745,43.3311],[-2.67754,43.33114],[-2.67769,43.3312],[-2.67791,43.33125],[-2.67803,43.33127],[-2.67817,43.3313],[-2.67824,43.33133],[-2.6783,43.33138],[-2.67852,43.33163],[-2.6786,43.33174],[-2.67875,43.33192],[-2.67883,43.33203],[-2.67888,43.33211]]}},{"type":"Feature","properties":{"id":360489041,"highway":"residential","oneway":"yes","superficie":"asphalt"},"geometry":{"type":"LineString","coordinates":[[-2.67698,43.33189],[-2.67705,43.33172],[-2.67709,43.33151],[-2.67712,43.33136],[-2.67717,43.3312],[-2.67723,43.33114],[-2.67726,43.33112]]}},{"type":"Feature","properties":{"id":360489042,"highway":"residential","oneway":"yes","superficie":"asphalt"},"geometry":{"type":"LineString","coordinates":[[-2.67745,43.3311],[-2.67738,43.33104]]}},{"type":"Feature","properties":{"id":360489046,"highway":"residential","oneway":"yes","superficie":"asphalt"},"geometry":{"type":"LineString","coordinates":[[-2.67713,43.33091],[-2.67714,43.33096],[-2.67713,43.33104],[-2.67714,43.33108]]}},{"type":"Feature","properties":{"id":360489351,"highway":"residential","oneway":"yes","superficie":"asphalt"},"geometry":{"type":"LineString","coordinates":[[-2.67738,43.33104],[-2.67729,43.33104],[-2.67723,43.33105],[-2.67717,43.33106],[-2.67714,43.33108]]}},{"type":"Feature","properties":{"id":369540464,"highway":"track"},"geometry":{"type":"LineString","coordinates":[[-2.70531,43.32975],[-2.70547,43.32974],[-2.70564,43.32979],[-2.70577,43.32988],[-2.70595,43.32996],[-2.70611,43.33007],[-2.70628,43.33024],[-2.70635,43.33027],[-2.70641,43.33031],[-2.70647,43.33031],[-2.70657,43.33032],[-2.70684,43.33024],[-2.70716,43.33013],[-2.70736,43.33002],[-2.70758,43.32973],[-2.70774,43.32952],[-2.70792,43.32941],[-2.70809,43.32938],[-2.70857,43.32951],[-2.70897,43.32968],[-2.70923,43.3299],[-2.70938,43.33014],[-2.7096,43.33037],[-2.70973,43.33048],[-2.70961,43.33051],[-2.70935,43.33042],[-2.70917,43.33027],[-2.70901,43.3301],[-2.70892,43.33006],[-2.70888,43.33011],[-2.70896,43.33033],[-2.7091,43.33057],[-2.70934,43.3308],[-2.70951,43.33105],[-2.70959,43.33114],[-2.70973,43.3313]]}},{"type":"Feature","properties":{"id":369868650,"highway":"track"},"geometry":{"type":"LineString","coordinates":[[-2.70513,43.34234],[-2.70502,43.34246],[-2.70491,43.34256],[-2.70478,43.3427],[-2.70466,43.34288],[-2.70459,43.34297],[-2.70449,43.34303],[-2.70438,43.34311],[-2.7043,43.34318],[-2.70426,43.34325],[-2.70424,43.34332],[-2.70424,43.34345],[-2.70423,43.34357],[-2.70424,43.3436]]}},{"type":"Feature","properties":{"id":370541176,"highway":"service"},"geometry":{"type":"LineString","coordinates":[[-2.68656,43.33217],[-2.68654,43.33221],[-2.68643,43.33236],[-2.68634,43.33246],[-2.68635,43.33249],[-2.68639,43.33255],[-2.68648,43.33261],[-2.68669,43.33272],[-2.68681,43.33278],[-2.68698,43.33289],[-2.68731,43.33308],[-2.68768,43.33329],[-2.68782,43.33336],[-2.68793,43.33345],[-2.68837,43.33378],[-2.68852,43.33387],[-2.68872,43.33397],[-2.68899,43.33411],[-2.68921,43.33421],[-2.68947,43.3343],[-2.68979,43.33441],[-2.69034,43.33463],[-2.69062,43.33471]]}},{"type":"Feature","properties":{"id":370541177,"highway":"service"},"geometry":{"type":"LineString","coordinates":[[-2.68352,43.33161],[-2.68369,43.33167],[-2.6839,43.33174]]}},{"type":"Feature","properties":{"id":371323391,"highway":"path","superficie":"wood"},"geometry":{"type":"LineString","coordinates":[[-2.65871,43.34106],[-2.65873,43.34111],[-2.65879,43.34114],[-2.65886,43.34116],[-2.65902,43.34118],[-2.65914,43.34119],[-2.65922,43.3412],[-2.65932,43.34121],[-2.65941,43.34123],[-2.65948,43.34123],[-2.65953,43.34122],[-2.65965,43.3412],[-2.65989,43.34113],[-2.65995,43.34112],[-2.66003,43.34113],[-2.66013,43.34115],[-2.66017,43.34115],[-2.66028,43.34108]]}},{"type":"Feature","properties":{"id":376094941,"highway":"track"},"geometry":{"type":"LineString","coordinates":[[-2.68656,43.33217],[-2.68679,43.33226],[-2.6871,43.33241],[-2.68749,43.33257],[-2.68767,43.33267],[-2.68792,43.33281],[-2.68822,43.33295],[-2.68849,43.33309],[-2.68894,43.33328],[-2.68906,43.3334],[-2.68913,43.33343],[-2.68925,43.33353],[-2.68946,43.3336],[-2.6896,43.33364],[-2.68985,43.33371],[-2.69012,43.33381],[-2.69032,43.33387],[-2.69105,43.33387],[-2.69148,43.33392],[-2.69166,43.33396],[-2.69184,43.33397],[-2.69208,43.33394],[-2.69229,43.33391],[-2.69247,43.33384],[-2.69264,43.33378],[-2.69293,43.33374],[-2.69314,43.33375],[-2.6934,43.33377],[-2.69357,43.33378],[-2.69388,43.33386],[-2.69415,43.33394],[-2.69436,43.33398],[-2.69455,43.33406],[-2.69474,43.33419],[-2.69493,43.3343],[-2.69515,43.33439],[-2.69536,43.33445],[-2.69538,43.3345],[-2.69543,43.33454],[-2.69556,43.33456],[-2.69562,43.33455],[-2.69569,43.33454],[-2.69584,43.33451],[-2.69595,43.33448],[-2.69605,43.33447],[-2.69621,43.33449],[-2.69634,43.33453],[-2.6965,43.33459],[-2.69671,43.33466],[-2.69689,43.33472],[-2.69713,43.33484],[-2.69741,43.33497],[-2.69763,43.33508],[-2.69778,43.33516],[-2.69795,43.33523],[-2.69805,43.33528],[-2.69817,43.33531],[-2.69832,43.33534],[-2.69854,43.33537],[-2.69867,43.33541],[-2.69883,43.33547],[-2.69895,43.33556],[-2.6991,43.33565],[-2.69924,43.3357],[-2.6994,43.33575],[-2.69954,43.33577],[-2.69965,43.3358],[-2.69972,43.33584],[-2.70001,43.33604],[-2.70025,43.33616],[-2.70065,43.33631],[-2.70096,43.33646],[-2.70134,43.33669],[-2.70163,43.33685],[-2.70177,43.33695],[-2.70193,43.33699],[-2.70208,43.33699],[-2.70229,43.33698],[-2.70253,43.33699],[-2.70284,43.33709],[-2.70302,43.33719],[-2.70325,43.33734],[-2.70348,43.33753]]}},{"type":"Feature","properties":{"id":376094946,"highway":"track"},"geometry":{"type":"LineString","coordinates":[[-2.70867,43.33975],[-2.70865,43.33973],[-2.70858,43.3396],[-2.70816,43.33939],[-2.70804,43.33929],[-2.70774,43.33909],[-2.7076,43.339],[-2.7074,43.33894],[-2.70713,43.33883],[-2.70678,43.33869],[-2.70639,43.33856],[-2.70601,43.33848],[-2.70592,43.33848],[-2.7058,43.33851],[-2.70568,43.33853],[-2.70525,43.33859],[-2.70508,43.33854],[-2.70497,43.33845],[-2.70487,43.33831],[-2.70491,43.3382],[-2.70507,43.33805],[-2.70504,43.33796],[-2.70492,43.33789],[-2.70456,43.33787],[-2.70435,43.3379],[-2.70412,43.33794],[-2.70401,43.33792],[-2.70383,43.33784],[-2.70368,43.33778],[-2.70357,43.33772],[-2.70348,43.33753]]}},{"type":"Feature","properties":{"id":385817745,"highway":"service"},"geometry":{"type":"LineString","coordinates":[[-2.67764,43.32687],[-2.67771,43.32689],[-2.6778,43.32693],[-2.67788,43.32701],[-2.67785,43.32705],[-2.67782,43.32721],[-2.67782,43.32727],[-2.67785,43.32732],[-2.67801,43.32734]]}},{"type":"Feature","properties":{"id":385817746,"highway":"service"},"geometry":{"type":"LineString","coordinates":[[-2.67788,43.32701],[-2.67793,43.32704],[-2.67802,43.32706]]}},{"type":"Feature","properties":{"id":385818016,"highway":"service"},"geometry":{"type":"LineString","coordinates":[[-2.67811,43.32557],[-2.67824,43.32559],[-2.67869,43.32567],[-2.67878,43.3257],[-2.67887,43.32577],[-2.67893,43.32583]]}},{"type":"Feature","properties":{"id":385818018,"highway":"service","puente":"yes"},"geometry":{"type":"LineString","coordinates":[[-2.6782,43.32393],[-2.67823,43.3239]]}},{"type":"Feature","properties":{"id":409801125,"highway":"service"},"geometry":{"type":"LineString","coordinates":[[-2.70012,43.33344],[-2.70027,43.33341],[-2.70092,43.33335],[-2.7015,43.33331],[-2.70169,43.33329],[-2.70179,43.3333],[-2.70187,43.33335],[-2.70193,43.33341],[-2.70205,43.33359],[-2.70214,43.33365],[-2.70222,43.33367],[-2.70228,43.33368],[-2.70232,43.33367],[-2.70236,43.33363],[-2.70236,43.33358],[-2.70223,43.33344],[-2.70217,43.33336],[-2.7021,43.33318],[-2.70207,43.33311],[-2.70203,43.33306],[-2.70195,43.33303],[-2.70141,43.3329],[-2.70134,43.33287],[-2.70128,43.33283],[-2.70125,43.33279],[-2.70119,43.33265],[-2.70113,43.33246],[-2.70109,43.33216],[-2.70106,43.33192],[-2.70104,43.33152],[-2.70107,43.33122],[-2.70112,43.33102],[-2.70112,43.33092],[-2.70107,43.33079],[-2.70105,43.33071],[-2.70105,43.33064],[-2.70108,43.33059],[-2.70114,43.33051],[-2.70122,43.33045],[-2.70135,43.33037],[-2.70148,43.33032],[-2.70158,43.33028],[-2.70185,43.3302],[-2.70185,43.3302],[-2.70198,43.33017]]}},{"type":"Feature","properties":{"id":410309667,"highway":"path"},"geometry":{"type":"LineString","coordinates":[[-2.66646,43.34262],[-2.66661,43.34261],[-2.66674,43.34263],[-2.66683,43.34263],[-2.66694,43.34265],[-2.66702,43.34265],[-2.66717,43.34263],[-2.66737,43.34265],[-2.66754,43.34267],[-2.66767,43.34269],[-2.6678,43.34268],[-2.66785,43.3427],[-2.66788,43.34272],[-2.66794,43.34278],[-2.66797,43.34289],[-2.66793,43.34304],[-2.66784,43.34326],[-2.66784,43.34342],[-2.66786,43.34358],[-2.66781,43.34376],[-2.66775,43.34391],[-2.66774,43.34399],[-2.66787,43.34405]]}},{"type":"Feature","properties":{"id":410309668,"highway":"track"},"geometry":{"type":"LineString","coordinates":[[-2.66787,43.34405],[-2.66791,43.34403],[-2.66796,43.34401],[-2.66807,43.34393],[-2.6682,43.34382],[-2.66845,43.34361],[-2.66858,43.3435],[-2.66866,43.34344],[-2.66875,43.34339],[-2.6689,43.34338],[-2.66902,43.34336],[-2.66914,43.34335],[-2.66925,43.34334],[-2.66938,43.34333],[-2.66946,43.34332]]}},{"type":"Feature","properties":{"id":488056418,"highway":"unclassified","superficie":"asphalt"},"geometry":{"type":"LineString","coordinates":[[-2.67804,43.32391],[-2.6782,43.32393],[-2.67857,43.324],[-2.67919,43.32409],[-2.67956,43.32413],[-2.67963,43.32415]]}},{"type":"Feature","properties":{"id":488056941,"highway":"service"},"geometry":{"type":"LineString","coordinates":[[-2.70877,43.33954],[-2.70876,43.33958],[-2.70873,43.33966],[-2.70871,43.3397],[-2.7087,43.33972],[-2.70867,43.33975]]}},{"type":"Feature","properties":{"id":488056942,"highway":"service"},"geometry":{"type":"LineString","coordinates":[[-2.68573,43.33153],[-2.68583,43.33164],[-2.6859,43.33168],[-2.68603,43.33171],[-2.68615,43.33176],[-2.68625,43.33186],[-2.68645,43.33208],[-2.68656,43.33217]]}},{"type":"Feature","properties":{"id":491170721,"highway":"service"},"geometry":{"type":"LineString","coordinates":[[-2.67832,43.34489],[-2.67828,43.3448],[-2.67825,43.34465],[-2.67823,43.34447],[-2.67812,43.34423],[-2.67806,43.34402],[-2.67798,43.34373],[-2.67795,43.34357],[-2.67793,43.34344],[-2.6779,43.34334],[-2.67784,43.34326],[-2.67779,43.34318],[-2.67772,43.34314],[-2.67758,43.34305],[-2.67748,43.34298],[-2.67739,43.34291],[-2.67731,43.34282],[-2.67709,43.34257],[-2.67707,43.3425],[-2.67708,43.34244],[-2.67712,43.34241],[-2.67717,43.34238]]}},{"type":"Feature","properties":{"id":491170735,"highway":"service"},"geometry":{"type":"LineString","coordinates":[[-2.67788,43.34174],[-2.67795,43.3417],[-2.67797,43.34165],[-2.67796,43.34155],[-2.67797,43.3415],[-2.67829,43.34093],[-2.67832,43.34085],[-2.67835,43.34078],[-2.67837,43.34071],[-2.67841,43.34053],[-2.67847,43.34027],[-2.67852,43.34019],[-2.67856,43.34013],[-2.67857,43.34007],[-2.67857,43.33999]]}},{"type":"Feature","properties":{"id":524525198,"highway":"path"},"geometry":{"type":"LineString","coordinates":[[-2.69632,43.34135],[-2.69619,43.34145],[-2.69607,43.34156],[-2.69582,43.34158],[-2.69555,43.34155],[-2.69536,43.34166],[-2.69516,43.34183],[-2.69502,43.34191],[-2.69481,43.34201],[-2.69464,43.34215],[-2.69439,43.34223],[-2.69408,43.34227],[-2.69389,43.34227],[-2.69369,43.3424],[-2.6936,43.34253],[-2.69342,43.34266],[-2.69321,43.34266],[-2.69289,43.34278],[-2.69264,43.34285],[-2.69239,43.34297],[-2.6921,43.34302],[-2.69181,43.34313],[-2.6916,43.34322],[-2.69132,43.34327],[-2.69117,43.34331],[-2.69102,43.34339],[-2.69101,43.34348],[-2.69113,43.34361],[-2.6912,43.34372],[-2.69127,43.3438],[-2.69138,43.34388],[-2.69148,43.34405],[-2.69152,43.34419],[-2.69161,43.34431],[-2.69165,43.34441],[-2.69168,43.3445],[-2.69165,43.34459]]}},{"type":"Feature","properties":{"id":524525199,"highway":"service"},"geometry":{"type":"LineString","coordinates":[[-2.68634,43.33246],[-2.68623,43.33248],[-2.68593,43.33246],[-2.68569,43.33246],[-2.68544,43.33249],[-2.68529,43.33256],[-2.68526,43.33261],[-2.68528,43.33267],[-2.68534,43.33271],[-2.68549,43.33273],[-2.68574,43.33277],[-2.68597,43.33285],[-2.68617,43.333],[-2.68634,43.33317],[-2.68651,43.33341],[-2.68668,43.33357],[-2.68707,43.3339],[-2.68742,43.33426],[-2.68783,43.33468],[-2.68842,43.33518],[-2.68913,43.3359],[-2.68974,43.33644],[-2.69007,43.33672]]}},{"type":"Feature","properties":{"id":524525200,"highway":"track"},"geometry":{"type":"LineString","coordinates":[[-2.70481,43.34209],[-2.70472,43.34202],[-2.7046,43.34209],[-2.70446,43.34211],[-2.70417,43.34216],[-2.70387,43.34222],[-2.70348,43.34226],[-2.70293,43.34235],[-2.70265,43.34239],[-2.70254,43.3424],[-2.7025,43.3424],[-2.70248,43.34241]]}},{"type":"Feature","properties":{"id":524525201,"highway":"service"},"geometry":{"type":"LineString","coordinates":[[-2.70525,43.34245],[-2.70519,43.3424],[-2.70513,43.34234],[-2.70481,43.34209]]}},{"type":"Feature","properties":{"id":524525202,"highway":"track"},"geometry":{"type":"LineString","coordinates":[[-2.69007,43.33672],[-2.6904,43.337],[-2.69071,43.33728],[-2.69086,43.3375],[-2.6912,43.3379],[-2.69138,43.33818],[-2.69171,43.33862],[-2.69186,43.33884],[-2.69203,43.339],[-2.69228,43.33912],[-2.69249,43.3391],[-2.69272,43.33905],[-2.69306,43.33889],[-2.69338,43.33881],[-2.69371,43.33879],[-2.69402,43.33878],[-2.69432,43.33872],[-2.69463,43.33861],[-2.69488,43.33852],[-2.69501,43.33841],[-2.69509,43.33826],[-2.69514,43.33808],[-2.6952,43.338],[-2.69526,43.33797],[-2.69528,43.33797],[-2.69537,43.33797],[-2.69547,43.33799],[-2.69553,43.33805],[-2.69555,43.33815],[-2.69551,43.33828],[-2.69553,43.33836],[-2.69554,43.33846],[-2.6956,43.3386],[-2.69571,43.33881],[-2.69576,43.33915],[-2.69586,43.33941],[-2.69597,43.33956],[-2.69612,43.33968],[-2.69637,43.33985],[-2.69655,43.33993],[-2.6966,43.34],[-2.69665,43.34013],[-2.69667,43.34035],[-2.69663,43.34062],[-2.6965,43.34088],[-2.69642,43.34104],[-2.69635,43.34121],[-2.69632,43.34132],[-2.69632,43.34135]]}},{"type":"Feature","properties":{"id":559176400,"highway":"path"},"geometry":{"type":"LineString","coordinates":[[-2.69122,43.32323],[-2.6909,43.32343],[-2.69053,43.32358],[-2.69002,43.32374],[-2.68956,43.32377],[-2.68908,43.32381],[-2.68895,43.32379],[-2.68886,43.32375],[-2.68884,43.32371],[-2.68879,43.3237],[-2.68875,43.32372],[-2.68871,43.32378],[-2.68864,43.32385],[-2.68843,43.32396],[-2.68834,43.32398],[-2.68827,43.32397],[-2.68815,43.32391],[-2.68807,43.32383],[-2.68802,43.32379],[-2.68796,43.32378],[-2.68793,43.32381],[-2.68796,43.32398],[-2.688,43.32415],[-2.68806,43.32424],[-2.68816,43.32433],[-2.68838,43.32444],[-2.68873,43.32454],[-2.68917,43.32464],[-2.68976,43.32472],[-2.6903,43.32486],[-2.69066,43.32491],[-2.69069,43.32501],[-2.69063,43.32508],[-2.69046,43.32524],[-2.69028,43.3254],[-2.69016,43.32547],[-2.69003,43.32549],[-2.6897,43.32551],[-2.68945,43.32556],[-2.68917,43.32562],[-2.68904,43.32563],[-2.68894,43.32562],[-2.68878,43.32558],[-2.68863,43.3256],[-2.68849,43.32566],[-2.68836,43.32576],[-2.68833,43.32585]]}},{"type":"Feature","properties":{"id":559176402,"highway":"path"},"geometry":{"type":"LineString","coordinates":[[-2.68916,43.32868],[-2.68917,43.32864],[-2.6892,43.32858],[-2.68932,43.32848],[-2.68952,43.32843],[-2.6898,43.32842],[-2.68991,43.32845],[-2.68998,43.32848],[-2.69002,43.32852],[-2.69007,43.32851],[-2.69012,43.32845],[-2.69017,43.32834],[-2.69018,43.32824],[-2.69015,43.32805],[-2.69012,43.32799],[-2.69007,43.3279],[-2.68993,43.32781],[-2.6899,43.32777],[-2.68989,43.32768],[-2.68984,43.32759],[-2.68982,43.32748],[-2.68979,43.32741],[-2.68973,43.32737],[-2.68961,43.32737],[-2.68949,43.3274],[-2.6894,43.32745],[-2.68932,43.32748],[-2.6892,43.3275],[-2.68912,43.32748]]}},{"type":"Feature","properties":{"id":559176406,"highway":"track"},"geometry":{"type":"LineString","coordinates":[[-2.70731,43.34117],[-2.70715,43.34127],[-2.70697,43.34139],[-2.70677,43.34148],[-2.7066,43.34153],[-2.70638,43.34157],[-2.70613,43.34165],[-2.70599,43.34172],[-2.70595,43.34175],[-2.70589,43.34179],[-2.70576,43.34195],[-2.70565,43.34206],[-2.70548,43.34216],[-2.70533,43.34223],[-2.70513,43.34234]]}},{"type":"Feature","properties":{"id":559176409,"highway":"path"},"geometry":{"type":"LineString","coordinates":[[-2.70697,43.34139],[-2.70738,43.34126],[-2.7077,43.34111],[-2.70792,43.34093],[-2.70813,43.34072],[-2.70824,43.34058],[-2.70832,43.34038],[-2.70837,43.34019]]}},{"type":"Feature","properties":{"id":582010566,"highway":"path","superficie":"ground"},"geometry":{"type":"MultiLineString","coordinates":[[[-2.70158,43.32663],[-2.70171,43.32661],[-2.70197,43.32657],[-2.70235,43.32657],[-2.70265,43.32658],[-2.70295,43.32668],[-2.70331,43.32681],[-2.70346,43.32685],[-2.70363,43.32684],[-2.70381,43.32678],[-2.70409,43.3268],[-2.70443,43.32687],[-2.7048,43.32696],[-2.70499,43.32702],[-2.70523,43.32714],[-2.70532,43.32719],[-2.70547,43.32723],[-2.7056,43.32729],[-2.70569,43.32733],[-2.70592,43.32735],[-2.70619,43.32738],[-2.7064,43.32748],[-2.70654,43.32757],[-2.70676,43.32763],[-2.70694,43.32761],[-2.70731,43.32763],[-2.70775,43.32768],[-2.7082,43.32777],[-2.70836,43.32779],[-2.70854,43.32782],[-2.70866,43.32783]],[[-2.70946,43.32808],[-2.70954,43.3282],[-2.70982,43.32842],[-2.71004,43.32859],[-2.71015,43.32872],[-2.71024,43.32879],[-2.71028,43.32899],[-2.71038,43.32916],[-2.71045,43.32929],[-2.71053,43.32949],[-2.71062,43.32963],[-2.71071,43.32972],[-2.71076,43.3298],[-2.71081,43.32989],[-2.71084,43.33001],[-2.71086,43.33021],[-2.71091,43.33034],[-2.71096,43.33043]]]}},{"type":"Feature","properties":{"id":615985526,"highway":"service"},"geometry":{"type":"LineString","coordinates":[[-2.68099,43.34637],[-2.68103,43.34623],[-2.68112,43.34606],[-2.68124,43.34599],[-2.68137,43.34597],[-2.68155,43.34598],[-2.68167,43.34598]]}},{"type":"Feature","properties":{"id":615985527,"highway":"service"},"geometry":{"type":"LineString","coordinates":[[-2.6805,43.34622],[-2.68062,43.34607],[-2.68063,43.34602],[-2.68062,43.346],[-2.68048,43.34575]]}},{"type":"Feature","properties":{"id":615985532,"highway":"service"},"geometry":{"type":"LineString","coordinates":[[-2.68132,43.34158],[-2.68152,43.34141],[-2.68187,43.34106],[-2.68198,43.34097],[-2.68213,43.34095],[-2.68219,43.34095],[-2.68222,43.34102]]}},{"type":"Feature","properties":{"id":617350773,"highway":"service"},"geometry":{"type":"LineString","coordinates":[[-2.67986,43.33968],[-2.67978,43.33976],[-2.67968,43.33992],[-2.67952,43.34017]]}},{"type":"Feature","properties":{"id":617350775,"highway":"service"},"geometry":{"type":"LineString","coordinates":[[-2.68006,43.33961],[-2.67999,43.33946]]}},{"type":"Feature","properties":{"id":617350778,"highway":"service"},"geometry":{"type":"LineString","coordinates":[[-2.67874,43.33818],[-2.67842,43.33824],[-2.67842,43.33832]]}},{"type":"Feature","properties":{"id":617593307,"highway":"service"},"geometry":{"type":"LineString","coordinates":[[-2.67425,43.33784],[-2.67402,43.33805],[-2.67396,43.33803],[-2.67398,43.33795]]}},{"type":"Feature","properties":{"id":617593308,"highway":"service"},"geometry":{"type":"LineString","coordinates":[[-2.6739,43.33836],[-2.67359,43.33833]]}},{"type":"Feature","properties":{"id":617593309,"highway":"service"},"geometry":{"type":"LineString","coordinates":[[-2.67335,43.3388],[-2.6737,43.33887]]}},{"type":"Feature","properties":{"id":617593319,"highway":"service"},"geometry":{"type":"LineString","coordinates":[[-2.68059,43.33854],[-2.68054,43.33862],[-2.68054,43.33872],[-2.68046,43.33875],[-2.68036,43.33873],[-2.68029,43.33865],[-2.68011,43.33826],[-2.68002,43.33817],[-2.67993,43.3381]]}},{"type":"Feature","properties":{"id":617593320,"highway":"service"},"geometry":{"type":"LineString","coordinates":[[-2.67993,43.3381],[-2.67983,43.33795],[-2.67978,43.33782],[-2.67974,43.33769],[-2.67967,43.3376],[-2.67962,43.33759],[-2.67944,43.33759],[-2.67926,43.33757]]}},{"type":"Feature","properties":{"id":619511967,"highway":"path"},"geometry":{"type":"LineString","coordinates":[[-2.69102,43.34339],[-2.69066,43.34327],[-2.69049,43.34303],[-2.68944,43.34327],[-2.6892,43.34349],[-2.68865,43.34347],[-2.68714,43.3437],[-2.68702,43.34402],[-2.68689,43.34439],[-2.68613,43.34455],[-2.68591,43.34446],[-2.68574,43.34437],[-2.68552,43.34422],[-2.68513,43.34386],[-2.68467,43.34304],[-2.68459,43.34283],[-2.68465,43.34272]]}},{"type":"Feature","properties":{"id":619511968,"highway":"track"},"geometry":{"type":"LineString","coordinates":[[-2.69824,43.3425],[-2.69829,43.34279],[-2.69823,43.34296],[-2.69797,43.34298],[-2.6978,43.34293],[-2.69757,43.34274],[-2.69681,43.34266],[-2.69686,43.34285],[-2.69701,43.34297],[-2.69719,43.34338],[-2.69742,43.3437],[-2.69762,43.34414],[-2.69723,43.34437],[-2.69705,43.34467],[-2.69684,43.34514],[-2.69693,43.34581],[-2.69708,43.34637],[-2.69732,43.3465],[-2.69738,43.34698],[-2.69763,43.34734]]}},{"type":"Feature","properties":{"id":619511969,"highway":"track"},"geometry":{"type":"LineString","coordinates":[[-2.69835,43.34251],[-2.69824,43.3425],[-2.69777,43.34222],[-2.69734,43.34214],[-2.69674,43.34178],[-2.69639,43.34158],[-2.69632,43.34135]]}},{"type":"Feature","properties":{"id":619511970,"highway":"path"},"geometry":{"type":"LineString","coordinates":[[-2.70146,43.34584],[-2.70144,43.34583],[-2.70138,43.34541],[-2.70125,43.34499],[-2.70058,43.34471],[-2.70017,43.34454],[-2.69983,43.34436],[-2.69933,43.34403],[-2.69918,43.34349],[-2.69885,43.34315],[-2.69835,43.34251],[-2.6987,43.34266],[-2.69895,43.34276],[-2.69913,43.34282],[-2.69936,43.3429],[-2.69968,43.34314],[-2.69982,43.34329],[-2.69998,43.34342],[-2.70014,43.3435],[-2.70035,43.34355],[-2.70064,43.34357],[-2.70077,43.34354],[-2.70089,43.3435],[-2.70144,43.34315],[-2.70146,43.3431],[-2.70139,43.34303],[-2.70136,43.34296],[-2.70137,43.34289],[-2.70148,43.34267],[-2.70191,43.34253]]}},{"type":"Feature","properties":{"id":619522422,"highway":"track"},"geometry":{"type":"LineString","coordinates":[[-2.68291,43.33176],[-2.68324,43.33183],[-2.68332,43.33191],[-2.68305,43.33233],[-2.68294,43.33256],[-2.683,43.33266],[-2.6831,43.33269],[-2.68339,43.3327],[-2.68345,43.33277],[-2.68341,43.33286],[-2.68302,43.33306],[-2.68294,43.33324],[-2.68295,43.33349],[-2.68308,43.33372],[-2.68308,43.33395],[-2.68295,43.33442],[-2.68286,43.33474],[-2.68254,43.33521]]}},{"type":"Feature","properties":{"id":619587504,"highway":"track"},"geometry":{"type":"LineString","coordinates":[[-2.70547,43.32974],[-2.70576,43.32974],[-2.70626,43.32991],[-2.70652,43.32989],[-2.70679,43.32973],[-2.70699,43.32944],[-2.70746,43.3293],[-2.70816,43.32903],[-2.70865,43.32892],[-2.70876,43.32878],[-2.70886,43.32877],[-2.70934,43.32886],[-2.70954,43.32896],[-2.70969,43.32917],[-2.70976,43.32922],[-2.70997,43.32926],[-2.71003,43.32929],[-2.71015,43.3295],[-2.71031,43.32968],[-2.71064,43.32999],[-2.71086,43.33021]]}},{"type":"Feature","properties":{"id":619587505,"highway":"track"},"geometry":{"type":"LineString","coordinates":[[-2.71053,43.32949],[-2.71067,43.32952],[-2.71073,43.32947]]}},{"type":"Feature","properties":{"id":623038194,"highway":"service"},"geometry":{"type":"LineString","coordinates":[[-2.67266,43.34084],[-2.67249,43.34084],[-2.67235,43.3408],[-2.67223,43.34075],[-2.67219,43.34068],[-2.67215,43.34054],[-2.67212,43.34037],[-2.67209,43.34032],[-2.67198,43.3403],[-2.67178,43.34026],[-2.67165,43.34024],[-2.67156,43.34022]]}},{"type":"Feature","properties":{"id":623040383,"highway":"track"},"geometry":{"type":"LineString","coordinates":[[-2.67744,43.34458],[-2.67741,43.3445],[-2.6774,43.34438],[-2.67739,43.34425],[-2.6774,43.3442],[-2.67741,43.34418],[-2.67747,43.34414],[-2.67753,43.34415],[-2.67756,43.34426]]}},{"type":"Feature","properties":{"id":623207747,"highway":"track"},"geometry":{"type":"LineString","coordinates":[[-2.70472,43.34202],[-2.70446,43.3418],[-2.70437,43.34167],[-2.70429,43.34143],[-2.70422,43.34107],[-2.70416,43.34092],[-2.70415,43.34087],[-2.70417,43.34079],[-2.70433,43.34065],[-2.70459,43.34053],[-2.70488,43.34044],[-2.70511,43.34039]]}},{"type":"Feature","properties":{"id":623207748,"highway":"track"},"geometry":{"type":"LineString","coordinates":[[-2.70871,43.3397],[-2.70879,43.3397]]}},{"type":"Feature","properties":{"id":623207749,"highway":"track"},"geometry":{"type":"LineString","coordinates":[[-2.70595,43.34175],[-2.70596,43.34163],[-2.70595,43.34125],[-2.7059,43.34108],[-2.70574,43.3409],[-2.70554,43.3407],[-2.70537,43.34057],[-2.70518,43.34046],[-2.70511,43.34039],[-2.70507,43.34034],[-2.7051,43.34027],[-2.70531,43.34028],[-2.70556,43.34029],[-2.70584,43.34024],[-2.70604,43.34022],[-2.70625,43.34018],[-2.7064,43.34],[-2.70642,43.33979],[-2.70653,43.33967],[-2.70716,43.33965],[-2.70753,43.33975],[-2.70777,43.33976],[-2.70837,43.33975],[-2.70865,43.33973]]}},{"type":"Feature","properties":{"id":625635887,"highway":"track"},"geometry":{"type":"LineString","coordinates":[[-2.6912,43.3379],[-2.69152,43.33788],[-2.6918,43.33775],[-2.69202,43.33765],[-2.69212,43.33763],[-2.69247,43.33764],[-2.69253,43.33758],[-2.69249,43.33748],[-2.69226,43.33712],[-2.69212,43.33674],[-2.69211,43.33669],[-2.69197,43.33656],[-2.69185,43.33629],[-2.69179,43.33625],[-2.69153,43.33605],[-2.69146,43.33592],[-2.69151,43.33573],[-2.69169,43.33525],[-2.69182,43.33512],[-2.69205,43.33497],[-2.69228,43.33492],[-2.69271,43.33496],[-2.69282,43.33489],[-2.69281,43.33473],[-2.69291,43.33464],[-2.69312,43.33453],[-2.69316,43.33443],[-2.6931,43.33415],[-2.69314,43.33375]]}},{"type":"Feature","properties":{"id":625635888,"highway":"track"},"geometry":{"type":"MultiLineString","coordinates":[[[-2.70375,43.3447],[-2.70373,43.34467],[-2.70372,43.34456],[-2.70367,43.34444]],[[-2.70361,43.34432],[-2.70356,43.34419],[-2.70317,43.34367],[-2.70289,43.34343],[-2.70245,43.34309],[-2.70214,43.34282],[-2.70192,43.34261],[-2.70191,43.34253],[-2.70201,43.34249],[-2.70205,43.34247],[-2.7023,43.34242],[-2.70248,43.34241]]]}},{"type":"Feature","properties":{"id":631363693,"highway":"cycleway","oneway":"no"},"geometry":{"type":"LineString","coordinates":[[-2.67791,43.32414],[-2.67789,43.3243],[-2.67786,43.32455],[-2.67782,43.32482],[-2.67781,43.32491],[-2.67778,43.32508],[-2.67775,43.32536],[-2.6777,43.32568],[-2.67765,43.326],[-2.67761,43.32637],[-2.67757,43.32664],[-2.67752,43.32704],[-2.67748,43.32734],[-2.67742,43.3278],[-2.67738,43.32806],[-2.67732,43.3284],[-2.67729,43.32866],[-2.67724,43.32908],[-2.67721,43.3293],[-2.67716,43.32972],[-2.67714,43.32993],[-2.67708,43.33039],[-2.67701,43.33092],[-2.67698,43.33115],[-2.67691,43.33164],[-2.67689,43.33182],[-2.67693,43.33185],[-2.67691,43.33196]]}},{"type":"Feature","properties":{"id":631677234,"highway":"service"},"geometry":{"type":"LineString","coordinates":[[-2.677,43.33958],[-2.67713,43.33958],[-2.67718,43.33964],[-2.67729,43.33985],[-2.6774,43.33996],[-2.67749,43.34001],[-2.67766,43.34001],[-2.67774,43.33996]]}},{"type":"Feature","properties":{"id":632461263,"highway":"track"},"geometry":{"type":"LineString","coordinates":[[-2.68022,43.34474],[-2.67997,43.34434],[-2.68011,43.34412],[-2.68003,43.34396]]}},{"type":"Feature","properties":{"id":632461265,"highway":"track"},"geometry":{"type":"LineString","coordinates":[[-2.67989,43.34499],[-2.67976,43.34489],[-2.67952,43.3448],[-2.67939,43.34478],[-2.67915,43.34487]]}},{"type":"Feature","properties":{"id":632541723,"highway":"service"},"geometry":{"type":"LineString","coordinates":[[-2.67741,43.33745],[-2.67745,43.3376],[-2.67758,43.33796],[-2.67777,43.33856]]}},{"type":"Feature","properties":{"id":632541724,"highway":"track"},"geometry":{"type":"LineString","coordinates":[[-2.68108,43.34138],[-2.68113,43.3413],[-2.68114,43.34121],[-2.68113,43.34109],[-2.68111,43.34084],[-2.68109,43.34066],[-2.6811,43.34058],[-2.68113,43.34053],[-2.68119,43.34051],[-2.68126,43.34052],[-2.68132,43.34057],[-2.68138,43.34067],[-2.68148,43.34082]]}},{"type":"Feature","properties":{"id":632648195,"highway":"service"},"geometry":{"type":"LineString","coordinates":[[-2.67711,43.33441],[-2.67705,43.33445],[-2.67701,43.33447],[-2.67683,43.33446]]}},{"type":"Feature","properties":{"id":632648196,"highway":"service"},"geometry":{"type":"LineString","coordinates":[[-2.67714,43.33432],[-2.67711,43.33441],[-2.67706,43.33464],[-2.67704,43.3347]]}},{"type":"Feature","properties":{"id":632648197,"highway":"service"},"geometry":{"type":"LineString","coordinates":[[-2.67687,43.3343],[-2.67689,43.33415],[-2.67701,43.33416]]}},{"type":"Feature","properties":{"id":632648210,"highway":"service"},"geometry":{"type":"LineString","coordinates":[[-2.67284,43.34055],[-2.67292,43.34061],[-2.67297,43.34071]]}},{"type":"Feature","properties":{"id":638607862,"highway":"path","superficie":"grass"},"geometry":{"type":"LineString","coordinates":[[-2.6807,43.3279],[-2.68062,43.32788],[-2.68054,43.3279],[-2.68042,43.32797],[-2.68032,43.32807],[-2.68022,43.32818],[-2.68017,43.3282],[-2.68005,43.32821],[-2.67992,43.32819],[-2.6798,43.32814],[-2.67975,43.32812],[-2.67965,43.32813],[-2.67966,43.32808],[-2.67957,43.32802]]}},{"type":"Feature","properties":{"id":647737411,"highway":"service"},"geometry":{"type":"LineString","coordinates":[[-2.70158,43.32663],[-2.70163,43.32659],[-2.70163,43.32658],[-2.70163,43.32658]]}},{"type":"Feature","properties":{"id":647737412,"highway":"footway"},"geometry":{"type":"LineString","coordinates":[[-2.67758,43.33204],[-2.67752,43.33206],[-2.67701,43.33205]]}},{"type":"Feature","properties":{"id":647737414,"highway":"cycleway","oneway":"no"},"geometry":{"type":"LineString","coordinates":[[-2.67691,43.33196],[-2.67691,43.33201],[-2.67686,43.33201]]}},{"type":"Feature","properties":{"id":647737415,"highway":"residential","superficie":"asphalt"},"geometry":{"type":"LineString","coordinates":[[-2.67691,43.33205],[-2.67686,43.33205],[-2.67643,43.33204],[-2.67589,43.33195],[-2.67513,43.33182],[-2.67499,43.3318],[-2.67489,43.33179],[-2.67476,43.33178],[-2.67465,43.33179],[-2.67449,43.33183],[-2.67435,43.3319],[-2.67423,43.332]]}},{"type":"Feature","properties":{"id":647737416,"highway":"cycleway","oneway":"no"},"geometry":{"type":"LineString","coordinates":[[-2.6763,43.33687],[-2.67626,43.3367],[-2.67623,43.33665],[-2.67618,43.33661],[-2.67618,43.33658],[-2.6762,43.33654],[-2.67625,43.3365],[-2.6763,43.33647],[-2.67632,43.33627],[-2.67638,43.33592],[-2.67642,43.3356],[-2.67643,43.33538],[-2.67642,43.33535],[-2.6764,43.33533],[-2.67641,43.33524],[-2.67642,43.3351],[-2.67643,43.33498],[-2.67637,43.33489],[-2.67628,43.33484],[-2.67627,43.33479],[-2.67631,43.33473],[-2.67642,43.3347],[-2.67647,43.33465],[-2.67652,43.3345],[-2.67653,43.33445],[-2.67655,43.33433],[-2.67661,43.33389],[-2.67668,43.33338],[-2.67675,43.33284],[-2.67678,43.33261],[-2.67685,43.3321]]}},{"type":"Feature","properties":{"id":647737417,"highway":"residential"},"geometry":{"type":"LineString","coordinates":[[-2.67423,43.332],[-2.67417,43.3321],[-2.674,43.33238],[-2.67397,43.33283]]}},{"type":"Feature","properties":{"id":647741990,"highway":"track"},"geometry":{"type":"LineString","coordinates":[[-2.69657,43.32457],[-2.69657,43.32457]]}},{"type":"Feature","properties":{"id":651249923,"highway":"service"},"geometry":{"type":"LineString","coordinates":[[-2.70313,43.32993],[-2.70335,43.3297]]}},{"type":"Feature","properties":{"id":651249924,"highway":"service"},"geometry":{"type":"LineString","coordinates":[[-2.70374,43.32962],[-2.70396,43.32968]]}},{"type":"Feature","properties":{"id":651249925,"highway":"service"},"geometry":{"type":"LineString","coordinates":[[-2.70378,43.32979],[-2.70385,43.32977],[-2.70399,43.32977],[-2.70401,43.32975]]}},{"type":"Feature","properties":{"id":651249927,"highway":"track"},"geometry":{"type":"LineString","coordinates":[[-2.70378,43.32983],[-2.70378,43.32979],[-2.70374,43.32962],[-2.70374,43.32949],[-2.70371,43.32936],[-2.7035,43.32926],[-2.70326,43.32907],[-2.70318,43.32908],[-2.70299,43.32916],[-2.7029,43.32913],[-2.70286,43.32902],[-2.70307,43.3284],[-2.70308,43.32832],[-2.70293,43.3282],[-2.70265,43.32814],[-2.70227,43.32807],[-2.70189,43.32801],[-2.70172,43.32796],[-2.70178,43.32789],[-2.70187,43.3278],[-2.70184,43.32768],[-2.70173,43.32756],[-2.70147,43.32741],[-2.70111,43.32734],[-2.70079,43.32737],[-2.70077,43.32732],[-2.70083,43.32719],[-2.70078,43.32715],[-2.70045,43.32712],[-2.70035,43.32702],[-2.70031,43.3269],[-2.7003,43.32678]]}},{"type":"Feature","properties":{"id":651249929,"highway":"service"},"geometry":{"type":"LineString","coordinates":[[-2.70344,43.32988],[-2.70357,43.32992],[-2.70405,43.33002],[-2.70417,43.33005],[-2.70428,43.33006],[-2.70432,43.3301],[-2.70429,43.33014],[-2.70418,43.33016],[-2.70404,43.33021],[-2.70395,43.33027],[-2.7039,43.33036],[-2.70394,43.33044],[-2.70402,43.33053],[-2.70409,43.33052],[-2.70463,43.33034]]}},{"type":"Feature","properties":{"id":667912369,"highway":"track"},"geometry":{"type":"LineString","coordinates":[[-2.69539,43.33791],[-2.69571,43.33779],[-2.69614,43.33768],[-2.6965,43.33761],[-2.69725,43.33741],[-2.69762,43.33742],[-2.69774,43.33747],[-2.69824,43.3377],[-2.69891,43.33797],[-2.69934,43.33851],[-2.69965,43.33874],[-2.70002,43.33914],[-2.70081,43.33929],[-2.70118,43.33943],[-2.70145,43.33988],[-2.70172,43.34001],[-2.70203,43.34009],[-2.70219,43.34025],[-2.70238,43.34025],[-2.70245,43.34017],[-2.7025,43.33952],[-2.70244,43.33907],[-2.70251,43.33888],[-2.70263,43.33887],[-2.70331,43.33908],[-2.70369,43.33909],[-2.70396,43.33918],[-2.70441,43.33919],[-2.70507,43.3394],[-2.70606,43.33903],[-2.70648,43.33898],[-2.7069,43.33901],[-2.70751,43.3392],[-2.70816,43.33939]]}},{"type":"Feature","properties":{"id":667912374,"highway":"track"},"geometry":{"type":"LineString","coordinates":[[-2.69632,43.34132],[-2.69615,43.34126],[-2.69569,43.34108],[-2.6956,43.34103],[-2.69549,43.34102],[-2.69535,43.3411],[-2.6952,43.34116],[-2.69479,43.34124],[-2.69448,43.34129],[-2.69421,43.3413],[-2.69381,43.34123],[-2.69295,43.34113],[-2.69263,43.34106],[-2.69247,43.34098],[-2.69235,43.34087],[-2.69228,43.34085]]}},{"type":"Feature","properties":{"id":667912376,"highway":"track"},"geometry":{"type":"LineString","coordinates":[[-2.70201,43.34249],[-2.70178,43.3424],[-2.70102,43.34223],[-2.69977,43.34189],[-2.69959,43.34177],[-2.69936,43.34153],[-2.69903,43.34131],[-2.69878,43.34091],[-2.69773,43.34032],[-2.69736,43.34025],[-2.69698,43.34063],[-2.69664,43.34099],[-2.69642,43.3413],[-2.69632,43.34135]]}},{"type":"Feature","properties":{"id":668132507,"highway":"path"},"geometry":{"type":"LineString","coordinates":[[-2.70146,43.3431],[-2.70163,43.34316],[-2.70175,43.34324],[-2.70181,43.34331],[-2.70184,43.34338],[-2.70188,43.34348],[-2.70192,43.34359],[-2.70193,43.34372],[-2.70209,43.34408],[-2.70215,43.34444],[-2.7021,43.34478],[-2.70203,43.34507],[-2.70181,43.34459],[-2.70168,43.34431],[-2.70148,43.34419],[-2.70113,43.34417],[-2.70091,43.34432],[-2.70067,43.34452],[-2.70058,43.34471]]}},{"type":"Feature","properties":{"id":671685486,"highway":"path"},"geometry":{"type":"LineString","coordinates":[[-2.70263,43.33205],[-2.70222,43.33169],[-2.70198,43.33133]]}},{"type":"Feature","properties":{"id":671685487,"highway":"track"},"geometry":{"type":"LineString","coordinates":[[-2.70813,43.33387],[-2.7081,43.33384],[-2.70773,43.33346],[-2.70746,43.33326],[-2.70726,43.33314],[-2.70705,43.33308],[-2.70696,43.33307],[-2.70656,43.33308],[-2.7064,43.33303],[-2.70615,43.33291],[-2.70572,43.33257],[-2.70554,43.33239],[-2.70541,43.33219],[-2.70536,43.33215],[-2.70512,43.33205],[-2.70473,43.33188],[-2.70436,43.33169],[-2.7042,43.33155],[-2.70408,43.33142],[-2.704,43.3314],[-2.7039,43.33142],[-2.70381,43.33148],[-2.70373,43.33158],[-2.70357,43.33172],[-2.70345,43.33185],[-2.70341,43.33192],[-2.70338,43.33198],[-2.70331,43.33202],[-2.70323,43.33203],[-2.70307,43.332],[-2.70273,43.33187],[-2.70251,43.33176],[-2.70237,43.33167],[-2.70214,43.33145],[-2.70198,43.33133],[-2.70188,43.33115],[-2.70177,43.33099],[-2.70159,43.33087],[-2.70155,43.33077],[-2.70156,43.33071],[-2.70164,43.33061],[-2.70162,43.33054]]}},{"type":"Feature","properties":{"id":671685488,"highway":"path"},"geometry":{"type":"LineString","coordinates":[[-2.70302,43.3308],[-2.70274,43.33101],[-2.70245,43.3311],[-2.70214,43.33115],[-2.70201,43.33119],[-2.70188,43.33115]]}},{"type":"Feature","properties":{"id":671685489,"highway":"path"},"geometry":{"type":"LineString","coordinates":[[-2.70837,43.33732],[-2.70851,43.33732]]}},{"type":"Feature","properties":{"id":673456768,"highway":"path"},"geometry":{"type":"LineString","coordinates":[[-2.7067,43.33629],[-2.70624,43.33622],[-2.70571,43.33599],[-2.70544,43.33583],[-2.70532,43.33571],[-2.70522,43.33549],[-2.70496,43.33529],[-2.70462,43.33507],[-2.70437,43.33478],[-2.70424,43.33456],[-2.70421,43.33426],[-2.70407,43.33416],[-2.70385,43.33395],[-2.70376,43.33375],[-2.70369,43.33353],[-2.70357,43.33341],[-2.70343,43.33328],[-2.70294,43.33305],[-2.70266,43.33292],[-2.70247,43.33272],[-2.70235,43.33264],[-2.70199,43.33248],[-2.70176,43.33231],[-2.70153,43.33198],[-2.70134,43.33161],[-2.70124,43.33138],[-2.70124,43.33121],[-2.70125,43.33076],[-2.70125,43.33066],[-2.70129,43.33055],[-2.70135,43.33046],[-2.70148,43.33032]]}},{"type":"Feature","properties":{"id":675252469,"highway":"service"},"geometry":{"type":"LineString","coordinates":[[-2.67746,43.34067],[-2.67738,43.3407],[-2.67728,43.34072],[-2.67718,43.34074],[-2.67713,43.34073],[-2.67707,43.34068]]}},{"type":"Feature","properties":{"id":675252470,"highway":"service"},"geometry":{"type":"LineString","coordinates":[[-2.67669,43.3388],[-2.67661,43.33882],[-2.67644,43.33885],[-2.6762,43.33889],[-2.67606,43.33891],[-2.67592,43.33892],[-2.67582,43.33891],[-2.67577,43.3389],[-2.67556,43.33883]]}},{"type":"Feature","properties":{"id":680634026,"highway":"path"},"geometry":{"type":"LineString","coordinates":[[-2.68802,43.32379],[-2.68795,43.32365],[-2.68797,43.32337],[-2.68754,43.32325],[-2.68725,43.32322],[-2.68709,43.32327],[-2.6866,43.32358],[-2.6863,43.32377],[-2.68598,43.32385],[-2.68516,43.324],[-2.68477,43.32409],[-2.68444,43.32412],[-2.68417,43.3241],[-2.684,43.32406],[-2.68342,43.32394],[-2.68273,43.32371],[-2.68247,43.32361],[-2.68232,43.32349]]}},{"type":"Feature","properties":{"id":680634027,"highway":"path"},"geometry":{"type":"LineString","coordinates":[[-2.6895,43.32735],[-2.68964,43.32725],[-2.69009,43.327],[-2.69012,43.32693],[-2.69006,43.32686],[-2.68992,43.3267],[-2.68979,43.32664],[-2.68971,43.32657],[-2.68964,43.32636],[-2.68963,43.3262],[-2.68969,43.32608],[-2.68978,43.32597],[-2.68985,43.32593],[-2.68999,43.32591],[-2.69016,43.32596],[-2.6903,43.326],[-2.69048,43.32601]]}},{"type":"Feature","properties":{"id":680634028,"highway":"track"},"geometry":{"type":"LineString","coordinates":[[-2.68916,43.32868],[-2.68924,43.32861],[-2.68934,43.32857],[-2.68945,43.32856],[-2.68956,43.32858],[-2.68964,43.32863],[-2.69014,43.32894],[-2.69023,43.32897],[-2.69036,43.32899],[-2.69084,43.32904],[-2.69094,43.32906],[-2.69107,43.32913],[-2.69121,43.32922],[-2.69135,43.32936],[-2.69191,43.32983]]}},{"type":"Feature","properties":{"id":680634029,"highway":"path"},"geometry":{"type":"LineString","coordinates":[[-2.6995,43.3393],[-2.69929,43.33906],[-2.69872,43.33822],[-2.69834,43.33794],[-2.69824,43.3377]]}},{"type":"Feature","properties":{"id":680634030,"highway":"path"},"geometry":{"type":"LineString","coordinates":[[-2.69562,43.33455],[-2.69539,43.33467],[-2.69526,43.33469],[-2.69456,43.33463],[-2.69444,43.33462],[-2.69441,43.33466],[-2.69446,43.33472],[-2.69457,43.3348],[-2.69468,43.33484],[-2.69505,43.33507],[-2.69537,43.33512],[-2.69575,43.33528],[-2.69573,43.33534],[-2.69554,43.33536],[-2.69518,43.33536]]}},{"type":"Feature","properties":{"id":1083945304,"highway":"cycleway","nombre":"bidegorri","oneway":"no","superficie":"asphalt"},"geometry":{"type":"LineString","coordinates":[[-2.67543,43.3364],[-2.67539,43.33666],[-2.67537,43.33682],[-2.67533,43.33711],[-2.67535,43.33715],[-2.6754,43.33717],[-2.67575,43.33719],[-2.67588,43.33722],[-2.67597,43.33726],[-2.67608,43.33735],[-2.67614,43.33745],[-2.67615,43.33748],[-2.67616,43.33756]]}},{"type":"Feature","properties":{"id":1352529055,"highway":"footway"},"geometry":{"type":"LineString","coordinates":[[-2.67753,43.33195],[-2.67752,43.33206]]}},{"type":"Feature","properties":{"id":1352529056,"highway":"footway"},"geometry":{"type":"LineString","coordinates":[[-2.67753,43.33195],[-2.67759,43.33195],[-2.67764,43.33195]]}},{"type":"Feature","properties":{"id":1352529057,"highway":"residential","oneway":"no"},"geometry":{"type":"LineString","coordinates":[[-2.67791,43.33125],[-2.67792,43.33122],[-2.67798,43.33102]]}},{"type":"Feature","properties":{"id":1352529058,"highway":"residential","oneway":"no"},"geometry":{"type":"LineString","coordinates":[[-2.67798,43.33102],[-2.67779,43.33097]]}},{"type":"Feature","properties":{"id":1352529059,"highway":"residential","oneway":"yes","superficie":"asphalt"},"geometry":{"type":"LineString","coordinates":[[-2.67714,43.33108],[-2.67718,43.3311],[-2.67724,43.33112],[-2.67726,43.33112]]}},{"type":"Feature","properties":{"id":1352529060,"highway":"residential","oneway":"yes","superficie":"asphalt"},"geometry":{"type":"LineString","coordinates":[[-2.67714,43.33108],[-2.67712,43.3311],[-2.67711,43.33111],[-2.6771,43.33113]]}},{"type":"Feature","properties":{"id":1352529061,"highway":"tertiary","ref":"BI-3215","superficie":"asphalt"},"geometry":{"type":"LineString","coordinates":[[-2.6771,43.33113],[-2.67698,43.33189]]}},{"type":"Feature","properties":{"id":1352529062,"highway":"residential","oneway":"yes","superficie":"asphalt"},"geometry":{"type":"LineString","coordinates":[[-2.67738,43.33104],[-2.67726,43.33095],[-2.67719,43.33088],[-2.67714,43.33075]]}},{"type":"Feature","properties":{"id":1352529063,"highway":"residential","oneway":"yes","superficie":"asphalt"},"geometry":{"type":"LineString","coordinates":[[-2.67726,43.33112],[-2.67731,43.3311],[-2.67745,43.3311]]}},{"type":"Feature","properties":{"id":1352529064,"highway":"tertiary","ref":"BI-3215","superficie":"asphalt"},"geometry":{"type":"LineString","coordinates":[[-2.67713,43.33091],[-2.67712,43.33102],[-2.67711,43.33108],[-2.6771,43.33113]]}},{"type":"Feature","properties":{"id":1352529066,"highway":"tertiary","ref":"BI-3215","superficie":"asphalt"},"geometry":{"type":"LineString","coordinates":[[-2.67698,43.33189],[-2.67697,43.33196],[-2.67696,43.33205]]}},{"type":"Feature","properties":{"id":1352529067,"highway":"tertiary","ref":"BI-3215","superficie":"asphalt"},"geometry":{"type":"LineString","coordinates":[[-2.67696,43.33205],[-2.67694,43.33219],[-2.67681,43.33315],[-2.67664,43.33429],[-2.67662,43.33445],[-2.67659,43.33463],[-2.67656,43.33482],[-2.67653,43.33504],[-2.67645,43.33581],[-2.67634,43.33661],[-2.6763,43.33687],[-2.67623,43.33735],[-2.67622,43.3375],[-2.67624,43.33764],[-2.67628,43.33782],[-2.67648,43.33829],[-2.67669,43.3388],[-2.677,43.33958],[-2.67705,43.33971],[-2.67746,43.34067],[-2.67754,43.34088],[-2.67788,43.34174],[-2.67806,43.34219],[-2.67848,43.34323],[-2.67901,43.34454],[-2.67915,43.34487],[-2.67927,43.34514],[-2.67971,43.34603],[-2.67975,43.3461],[-2.67991,43.34643],[-2.68006,43.34672],[-2.68015,43.34691]]}},{"type":"Feature","properties":{"id":1352529068,"highway":"footway"},"geometry":{"type":"LineString","coordinates":[[-2.67701,43.33196],[-2.67697,43.33196],[-2.67691,43.33196]]}},{"type":"Feature","properties":{"id":1356444289,"highway":"service"},"geometry":{"type":"LineString","coordinates":[[-2.67794,43.32489],[-2.67789,43.3249],[-2.67781,43.32491],[-2.67709,43.32478]]}},{"type":"Feature","properties":{"id":1356444290,"highway":"service"},"geometry":{"type":"LineString","coordinates":[[-2.67796,43.32456],[-2.67801,43.32456],[-2.67806,43.32456],[-2.67809,43.32455],[-2.67811,43.32452],[-2.67814,43.32427]]}},{"type":"Feature","properties":{"id":1356444292,"highway":"tertiary_link","oneway":"yes"},"geometry":{"type":"LineString","coordinates":[[-2.67808,43.32557],[-2.678,43.32553],[-2.67794,43.32549],[-2.67792,43.32547],[-2.67791,43.32546],[-2.67789,43.32544]]}},{"type":"Feature","properties":{"id":1356444293,"highway":"tertiary_link","oneway":"yes"},"geometry":{"type":"LineString","coordinates":[[-2.6778,43.32604],[-2.67783,43.32597],[-2.67786,43.32591],[-2.67788,43.32584],[-2.67791,43.32567],[-2.67795,43.32561],[-2.67797,43.32558],[-2.67808,43.32557]]}},{"type":"Feature","properties":{"id":1356444294,"highway":"tertiary_link","oneway":"yes"},"geometry":{"type":"LineString","coordinates":[[-2.678,43.32553],[-2.67796,43.32553],[-2.67793,43.32554],[-2.6779,43.32554],[-2.67788,43.32556]]}},{"type":"Feature","properties":{"id":1356444295,"highway":"tertiary_link","oneway":"yes"},"geometry":{"type":"LineString","coordinates":[[-2.67788,43.32556],[-2.67789,43.32558],[-2.67793,43.32559],[-2.67797,43.32558]]}},{"type":"Feature","properties":{"id":1356444296,"highway":"service"},"geometry":{"type":"LineString","coordinates":[[-2.67824,43.32559],[-2.67822,43.32562],[-2.67822,43.32562],[-2.67817,43.32569],[-2.67812,43.32573],[-2.67803,43.32582],[-2.67802,43.3259],[-2.67839,43.32593]]}},{"type":"Feature","properties":{"id":1356444297,"highway":"service"},"geometry":{"type":"LineString","coordinates":[[-2.67812,43.32573],[-2.67847,43.32578]]}},{"type":"Feature","properties":{"id":1383628298,"highway":"footway"},"geometry":{"type":"LineString","coordinates":[[-2.67668,43.33446],[-2.67662,43.33445],[-2.67653,43.33445]]}},{"type":"Feature","properties":{"id":1383628299,"highway":"footway"},"geometry":{"type":"LineString","coordinates":[[-2.67701,43.33205],[-2.67701,43.33196]]}},{"type":"Feature","properties":{"id":1383628300,"highway":"cycleway"},"geometry":{"type":"LineString","coordinates":[[-2.67686,43.33201],[-2.67686,43.33205],[-2.67685,43.3321]]}},{"type":"Feature","properties":{"id":1421069819,"highway":"service"},"geometry":{"type":"LineString","coordinates":[[-2.6738,43.33235],[-2.67374,43.33226]]}},{"type":"Feature","properties":{"id":1421069820,"highway":"service"},"geometry":{"type":"LineString","coordinates":[[-2.67376,43.33238],[-2.67361,43.33234],[-2.67356,43.33237],[-2.67352,43.33245]]}},{"type":"Feature","properties":{"id":1421069833,"highway":"unclassified","nombre":"Kanpantxua auzoa"},"geometry":{"type":"LineString","coordinates":[[-2.68239,43.34653],[-2.68238,43.34652]]}},{"type":"Feature","properties":{"id":1462690723,"highway":"tertiary","nombre":"Elexalde auzoa","ref":"BI-3215","superficie":"asphalt"},"geometry":{"type":"LineString","coordinates":[[-2.6774,43.32864],[-2.67729,43.32947],[-2.67719,43.33034],[-2.67716,43.33053],[-2.67714,43.33075],[-2.67713,43.33091]]}},{"type":"Feature","properties":{"id":1462692798,"highway":"service"},"geometry":{"type":"LineString","coordinates":[[-2.67796,43.32648],[-2.67797,43.32644],[-2.67802,43.326],[-2.67802,43.3259]]}},{"type":"Feature","properties":{"id":1462695393,"highway":"tertiary_link","oneway":"yes"},"geometry":{"type":"LineString","coordinates":[[-2.67786,43.32509],[-2.67788,43.3252],[-2.67784,43.32551],[-2.67788,43.32556]]}},{"type":"Feature","properties":{"id":1462695394,"highway":"tertiary_link","oneway":"yes","superficie":"asphalt"},"geometry":{"type":"LineString","coordinates":[[-2.67788,43.32556],[-2.67783,43.3256],[-2.67781,43.32576],[-2.67776,43.32587]]}},{"type":"Feature","properties":{"id":1462695395,"highway":"tertiary","nombre":"Carlos Gangoiti kalea","izena_eu":"Carlos Gangoiti kalea","nombre_es":"Calle Carlos Gangoiti","ref":"BI-3215","oneway":"yes","superficie":"asphalt"},"geometry":{"type":"LineString","coordinates":[[-2.67793,43.32474],[-2.67789,43.3249],[-2.67786,43.32509],[-2.67776,43.32587],[-2.67771,43.32624],[-2.6777,43.32642]]}},{"type":"Feature","properties":{"id":1462695765,"highway":"tertiary","nombre":"Carlos Gangoiti kalea","izena_eu":"Carlos Gangoiti kalea","nombre_es":"Calle Carlos Gangoiti","ref":"BI-3215","oneway":"yes","superficie":"asphalt"},"geometry":{"type":"LineString","coordinates":[[-2.6777,43.32642],[-2.67776,43.32624],[-2.6778,43.32604],[-2.67788,43.32556],[-2.67789,43.32549],[-2.67789,43.32544],[-2.67791,43.32533],[-2.67794,43.32489],[-2.67793,43.32474],[-2.67796,43.32456],[-2.67798,43.32435],[-2.67801,43.32413]]}}]}
