{"type":"FeatureCollection","features":[{"type":"Feature","properties":{"id":233190570,"highway":"secondary","ref":"BI-2121","oneway":"no","superficie":"asphalt"},"geometry":{"type":"LineString","coordinates":[[-2.79389,43.33155],[-2.79395,43.33156],[-2.79418,43.33156],[-2.79442,43.33156],[-2.79473,43.33156],[-2.79591,43.3315],[-2.79632,43.33147],[-2.79651,43.33145],[-2.79673,43.33141],[-2.79693,43.33134],[-2.79708,43.33127],[-2.79728,43.33116],[-2.79739,43.33107],[-2.79752,43.33095],[-2.7977,43.33078],[-2.79782,43.33064],[-2.7979,43.33055],[-2.79804,43.3304],[-2.79816,43.33027],[-2.79816,43.33027]]}},{"type":"Feature","properties":{"id":233239997,"highway":"secondary","ref":"BI-2121","oneway":"no","superficie":"asphalt"},"geometry":{"type":"LineString","coordinates":[[-2.79376,43.33152],[-2.79364,43.33146],[-2.79353,43.33139],[-2.7934,43.33129],[-2.79328,43.33124],[-2.79313,43.3312],[-2.79294,43.33117],[-2.79255,43.33117]]}},{"type":"Feature","properties":{"id":233239998,"highway":"secondary","ref":"BI-2121","oneway":"no","puente":"yes","superficie":"asphalt"},"geometry":{"type":"LineString","coordinates":[[-2.79376,43.33152],[-2.79378,43.33154],[-2.79389,43.33155]]}},{"type":"Feature","properties":{"id":233240005,"highway":"unclassified"},"geometry":{"type":"LineString","coordinates":[[-2.80487,43.32391],[-2.80485,43.32386],[-2.80482,43.3238],[-2.80451,43.32346],[-2.80447,43.3234],[-2.80443,43.32333],[-2.80436,43.32316],[-2.80432,43.32309],[-2.80399,43.32279],[-2.80385,43.32264],[-2.80376,43.32254],[-2.80369,43.32243],[-2.80365,43.32236],[-2.80356,43.32216]]}},{"type":"Feature","properties":{"id":233240011,"highway":"unclassified"},"geometry":{"type":"LineString","coordinates":[[-2.801,43.31538],[-2.80101,43.31543],[-2.80106,43.31552],[-2.80111,43.31559],[-2.80118,43.31567],[-2.80126,43.31577],[-2.80129,43.31586],[-2.80132,43.31596],[-2.80133,43.31608],[-2.8013,43.31635],[-2.80131,43.31658],[-2.80131,43.31666],[-2.80134,43.31675],[-2.80136,43.31681],[-2.80142,43.3169],[-2.80162,43.31707],[-2.80175,43.31719],[-2.80188,43.3173],[-2.80197,43.31742],[-2.80202,43.31749],[-2.80223,43.31795],[-2.80226,43.31806],[-2.80227,43.31814],[-2.80225,43.31841],[-2.80223,43.31844]]}},{"type":"Feature","properties":{"id":233240013,"highway":"unclassified"},"geometry":{"type":"LineString","coordinates":[[-2.80343,43.32187],[-2.80331,43.32161],[-2.80322,43.3214],[-2.80317,43.32127],[-2.80315,43.32112],[-2.80314,43.32084],[-2.8031,43.32066],[-2.80304,43.32044],[-2.80299,43.32025],[-2.80293,43.32006],[-2.80287,43.31987],[-2.80284,43.31971],[-2.80281,43.31962],[-2.80276,43.31953],[-2.8027,43.31946],[-2.80249,43.31927],[-2.80243,43.31918],[-2.8024,43.31911],[-2.80238,43.31904],[-2.80235,43.31884],[-2.80233,43.31869],[-2.80229,43.31857],[-2.80223,43.31844]]}},{"type":"Feature","properties":{"id":233242967,"highway":"tertiary","ref":"BI-4118"},"geometry":{"type":"LineString","coordinates":[[-2.78916,43.32457],[-2.78914,43.32452],[-2.78912,43.32431],[-2.78912,43.32415],[-2.78911,43.32354],[-2.78911,43.3233],[-2.78911,43.32319],[-2.78911,43.32308],[-2.78913,43.32301],[-2.78917,43.32293],[-2.78925,43.32286],[-2.78934,43.32281],[-2.7895,43.32276],[-2.78976,43.32266],[-2.79005,43.32256],[-2.79046,43.32242],[-2.79061,43.32236],[-2.79068,43.32233],[-2.79088,43.32222],[-2.79104,43.32209],[-2.79128,43.32187],[-2.79138,43.32179],[-2.79145,43.32175],[-2.79156,43.32171],[-2.79164,43.3217],[-2.79177,43.32171],[-2.792,43.32175],[-2.79232,43.32181],[-2.79252,43.32184],[-2.79266,43.32184],[-2.79283,43.32182],[-2.79301,43.32178],[-2.79318,43.32173],[-2.79335,43.32165],[-2.79345,43.3216],[-2.79363,43.32145],[-2.79376,43.32133],[-2.79387,43.32118],[-2.79394,43.32107],[-2.79438,43.32026],[-2.79442,43.32012],[-2.79446,43.31998],[-2.79445,43.31982],[-2.79443,43.31946],[-2.79438,43.31901],[-2.79433,43.31879],[-2.79427,43.31858],[-2.7942,43.31837],[-2.79414,43.31826],[-2.79411,43.3182],[-2.79406,43.31815],[-2.794,43.3181],[-2.79384,43.31798],[-2.79349,43.31773],[-2.79341,43.31764],[-2.79337,43.31759],[-2.79335,43.31752],[-2.79335,43.31746],[-2.79338,43.31733],[-2.79359,43.31679],[-2.79374,43.31636],[-2.79377,43.31622],[-2.79379,43.31605],[-2.7938,43.31588],[-2.79383,43.31556],[-2.79382,43.31539],[-2.79379,43.31522],[-2.79369,43.31473],[-2.7936,43.31427],[-2.79356,43.31413],[-2.79347,43.31396],[-2.79335,43.31377],[-2.79325,43.31362],[-2.79315,43.31349],[-2.79288,43.31328],[-2.79283,43.31324],[-2.79263,43.31314],[-2.79251,43.31307],[-2.79243,43.31304],[-2.79237,43.31301],[-2.79226,43.31297],[-2.79203,43.31289],[-2.79184,43.31284],[-2.79164,43.31281],[-2.7914,43.31278],[-2.79123,43.31277],[-2.79111,43.31278],[-2.79097,43.31279],[-2.79082,43.31281],[-2.79068,43.31283],[-2.79055,43.31284],[-2.79051,43.31284],[-2.79037,43.31284],[-2.79027,43.31282],[-2.79021,43.3128],[-2.79012,43.31278],[-2.78976,43.31266],[-2.78925,43.31247],[-2.78908,43.3124],[-2.78897,43.31235],[-2.78885,43.31227],[-2.78878,43.31221],[-2.78868,43.31208],[-2.7886,43.31194],[-2.78853,43.31182],[-2.78848,43.31172],[-2.7884,43.31159],[-2.78817,43.31117],[-2.78808,43.31102],[-2.78797,43.31089],[-2.7879,43.31082],[-2.78777,43.31073],[-2.78757,43.31062],[-2.78738,43.31054],[-2.78721,43.31044],[-2.78697,43.31031],[-2.78666,43.31014]]}},{"type":"Feature","properties":{"id":233242975,"highway":"tertiary","ref":"BI-4118","puente":"yes"},"geometry":{"type":"LineString","coordinates":[[-2.78666,43.31014],[-2.78665,43.31014],[-2.78664,43.31014]]}},{"type":"Feature","properties":{"id":233242978,"highway":"tertiary","ref":"BI-4118","puente":"yes"},"geometry":{"type":"LineString","coordinates":[[-2.78617,43.32691],[-2.7864,43.32675],[-2.78647,43.32671]]}},{"type":"Feature","properties":{"id":233242983,"highway":"tertiary","ref":"BI-4118"},"geometry":{"type":"LineString","coordinates":[[-2.78475,43.32775],[-2.78479,43.32775],[-2.78486,43.32774],[-2.78499,43.32768],[-2.78535,43.32746],[-2.7855,43.32736],[-2.78566,43.32725],[-2.78615,43.32693],[-2.78617,43.32691]]}},{"type":"Feature","properties":{"id":233569847,"highway":"track"},"geometry":{"type":"LineString","coordinates":[[-2.77738,43.32157],[-2.77738,43.32157],[-2.7775,43.32152],[-2.77761,43.32146]]}},{"type":"Feature","properties":{"id":233569848,"highway":"service"},"geometry":{"type":"LineString","coordinates":[[-2.78303,43.31782],[-2.78304,43.3177],[-2.78298,43.3176],[-2.78292,43.3175],[-2.78292,43.31711],[-2.78289,43.31708],[-2.78283,43.31705],[-2.7826,43.31703],[-2.78197,43.31701],[-2.78185,43.317],[-2.78174,43.31697],[-2.78165,43.31693],[-2.78161,43.31687]]}},{"type":"Feature","properties":{"id":233569849,"highway":"service"},"geometry":{"type":"LineString","coordinates":[[-2.78915,43.31795],[-2.7892,43.31787],[-2.78933,43.31773],[-2.78934,43.31768],[-2.78934,43.31762],[-2.78931,43.31756],[-2.78917,43.31746],[-2.78903,43.31737],[-2.78901,43.31733],[-2.789,43.31727],[-2.78905,43.31715],[-2.78917,43.31696],[-2.78932,43.31687]]}},{"type":"Feature","properties":{"id":233569851,"highway":"unclassified"},"geometry":{"type":"LineString","coordinates":[[-2.79504,43.31713],[-2.79499,43.31722],[-2.79494,43.31731],[-2.79487,43.31738],[-2.79481,43.31742],[-2.79469,43.31749],[-2.79458,43.31755],[-2.7945,43.3176],[-2.79447,43.31763],[-2.79422,43.31787],[-2.79415,43.31795],[-2.79405,43.31805],[-2.794,43.3181]]}},{"type":"Feature","properties":{"id":233569853,"highway":"service"},"geometry":{"type":"LineString","coordinates":[[-2.79502,43.31384],[-2.79511,43.3138],[-2.79518,43.31377],[-2.79521,43.3138],[-2.79527,43.31386],[-2.79537,43.31391],[-2.79541,43.31393],[-2.79565,43.31416],[-2.79568,43.31422],[-2.79565,43.31429],[-2.7956,43.31438],[-2.79546,43.31453],[-2.79544,43.3146],[-2.79548,43.31466],[-2.79555,43.3147]]}},{"type":"Feature","properties":{"id":233569854,"highway":"unclassified"},"geometry":{"type":"LineString","coordinates":[[-2.80034,43.32507],[-2.8003,43.32501],[-2.80006,43.32478],[-2.79992,43.32456],[-2.79982,43.32436],[-2.79974,43.32418]]}},{"type":"Feature","properties":{"id":233569855,"highway":"service"},"geometry":{"type":"LineString","coordinates":[[-2.78199,43.3201],[-2.78195,43.31999],[-2.78192,43.3198],[-2.78185,43.31961],[-2.7818,43.3194],[-2.78181,43.31933],[-2.78189,43.3192],[-2.78203,43.319],[-2.78226,43.31871],[-2.78246,43.31845],[-2.78266,43.31822],[-2.78288,43.31799],[-2.78294,43.3179],[-2.78303,43.31782]]}},{"type":"Feature","properties":{"id":233569858,"highway":"unclassified","nombre":"Andeko auzoa","izena_eu":"Andeko auzoa","nombre_es":"Barrio Andeko"},"geometry":{"type":"LineString","coordinates":[[-2.78612,43.32561],[-2.78607,43.32558],[-2.78603,43.32548],[-2.78591,43.32531],[-2.78584,43.3252],[-2.78582,43.32514],[-2.78582,43.32508],[-2.78586,43.32497],[-2.78592,43.32479],[-2.786,43.32464],[-2.78609,43.32453],[-2.78627,43.32435],[-2.78641,43.3242],[-2.78659,43.32403],[-2.78664,43.324],[-2.78668,43.32396],[-2.78675,43.32394]]}},{"type":"Feature","properties":{"id":233569859,"highway":"service"},"geometry":{"type":"LineString","coordinates":[[-2.78303,43.31782],[-2.7831,43.31782],[-2.78323,43.31776],[-2.78342,43.31761],[-2.78346,43.31758],[-2.78357,43.31743],[-2.78373,43.31722],[-2.78403,43.31702],[-2.78412,43.31693],[-2.78429,43.31662],[-2.78435,43.31657],[-2.78455,43.31644],[-2.78487,43.31622],[-2.78497,43.31616],[-2.78509,43.31613],[-2.78524,43.31608],[-2.78535,43.31603],[-2.7856,43.31599]]}},{"type":"Feature","properties":{"id":233569860,"highway":"service"},"geometry":{"type":"LineString","coordinates":[[-2.78812,43.32258],[-2.78799,43.32279],[-2.788,43.32281],[-2.78802,43.32282],[-2.78817,43.32274],[-2.78823,43.32271],[-2.78829,43.32269],[-2.7883,43.32269],[-2.78832,43.32268],[-2.78835,43.32268],[-2.78838,43.32268],[-2.78843,43.32269],[-2.78868,43.3229],[-2.7888,43.32298],[-2.78884,43.32301],[-2.78898,43.3231],[-2.78903,43.32312],[-2.78905,43.32314],[-2.78911,43.32319]]}},{"type":"Feature","properties":{"id":233569861,"highway":"unclassified","nombre":"Andeko auzoa","izena_eu":"Andeko auzoa","nombre_es":"Barrio Andeko"},"geometry":{"type":"LineString","coordinates":[[-2.78919,43.32472],[-2.789,43.32472],[-2.78878,43.32473],[-2.78865,43.32472],[-2.78843,43.32468],[-2.78824,43.32465],[-2.78808,43.32462],[-2.78797,43.3246],[-2.78781,43.32457],[-2.78762,43.32454],[-2.7875,43.32453],[-2.78737,43.3245],[-2.78724,43.32445],[-2.7871,43.32441],[-2.787,43.32437],[-2.78695,43.32432],[-2.78687,43.32417],[-2.7868,43.32407],[-2.78675,43.32394]]}},{"type":"Feature","properties":{"id":233569862,"highway":"service"},"geometry":{"type":"LineString","coordinates":[[-2.79028,43.32649],[-2.79039,43.32645],[-2.79045,43.32643]]}},{"type":"Feature","properties":{"id":233569867,"highway":"unclassified"},"geometry":{"type":"LineString","coordinates":[[-2.7994,43.32339],[-2.79945,43.32338],[-2.79974,43.32334],[-2.80017,43.32328],[-2.80032,43.32323],[-2.80056,43.32315],[-2.80069,43.32311],[-2.80083,43.32309],[-2.80103,43.32308],[-2.80117,43.32308],[-2.80132,43.32306],[-2.80161,43.323],[-2.80178,43.32299],[-2.80192,43.32298],[-2.80211,43.32295],[-2.80227,43.3229],[-2.80254,43.3228],[-2.80279,43.32269],[-2.80297,43.32258],[-2.80309,43.32249],[-2.80322,43.32236],[-2.80333,43.32227],[-2.80339,43.32223],[-2.80356,43.32216]]}},{"type":"Feature","properties":{"id":233569868,"highway":"unclassified"},"geometry":{"type":"LineString","coordinates":[[-2.79504,43.31713],[-2.7951,43.31719],[-2.79516,43.31725],[-2.79523,43.3173],[-2.79534,43.31737],[-2.79542,43.3174],[-2.79549,43.31744],[-2.79556,43.31751],[-2.79574,43.31772],[-2.79584,43.31783],[-2.7959,43.31791],[-2.79598,43.31806],[-2.79601,43.31814],[-2.7961,43.31849],[-2.79619,43.3188],[-2.79628,43.31901],[-2.79632,43.31916],[-2.79635,43.31932],[-2.79637,43.31944],[-2.79637,43.31947],[-2.79651,43.31964],[-2.79657,43.31977],[-2.79657,43.31986]]}},{"type":"Feature","properties":{"id":233569869,"highway":"track"},"geometry":{"type":"LineString","coordinates":[[-2.795,43.31295],[-2.79497,43.31299]]}},{"type":"Feature","properties":{"id":233569871,"highway":"unclassified"},"geometry":{"type":"LineString","coordinates":[[-2.79337,43.31759],[-2.79326,43.31761],[-2.79301,43.31765],[-2.79292,43.31766],[-2.79241,43.31773],[-2.792,43.31779],[-2.79187,43.31779],[-2.79175,43.31776],[-2.79162,43.3177],[-2.79153,43.31763],[-2.79146,43.31755],[-2.7914,43.31749],[-2.79129,43.31743],[-2.79118,43.31741],[-2.79081,43.31738],[-2.79057,43.31736],[-2.79045,43.31737],[-2.79033,43.31744],[-2.78992,43.31765],[-2.78982,43.31771],[-2.78947,43.31786],[-2.7893,43.31792],[-2.78915,43.31795]]}},{"type":"Feature","properties":{"id":233569872,"highway":"service"},"geometry":{"type":"LineString","coordinates":[[-2.78199,43.3201],[-2.78186,43.32007],[-2.7818,43.32007],[-2.78174,43.32007],[-2.78163,43.3201],[-2.78125,43.32019],[-2.78089,43.32021],[-2.7806,43.32023],[-2.78009,43.3203],[-2.77946,43.32039],[-2.77921,43.32045],[-2.77917,43.32047],[-2.77907,43.32051],[-2.77889,43.32061],[-2.77868,43.32076],[-2.77846,43.32093],[-2.7781,43.32119],[-2.77783,43.32134],[-2.77774,43.32138],[-2.77766,43.32142],[-2.77761,43.32146]]}},{"type":"Feature","properties":{"id":233569876,"highway":"service"},"geometry":{"type":"LineString","coordinates":[[-2.79007,43.32623],[-2.79015,43.32635],[-2.7902,43.32642],[-2.79028,43.32649]]}},{"type":"Feature","properties":{"id":233569877,"highway":"service"},"geometry":{"type":"LineString","coordinates":[[-2.79451,43.314],[-2.79456,43.31406],[-2.79468,43.3142]]}},{"type":"Feature","properties":{"id":233569878,"highway":"unclassified"},"geometry":{"type":"LineString","coordinates":[[-2.79556,43.32032],[-2.79549,43.32035],[-2.79544,43.32037]]}},{"type":"Feature","properties":{"id":233569880,"highway":"service"},"geometry":{"type":"LineString","coordinates":[[-2.7894,43.32605],[-2.78908,43.32583],[-2.78894,43.32575]]}},{"type":"Feature","properties":{"id":233569882,"highway":"service"},"geometry":{"type":"LineString","coordinates":[[-2.79504,43.31713],[-2.79512,43.31709],[-2.79534,43.31707]]}},{"type":"Feature","properties":{"id":233569884,"highway":"unclassified"},"geometry":{"type":"LineString","coordinates":[[-2.78675,43.32394],[-2.7868,43.32386],[-2.78684,43.32379],[-2.78686,43.32367],[-2.78685,43.32357],[-2.78682,43.32348],[-2.78677,43.32343],[-2.78671,43.3234],[-2.78664,43.32339],[-2.78656,43.3234],[-2.78632,43.32348],[-2.7862,43.32349],[-2.78608,43.32348],[-2.78595,43.32346],[-2.78584,43.32343],[-2.78575,43.32339],[-2.78545,43.32324],[-2.7852,43.32309],[-2.78461,43.32274],[-2.78448,43.32264],[-2.78436,43.32256],[-2.78431,43.32252],[-2.78415,43.32239],[-2.78397,43.32223],[-2.78381,43.32215],[-2.78373,43.32209],[-2.78369,43.32202],[-2.78356,43.32181],[-2.78343,43.32155],[-2.78331,43.32134],[-2.78309,43.32101],[-2.7828,43.32058],[-2.78279,43.32057]]}},{"type":"Feature","properties":{"id":233569885,"highway":"unclassified"},"geometry":{"type":"LineString","coordinates":[[-2.80223,43.31844],[-2.80217,43.31845],[-2.80207,43.31844],[-2.80183,43.3184],[-2.8017,43.31839],[-2.80148,43.3184],[-2.80112,43.31841],[-2.80067,43.31845],[-2.80053,43.31844],[-2.80038,43.31841],[-2.8001,43.3183],[-2.79982,43.31818],[-2.79958,43.31807],[-2.79949,43.31803],[-2.79943,43.31796],[-2.79939,43.31791],[-2.79939,43.31785],[-2.79943,43.31775],[-2.79947,43.31764],[-2.79948,43.31755],[-2.79947,43.31748],[-2.79941,43.31736],[-2.79925,43.31705],[-2.79912,43.31679],[-2.79901,43.31666],[-2.79891,43.31659],[-2.79878,43.31651],[-2.79863,43.31644],[-2.79849,43.31638],[-2.7983,43.31632],[-2.79817,43.31629],[-2.79797,43.31625],[-2.79741,43.31617],[-2.7971,43.31612],[-2.79695,43.31609],[-2.79683,43.31608],[-2.79676,43.31608],[-2.79667,43.31609],[-2.7965,43.31615],[-2.79608,43.31635]]}},{"type":"Feature","properties":{"id":233569886,"highway":"unclassified"},"geometry":{"type":"LineString","coordinates":[[-2.79657,43.31986],[-2.79671,43.31986],[-2.79687,43.31987],[-2.79706,43.31989],[-2.79727,43.31992],[-2.79736,43.31994],[-2.79744,43.31997],[-2.79766,43.32007],[-2.79777,43.3201],[-2.79818,43.32024],[-2.7985,43.32032],[-2.79858,43.32035],[-2.79862,43.32037],[-2.79864,43.3204],[-2.79866,43.32044],[-2.7987,43.32069],[-2.79873,43.32077],[-2.79875,43.32085],[-2.79877,43.32093],[-2.79879,43.32104],[-2.79879,43.32117],[-2.7988,43.32136],[-2.79882,43.32157],[-2.79884,43.32167],[-2.79888,43.32177],[-2.79897,43.32196],[-2.79903,43.32214],[-2.79908,43.3223],[-2.79917,43.32262],[-2.79925,43.32292],[-2.7993,43.32308],[-2.79933,43.32317],[-2.79936,43.32328],[-2.7994,43.32339]]}},{"type":"Feature","properties":{"id":233569887,"highway":"unclassified"},"geometry":{"type":"LineString","coordinates":[[-2.79608,43.31635],[-2.79597,43.3164],[-2.7958,43.31646],[-2.79562,43.31655]]}},{"type":"Feature","properties":{"id":233569888,"highway":"unclassified","nombre":"Andeko auzoa","izena_eu":"Andeko auzoa","nombre_es":"Barrio Andeko"},"geometry":{"type":"LineString","coordinates":[[-2.79007,43.32623],[-2.79014,43.32621],[-2.79022,43.32618],[-2.7904,43.32608]]}},{"type":"Feature","properties":{"id":233569889,"highway":"service"},"geometry":{"type":"LineString","coordinates":[[-2.79419,43.31365],[-2.79438,43.31388],[-2.79444,43.31395],[-2.79451,43.314]]}},{"type":"Feature","properties":{"id":233569891,"highway":"track"},"geometry":{"type":"LineString","coordinates":[[-2.78641,43.32155],[-2.78641,43.32154],[-2.78641,43.32153],[-2.78642,43.32146],[-2.78643,43.32143],[-2.78644,43.32142],[-2.78645,43.32139],[-2.78647,43.32137],[-2.7865,43.32134],[-2.78654,43.32132],[-2.78656,43.32131],[-2.78661,43.3213],[-2.78664,43.32129],[-2.78685,43.32126],[-2.78706,43.32123],[-2.78716,43.32121],[-2.78721,43.32119],[-2.78722,43.32116],[-2.78722,43.32115],[-2.78722,43.32114],[-2.78721,43.32113],[-2.78713,43.32107],[-2.78708,43.32105],[-2.78693,43.32098],[-2.78678,43.3209],[-2.78669,43.32087],[-2.78652,43.32081],[-2.78648,43.32079],[-2.78627,43.32074],[-2.78615,43.32072],[-2.78613,43.32071],[-2.78598,43.32069],[-2.78591,43.32069],[-2.78573,43.32068],[-2.78469,43.32064],[-2.784,43.32061],[-2.78387,43.3206],[-2.78385,43.3206],[-2.78382,43.32059],[-2.78382,43.32059],[-2.78378,43.32058],[-2.78367,43.32054]]}},{"type":"Feature","properties":{"id":233569893,"highway":"unclassified"},"geometry":{"type":"LineString","coordinates":[[-2.78915,43.31795],[-2.78904,43.31804],[-2.78888,43.31819],[-2.78862,43.31845],[-2.78857,43.31851],[-2.78852,43.31855],[-2.78845,43.31861],[-2.78839,43.31865],[-2.78831,43.31869],[-2.78823,43.31872],[-2.78808,43.31878],[-2.78793,43.31882],[-2.78777,43.31888],[-2.78769,43.31891],[-2.78757,43.31898],[-2.78744,43.31909],[-2.78731,43.3192],[-2.78725,43.31923],[-2.78716,43.31928],[-2.78688,43.31941],[-2.78684,43.31942],[-2.78648,43.31957],[-2.78643,43.31959],[-2.78635,43.31965],[-2.78613,43.31979],[-2.78609,43.3198],[-2.78601,43.31982],[-2.78592,43.31983],[-2.78581,43.31983],[-2.78566,43.31983],[-2.78556,43.31984],[-2.78545,43.31987],[-2.78527,43.31991],[-2.78494,43.32],[-2.78475,43.32005],[-2.78465,43.3201],[-2.78455,43.32014],[-2.7844,43.32025],[-2.78422,43.32038],[-2.78415,43.32044],[-2.78405,43.32048],[-2.78399,43.3205],[-2.78388,43.32053],[-2.78376,43.32054],[-2.78367,43.32054],[-2.78331,43.32054],[-2.78301,43.32054],[-2.7829,43.32054],[-2.78279,43.32057]]}},{"type":"Feature","properties":{"id":233569895,"highway":"service"},"geometry":{"type":"LineString","coordinates":[[-2.78279,43.32057],[-2.78269,43.32053],[-2.7825,43.32044],[-2.78226,43.32031],[-2.78199,43.3201]]}},{"type":"Feature","properties":{"id":233569898,"highway":"service"},"geometry":{"type":"LineString","coordinates":[[-2.79476,43.3137],[-2.79486,43.31372],[-2.79494,43.31378],[-2.79498,43.3138],[-2.79502,43.31384]]}},{"type":"Feature","properties":{"id":233569899,"highway":"track"},"geometry":{"type":"LineString","coordinates":[[-2.79045,43.32643],[-2.79042,43.32632],[-2.79046,43.32626],[-2.79044,43.32616],[-2.7904,43.32608]]}},{"type":"Feature","properties":{"id":233569900,"highway":"service"},"geometry":{"type":"LineString","coordinates":[[-2.79556,43.32032],[-2.79573,43.32031],[-2.79576,43.32031],[-2.79595,43.32029],[-2.79608,43.32033]]}},{"type":"Feature","properties":{"id":233569904,"highway":"unclassified"},"geometry":{"type":"LineString","coordinates":[[-2.7904,43.32608],[-2.79088,43.32579],[-2.79118,43.32562],[-2.79125,43.32559],[-2.79133,43.32555],[-2.79147,43.32551],[-2.79161,43.32548],[-2.79171,43.32547],[-2.79182,43.32547],[-2.79195,43.32548],[-2.79212,43.32551],[-2.79229,43.32554],[-2.79246,43.32556],[-2.79258,43.32556],[-2.79276,43.32555],[-2.79289,43.32552],[-2.79301,43.32548],[-2.79323,43.32542],[-2.79333,43.3254],[-2.79352,43.32536],[-2.79388,43.32532],[-2.79422,43.32528],[-2.79443,43.32526],[-2.79492,43.32523],[-2.79518,43.32522],[-2.79541,43.32521],[-2.79549,43.32522],[-2.7957,43.32524],[-2.79601,43.32532],[-2.79611,43.32534],[-2.79625,43.32535],[-2.79645,43.32536],[-2.79661,43.32536],[-2.79671,43.32536],[-2.79703,43.32537],[-2.79732,43.32536],[-2.79735,43.32536],[-2.79759,43.32537],[-2.79805,43.3254],[-2.79858,43.32543],[-2.79895,43.32543],[-2.79919,43.32552],[-2.79924,43.32553],[-2.79959,43.3256],[-2.79981,43.32561],[-2.80007,43.32561],[-2.80024,43.32558],[-2.80025,43.32558],[-2.80031,43.32553],[-2.8003,43.32546],[-2.80026,43.32529],[-2.80026,43.32519],[-2.80034,43.32507]]}},{"type":"Feature","properties":{"id":233569905,"highway":"service"},"geometry":{"type":"LineString","coordinates":[[-2.79476,43.3137],[-2.79469,43.31371],[-2.79455,43.31372],[-2.79445,43.31372],[-2.79433,43.3137],[-2.79419,43.31365]]}},{"type":"Feature","properties":{"id":233569906,"highway":"unclassified","nombre":"Andeko auzoa","izena_eu":"Andeko auzoa","nombre_es":"Barrio Andeko"},"geometry":{"type":"LineString","coordinates":[[-2.78947,43.32602],[-2.78961,43.32609],[-2.78974,43.32615],[-2.78985,43.32619],[-2.78996,43.32621],[-2.79007,43.32623]]}},{"type":"Feature","properties":{"id":233569907,"highway":"service"},"geometry":{"type":"LineString","coordinates":[[-2.78805,43.32639],[-2.7882,43.32646],[-2.78823,43.32644],[-2.78827,43.32639],[-2.78832,43.32633],[-2.78839,43.32624]]}},{"type":"Feature","properties":{"id":233569909,"highway":"service"},"geometry":{"type":"LineString","coordinates":[[-2.79502,43.31384],[-2.79496,43.31386],[-2.79486,43.31387],[-2.79477,43.31387],[-2.79472,43.31389],[-2.79464,43.31393],[-2.79451,43.314]]}},{"type":"Feature","properties":{"id":233569910,"highway":"unclassified"},"geometry":{"type":"LineString","coordinates":[[-2.79657,43.31986],[-2.7965,43.3199],[-2.79621,43.31999],[-2.79603,43.32009],[-2.79574,43.32023],[-2.79565,43.32029],[-2.79556,43.32032]]}},{"type":"Feature","properties":{"id":233569911,"highway":"service"},"geometry":{"type":"LineString","coordinates":[[-2.79419,43.31365],[-2.79401,43.31353],[-2.79392,43.31347],[-2.79386,43.31346],[-2.7938,43.31345],[-2.79373,43.31345],[-2.79362,43.31344]]}},{"type":"Feature","properties":{"id":233569914,"highway":"service"},"geometry":{"type":"LineString","coordinates":[[-2.79362,43.31344],[-2.79357,43.31341],[-2.79335,43.31329],[-2.7933,43.31328],[-2.79315,43.31322],[-2.79271,43.31311],[-2.79251,43.31307]]}},{"type":"Feature","properties":{"id":233569919,"highway":"service"},"geometry":{"type":"LineString","coordinates":[[-2.78793,43.31143],[-2.78809,43.3115],[-2.78828,43.31161],[-2.7883,43.31163],[-2.7884,43.3117],[-2.7884,43.3117],[-2.78841,43.3117],[-2.78848,43.31172]]}},{"type":"Feature","properties":{"id":233569921,"highway":"unclassified"},"geometry":{"type":"LineString","coordinates":[[-2.79544,43.32037],[-2.7951,43.32057],[-2.79475,43.32078],[-2.79457,43.32091],[-2.7943,43.32105],[-2.79404,43.32124],[-2.79365,43.32151],[-2.79362,43.32153],[-2.79345,43.3216]]}},{"type":"Feature","properties":{"id":233569923,"highway":"unclassified"},"geometry":{"type":"LineString","coordinates":[[-2.79562,43.31655],[-2.79546,43.31663],[-2.79534,43.31667],[-2.79522,43.31673],[-2.79513,43.3168],[-2.79508,43.31689],[-2.79505,43.31696],[-2.79504,43.3171],[-2.79504,43.31713]]}},{"type":"Feature","properties":{"id":233569924,"highway":"track"},"geometry":{"type":"LineString","coordinates":[[-2.79497,43.31299],[-2.79494,43.31302],[-2.79485,43.31316],[-2.79478,43.31329],[-2.79476,43.31337],[-2.79475,43.31343],[-2.79476,43.31351],[-2.79476,43.31364],[-2.79476,43.3137]]}},{"type":"Feature","properties":{"id":233569925,"highway":"service"},"geometry":{"type":"LineString","coordinates":[[-2.79362,43.31344],[-2.79357,43.31345],[-2.79348,43.31344],[-2.7934,43.31343],[-2.79329,43.31339],[-2.79321,43.31336],[-2.79306,43.31331],[-2.79299,43.31329],[-2.79288,43.31328]]}},{"type":"Feature","properties":{"id":233571264,"highway":"secondary","ref":"BI-2121","superficie":"asphalt"},"geometry":{"type":"LineString","coordinates":[[-2.78382,43.32614],[-2.78382,43.32602],[-2.7838,43.32589],[-2.78375,43.32574],[-2.78364,43.32554]]}},{"type":"Feature","properties":{"id":233571281,"highway":"secondary","ref":"BI-2121","puente":"yes","superficie":"asphalt"},"geometry":{"type":"LineString","coordinates":[[-2.78384,43.32649],[-2.78382,43.32643],[-2.78381,43.32633],[-2.78382,43.32614]]}},{"type":"Feature","properties":{"id":233574932,"highway":"service"},"geometry":{"type":"LineString","coordinates":[[-2.78179,43.32447],[-2.78168,43.32441],[-2.78156,43.32433],[-2.78141,43.32427],[-2.78133,43.32423],[-2.78124,43.32419],[-2.78116,43.32416],[-2.7811,43.32412],[-2.781,43.32398],[-2.78095,43.32387],[-2.78091,43.3238]]}},{"type":"Feature","properties":{"id":233574935,"highway":"service"},"geometry":{"type":"LineString","coordinates":[[-2.7838,43.32589],[-2.78386,43.32589],[-2.78397,43.32587],[-2.78403,43.32586],[-2.78408,43.32583],[-2.78413,43.32577],[-2.78416,43.32573],[-2.78421,43.32566],[-2.78425,43.32558],[-2.78426,43.32555],[-2.78427,43.32551],[-2.7843,43.32539],[-2.78431,43.32533],[-2.78432,43.3253]]}},{"type":"Feature","properties":{"id":233574941,"highway":"service","puente":"yes"},"geometry":{"type":"LineString","coordinates":[[-2.78091,43.3238],[-2.78079,43.32363]]}},{"type":"Feature","properties":{"id":233574947,"highway":"service"},"geometry":{"type":"LineString","coordinates":[[-2.78432,43.3253],[-2.78427,43.32522],[-2.78412,43.32499],[-2.78408,43.32491],[-2.78404,43.32488],[-2.78397,43.32485],[-2.78387,43.32476],[-2.7838,43.32472],[-2.78366,43.32475]]}},{"type":"Feature","properties":{"id":233574948,"highway":"service"},"geometry":{"type":"LineString","coordinates":[[-2.78432,43.3253],[-2.78434,43.32524],[-2.78436,43.32517],[-2.78439,43.32509]]}},{"type":"Feature","properties":{"id":233574950,"highway":"service"},"geometry":{"type":"LineString","coordinates":[[-2.78382,43.32614],[-2.78373,43.32614],[-2.78361,43.32614],[-2.78328,43.32615],[-2.78317,43.32615],[-2.78305,43.32615]]}},{"type":"Feature","properties":{"id":233574955,"highway":"service"},"geometry":{"type":"LineString","coordinates":[[-2.78079,43.32363],[-2.78079,43.3236],[-2.78081,43.32357],[-2.78087,43.32355],[-2.78108,43.32347],[-2.78142,43.32333],[-2.78166,43.32323],[-2.78201,43.32312],[-2.78215,43.32306]]}},{"type":"Feature","properties":{"id":236011760,"highway":"tertiary","ref":"BI-3123"},"geometry":{"type":"LineString","coordinates":[[-2.78715,43.33985],[-2.78778,43.34016],[-2.78797,43.34028],[-2.78815,43.34039],[-2.78841,43.34059],[-2.78864,43.34081],[-2.78887,43.34104],[-2.78906,43.34121],[-2.78917,43.34126],[-2.78938,43.34128],[-2.78955,43.34123],[-2.78964,43.34118],[-2.78973,43.34107],[-2.78975,43.34096],[-2.78977,43.34076],[-2.78982,43.34047],[-2.78989,43.34023],[-2.79006,43.3398],[-2.79013,43.33968]]}},{"type":"Feature","properties":{"id":236011761,"highway":"tertiary","ref":"BI-3123"},"geometry":{"type":"LineString","coordinates":[[-2.79219,43.33809],[-2.79205,43.33821],[-2.79173,43.33843],[-2.79152,43.33855],[-2.79142,43.33864],[-2.79136,43.33873],[-2.79131,43.33883],[-2.79129,43.33892],[-2.79125,43.33906],[-2.79122,43.33913],[-2.79118,43.33919],[-2.79109,43.33927],[-2.79099,43.33931],[-2.79093,43.33933],[-2.79056,43.33943],[-2.79034,43.3395],[-2.79023,43.33957],[-2.79013,43.33968]]}},{"type":"Feature","properties":{"id":236011767,"highway":"tertiary","ref":"BI-3123"},"geometry":{"type":"LineString","coordinates":[[-2.79747,43.33648],[-2.79734,43.33654],[-2.79704,43.33669],[-2.79688,43.33675],[-2.79669,43.3368],[-2.79643,43.33684],[-2.7962,43.33686],[-2.79594,43.33687],[-2.79557,43.33681],[-2.79531,43.33675],[-2.79516,43.33671],[-2.79464,43.33655],[-2.79443,43.33649],[-2.79427,43.33645],[-2.7941,43.3364],[-2.79397,43.33638],[-2.79377,43.33636],[-2.79358,43.33639],[-2.79346,43.33641],[-2.79329,43.33647],[-2.79308,43.3366],[-2.79279,43.3368],[-2.79262,43.33695],[-2.79254,43.33706],[-2.7925,43.3372],[-2.79251,43.33733],[-2.79253,43.33741],[-2.79253,43.33751],[-2.79253,43.33757],[-2.79254,43.33767],[-2.79249,43.33778],[-2.79239,43.33788],[-2.79229,43.33799],[-2.79219,43.33809]]}},{"type":"Feature","properties":{"id":236011772,"highway":"tertiary","ref":"BI-3123"},"geometry":{"type":"LineString","coordinates":[[-2.79747,43.33648],[-2.79747,43.33648]]}},{"type":"Feature","properties":{"id":236011774,"highway":"tertiary","ref":"BI-3123"},"geometry":{"type":"LineString","coordinates":[[-2.78715,43.33985],[-2.78715,43.33985]]}},{"type":"Feature","properties":{"id":236014296,"highway":"residential","nombre":"Aldai auzoa","izena_eu":"Aldai auzoa","nombre_es":"Barrio Aldai"},"geometry":{"type":"LineString","coordinates":[[-2.78346,43.33003],[-2.78339,43.33016]]}},{"type":"Feature","properties":{"id":236014297,"highway":"residential","nombre":"Aldai auzoa","izena_eu":"Aldai auzoa","nombre_es":"Barrio Aldai"},"geometry":{"type":"LineString","coordinates":[[-2.7837,43.32958],[-2.78353,43.32991],[-2.78346,43.33003]]}},{"type":"Feature","properties":{"id":236014299,"highway":"residential","nombre":"Aldai auzoa","izena_eu":"Aldai auzoa","nombre_es":"Barrio Aldai"},"geometry":{"type":"LineString","coordinates":[[-2.78416,43.3287],[-2.78424,43.32854]]}},{"type":"Feature","properties":{"id":236014301,"highway":"residential","nombre":"Aldai auzoa","izena_eu":"Aldai auzoa","nombre_es":"Barrio Aldai"},"geometry":{"type":"LineString","coordinates":[[-2.78391,43.32918],[-2.7837,43.32958]]}},{"type":"Feature","properties":{"id":236014314,"highway":"residential","nombre":"Aldai auzoa","izena_eu":"Aldai auzoa","nombre_es":"Barrio Aldai"},"geometry":{"type":"LineString","coordinates":[[-2.78391,43.32918],[-2.78398,43.32904],[-2.78416,43.3287]]}},{"type":"Feature","properties":{"id":236014318,"highway":"residential","nombre":"Aldai auzoa","izena_eu":"Aldai auzoa","nombre_es":"Barrio Aldai"},"geometry":{"type":"LineString","coordinates":[[-2.78424,43.32854],[-2.78427,43.32847],[-2.78437,43.32828],[-2.78445,43.3281],[-2.78461,43.32783],[-2.78463,43.32778],[-2.78469,43.32775],[-2.78475,43.32775]]}},{"type":"Feature","properties":{"id":236014321,"highway":"unclassified"},"geometry":{"type":"LineString","coordinates":[[-2.78135,43.33176],[-2.78115,43.33186],[-2.78075,43.33212],[-2.78057,43.33223],[-2.78041,43.33235],[-2.78034,43.33242],[-2.78022,43.33254]]}},{"type":"Feature","properties":{"id":236014323,"highway":"residential","nombre":"Aldai auzoa","izena_eu":"Aldai auzoa","nombre_es":"Barrio Aldai"},"geometry":{"type":"LineString","coordinates":[[-2.78209,43.33152],[-2.78192,43.33158],[-2.78181,43.33165],[-2.78174,43.33167],[-2.78155,43.33173],[-2.78143,43.33175],[-2.78135,43.33176]]}},{"type":"Feature","properties":{"id":236014335,"highway":"residential","nombre":"Aldai auzoa","izena_eu":"Aldai auzoa","nombre_es":"Barrio Aldai"},"geometry":{"type":"LineString","coordinates":[[-2.78339,43.33016],[-2.78315,43.3306],[-2.78298,43.33082],[-2.78283,43.33099],[-2.78274,43.33113],[-2.7827,43.33123],[-2.78265,43.33132],[-2.78258,43.33138],[-2.78251,43.33141],[-2.78225,43.33147],[-2.78209,43.33152]]}},{"type":"Feature","properties":{"id":236017291,"highway":"service"},"geometry":{"type":"LineString","coordinates":[[-2.78449,43.3303],[-2.78455,43.33031],[-2.78469,43.33036],[-2.78478,43.3304],[-2.78484,43.33043],[-2.78489,43.33047],[-2.78492,43.33051],[-2.78496,43.33057],[-2.785,43.33067],[-2.78506,43.33077]]}},{"type":"Feature","properties":{"id":236017294,"highway":"residential","oneway":"yes"},"geometry":{"type":"LineString","coordinates":[[-2.78404,43.33151],[-2.78407,43.33148],[-2.78409,43.33146],[-2.78409,43.33143],[-2.78408,43.3314],[-2.78406,43.33137],[-2.78402,43.33135],[-2.78398,43.33135],[-2.78394,43.33135],[-2.78391,43.33136],[-2.78388,43.33138],[-2.78386,43.3314],[-2.78385,43.33143],[-2.78385,43.33146],[-2.78387,43.33148],[-2.78389,43.3315],[-2.78393,43.33152],[-2.78396,43.33152],[-2.784,43.33152],[-2.78404,43.33151]]}},{"type":"Feature","properties":{"id":236017303,"highway":"residential","nombre":"Aldai auzoa","izena_eu":"Aldai auzoa","nombre_es":"Barrio Aldai"},"geometry":{"type":"LineString","coordinates":[[-2.78346,43.33003],[-2.7835,43.33004],[-2.7836,43.33007],[-2.78369,43.33011],[-2.78377,43.33014],[-2.78389,43.33018],[-2.78403,43.33023]]}},{"type":"Feature","properties":{"id":236017304,"highway":"residential","nombre":"Aldai auzoa","izena_eu":"Aldai auzoa","nombre_es":"Barrio Aldai"},"geometry":{"type":"LineString","coordinates":[[-2.78352,43.32854],[-2.78339,43.3285],[-2.78331,43.32849],[-2.78324,43.32851],[-2.78318,43.32854],[-2.78313,43.3286],[-2.78309,43.32869],[-2.78284,43.32918],[-2.78251,43.32983],[-2.7825,43.32988],[-2.78252,43.32991],[-2.78258,43.32994],[-2.78271,43.32998],[-2.78287,43.33002],[-2.78332,43.33014],[-2.78336,43.33015],[-2.78339,43.33016]]}},{"type":"Feature","properties":{"id":236017311,"highway":"unclassified","nombre":"Aldai auzoa","izena_eu":"Aldai auzoa","nombre_es":"Barrio Aldai"},"geometry":{"type":"LineString","coordinates":[[-2.78449,43.3303],[-2.78455,43.33036],[-2.78466,43.33047],[-2.78472,43.33054],[-2.78478,43.33064],[-2.78483,43.33073],[-2.78489,43.33091],[-2.78509,43.33121],[-2.78532,43.33153],[-2.78554,43.33173],[-2.78564,43.33181],[-2.7858,43.33191],[-2.7859,43.33196]]}},{"type":"Feature","properties":{"id":236017313,"highway":"track"},"geometry":{"type":"LineString","coordinates":[[-2.78209,43.33152],[-2.78204,43.33149],[-2.7819,43.33125],[-2.7818,43.3311],[-2.78177,43.33105]]}},{"type":"Feature","properties":{"id":236017315,"highway":"unclassified"},"geometry":{"type":"LineString","coordinates":[[-2.79219,43.33809],[-2.79208,43.33814],[-2.79194,43.33816],[-2.79149,43.33827],[-2.79106,43.33836],[-2.79045,43.33843],[-2.78992,43.33846],[-2.78947,43.33846],[-2.78913,43.33844],[-2.78909,43.33843],[-2.78902,43.33843],[-2.78847,43.33841],[-2.78809,43.3384],[-2.78785,43.3384],[-2.78771,43.33838],[-2.78755,43.33834]]}},{"type":"Feature","properties":{"id":236017324,"highway":"unclassified"},"geometry":{"type":"LineString","coordinates":[[-2.7859,43.33196],[-2.78601,43.33204],[-2.78617,43.33231],[-2.78625,43.33245],[-2.78651,43.33288],[-2.78662,43.3331],[-2.78662,43.33319],[-2.7866,43.33326],[-2.78651,43.33345],[-2.78627,43.33376],[-2.78596,43.33417],[-2.7858,43.33438],[-2.7856,43.33459],[-2.78545,43.33481],[-2.78538,43.33497],[-2.78534,43.33504]]}},{"type":"Feature","properties":{"id":236017327,"highway":"residential","nombre":"Aldai auzoa","izena_eu":"Aldai auzoa","nombre_es":"Barrio Aldai"},"geometry":{"type":"LineString","coordinates":[[-2.78209,43.33152],[-2.78213,43.3316],[-2.78217,43.33164],[-2.78223,43.33167],[-2.78233,43.33171],[-2.78244,43.33174],[-2.78271,43.33181]]}},{"type":"Feature","properties":{"id":236017331,"highway":"path"},"geometry":{"type":"LineString","coordinates":[[-2.78373,43.32857],[-2.78417,43.32769]]}},{"type":"Feature","properties":{"id":236017332,"highway":"residential","nombre":"Aldai auzoa","izena_eu":"Aldai auzoa","nombre_es":"Barrio Aldai"},"geometry":{"type":"LineString","coordinates":[[-2.78416,43.3287],[-2.7841,43.32869],[-2.78372,43.32859]]}},{"type":"Feature","properties":{"id":236017333,"highway":"residential","nombre":"Aldai auzoa","izena_eu":"Aldai auzoa","nombre_es":"Barrio Aldai"},"geometry":{"type":"LineString","coordinates":[[-2.78352,43.32854],[-2.78353,43.32851],[-2.78358,43.32841],[-2.78381,43.32797]]}},{"type":"Feature","properties":{"id":236017334,"highway":"residential","nombre":"Aldai auzoa","izena_eu":"Aldai auzoa","nombre_es":"Barrio Aldai"},"geometry":{"type":"LineString","coordinates":[[-2.78372,43.32859],[-2.78352,43.32854]]}},{"type":"Feature","properties":{"id":236017339,"highway":"service"},"geometry":{"type":"LineString","coordinates":[[-2.79013,43.33968],[-2.79016,43.33977],[-2.79019,43.34],[-2.79038,43.34035],[-2.79038,43.34046],[-2.7904,43.34057],[-2.79041,43.34064],[-2.79042,43.34074],[-2.79039,43.34082],[-2.79033,43.34093],[-2.79029,43.34107],[-2.79022,43.34126],[-2.79018,43.34141],[-2.79016,43.34144],[-2.79013,43.34152],[-2.79007,43.34158],[-2.78999,43.34165],[-2.78995,43.34175],[-2.78995,43.3418],[-2.79002,43.34194],[-2.79005,43.34204]]}},{"type":"Feature","properties":{"id":236017343,"highway":"service"},"geometry":{"type":"LineString","coordinates":[[-2.79591,43.3315],[-2.79593,43.33156],[-2.79598,43.33159],[-2.79604,43.33162],[-2.79612,43.33164],[-2.79623,43.33166],[-2.79629,43.33167],[-2.79643,43.33168],[-2.79653,43.33169],[-2.79677,43.33172],[-2.79691,43.33173],[-2.797,43.33172],[-2.79709,43.33172],[-2.79724,43.33172],[-2.79737,43.33171],[-2.79748,43.33169],[-2.79759,43.33165],[-2.79774,43.33161],[-2.79791,43.33154],[-2.79809,43.33147],[-2.79823,43.33142],[-2.79836,43.33137]]}},{"type":"Feature","properties":{"id":236017345,"highway":"service"},"geometry":{"type":"LineString","coordinates":[[-2.79876,43.3342],[-2.79876,43.3342]]}},{"type":"Feature","properties":{"id":236017353,"highway":"unclassified"},"geometry":{"type":"LineString","coordinates":[[-2.78639,43.33716],[-2.78642,43.33719]]}},{"type":"Feature","properties":{"id":236017356,"highway":"service"},"geometry":{"type":"LineString","coordinates":[[-2.78683,43.33786],[-2.7869,43.33788],[-2.78696,43.33789]]}},{"type":"Feature","properties":{"id":236017358,"highway":"residential"},"geometry":{"type":"LineString","coordinates":[[-2.78394,43.33135],[-2.78392,43.33128],[-2.78386,43.33106],[-2.78387,43.33101],[-2.78396,43.33057],[-2.78403,43.33023]]}},{"type":"Feature","properties":{"id":236017363,"highway":"residential"},"geometry":{"type":"LineString","coordinates":[[-2.79042,43.34189],[-2.79039,43.34194],[-2.79036,43.34201],[-2.79034,43.34205]]}},{"type":"Feature","properties":{"id":236017366,"highway":"living_street"},"geometry":{"type":"LineString","coordinates":[[-2.79005,43.34204],[-2.79009,43.34204],[-2.79013,43.34204],[-2.79034,43.34205]]}},{"type":"Feature","properties":{"id":236017367,"highway":"path"},"geometry":{"type":"LineString","coordinates":[[-2.7837,43.32862],[-2.78351,43.32899],[-2.78362,43.3291],[-2.78391,43.32918]]}},{"type":"Feature","properties":{"id":236017368,"highway":"service"},"geometry":{"type":"LineString","coordinates":[[-2.78135,43.33176],[-2.78106,43.33172],[-2.78085,43.3317],[-2.78063,43.33169]]}},{"type":"Feature","properties":{"id":236017370,"highway":"service"},"geometry":{"type":"LineString","coordinates":[[-2.7859,43.33196],[-2.78607,43.3319],[-2.78623,43.33185],[-2.78623,43.33178],[-2.78635,43.3317]]}},{"type":"Feature","properties":{"id":236017374,"highway":"service"},"geometry":{"type":"LineString","coordinates":[[-2.79005,43.34204],[-2.79005,43.3421],[-2.79005,43.34216],[-2.79002,43.34226],[-2.78991,43.34236],[-2.78973,43.34248],[-2.78965,43.34252],[-2.7896,43.34258],[-2.78956,43.34267],[-2.78953,43.34279],[-2.78952,43.34284],[-2.78943,43.34295],[-2.78937,43.34299],[-2.78926,43.34302],[-2.78915,43.34302],[-2.78906,43.34299],[-2.78894,43.34292],[-2.7888,43.34285]]}},{"type":"Feature","properties":{"id":236017377,"highway":"residential","nombre":"Aldai auzoa","izena_eu":"Aldai auzoa","nombre_es":"Barrio Aldai"},"geometry":{"type":"LineString","coordinates":[[-2.7837,43.32958],[-2.78375,43.32959],[-2.78392,43.32964],[-2.78398,43.32965],[-2.78404,43.32963]]}},{"type":"Feature","properties":{"id":236017382,"highway":"service"},"geometry":{"type":"LineString","coordinates":[[-2.79953,43.33128],[-2.79931,43.33155],[-2.79914,43.33167],[-2.79898,43.33191],[-2.79884,43.33208]]}},{"type":"Feature","properties":{"id":236017385,"highway":"residential","nombre":"Aldai auzoa","izena_eu":"Aldai auzoa","nombre_es":"Barrio Aldai"},"geometry":{"type":"LineString","coordinates":[[-2.78424,43.32854],[-2.78427,43.32856],[-2.78433,43.3286],[-2.78454,43.32872],[-2.78465,43.3288]]}},{"type":"Feature","properties":{"id":236017391,"highway":"unclassified"},"geometry":{"type":"LineString","coordinates":[[-2.78696,43.33789],[-2.78693,43.33785],[-2.78673,43.3376],[-2.78658,43.3374],[-2.78652,43.33733],[-2.78642,43.33719]]}},{"type":"Feature","properties":{"id":236017394,"highway":"unclassified"},"geometry":{"type":"LineString","coordinates":[[-2.78696,43.33789],[-2.78697,43.3379],[-2.78704,43.33796],[-2.78721,43.33812],[-2.7874,43.33827]]}},{"type":"Feature","properties":{"id":236017399,"highway":"living_street"},"geometry":{"type":"LineString","coordinates":[[-2.79034,43.34205],[-2.79041,43.34207],[-2.79053,43.3421],[-2.79054,43.34209],[-2.79059,43.342],[-2.79061,43.34197],[-2.79042,43.34189],[-2.79042,43.34189]]}},{"type":"Feature","properties":{"id":236017400,"highway":"track"},"geometry":{"type":"LineString","coordinates":[[-2.78056,43.32925],[-2.78053,43.32922]]}},{"type":"Feature","properties":{"id":237999995,"highway":"track"},"geometry":{"type":"LineString","coordinates":[[-2.7817,43.33096],[-2.78164,43.33082],[-2.78159,43.33072],[-2.78155,43.33066],[-2.78132,43.33041],[-2.78119,43.33028],[-2.78109,43.3302],[-2.78104,43.33016],[-2.78099,43.33008],[-2.78092,43.32993],[-2.78088,43.32985],[-2.78077,43.32963],[-2.78064,43.32935],[-2.78056,43.32925]]}},{"type":"Feature","properties":{"id":237999996,"highway":"track","puente":"yes"},"geometry":{"type":"LineString","coordinates":[[-2.78177,43.33105],[-2.7817,43.33096]]}},{"type":"Feature","properties":{"id":239822236,"highway":"residential"},"geometry":{"type":"LineString","coordinates":[[-2.80104,43.33764],[-2.80104,43.33764],[-2.80104,43.33767],[-2.80105,43.33776],[-2.80109,43.33818],[-2.80114,43.33859],[-2.80119,43.33865],[-2.8015,43.33888],[-2.80181,43.33906],[-2.80263,43.33967],[-2.80313,43.34002]]}},{"type":"Feature","properties":{"id":239822237,"highway":"residential"},"geometry":{"type":"LineString","coordinates":[[-2.80345,43.34026],[-2.80345,43.34026]]}},{"type":"Feature","properties":{"id":239822238,"highway":"service"},"geometry":{"type":"LineString","coordinates":[[-2.80011,43.33943],[-2.80001,43.33949],[-2.79992,43.33962],[-2.79983,43.33972],[-2.79976,43.33976],[-2.7997,43.33979],[-2.79965,43.33979],[-2.79963,43.33978],[-2.79954,43.3397],[-2.79949,43.33966],[-2.7994,43.33965],[-2.79933,43.33965]]}},{"type":"Feature","properties":{"id":239822245,"highway":"residential"},"geometry":{"type":"LineString","coordinates":[[-2.80104,43.33763],[-2.80104,43.33764]]}},{"type":"Feature","properties":{"id":239822250,"highway":"residential"},"geometry":{"type":"LineString","coordinates":[[-2.8035,43.33971],[-2.8035,43.33971]]}},{"type":"Feature","properties":{"id":239822254,"highway":"residential"},"geometry":{"type":"LineString","coordinates":[[-2.80345,43.34026],[-2.80313,43.34002]]}},{"type":"Feature","properties":{"id":239822256,"highway":"residential"},"geometry":{"type":"LineString","coordinates":[[-2.80313,43.34002],[-2.8035,43.33971]]}},{"type":"Feature","properties":{"id":239822259,"highway":"service"},"geometry":{"type":"LineString","coordinates":[[-2.80094,43.33757],[-2.80094,43.3377],[-2.80094,43.33775],[-2.80096,43.33797],[-2.80096,43.338],[-2.80099,43.3384],[-2.80101,43.33857],[-2.80102,43.33866],[-2.80102,43.33872],[-2.80101,43.3388],[-2.80098,43.3389],[-2.80091,43.33899],[-2.80084,43.33907],[-2.80075,43.33913],[-2.80053,43.33926],[-2.80035,43.33937],[-2.80028,43.33941],[-2.8002,43.33942],[-2.80015,43.33943],[-2.80011,43.33943]]}},{"type":"Feature","properties":{"id":239822293,"highway":"service"},"geometry":{"type":"LineString","coordinates":[[-2.80094,43.33756],[-2.80094,43.33757]]}},{"type":"Feature","properties":{"id":239822298,"highway":"service"},"geometry":{"type":"LineString","coordinates":[[-2.80011,43.33943],[-2.80009,43.33936],[-2.80007,43.33921],[-2.8,43.33918],[-2.79992,43.3391],[-2.79985,43.33901],[-2.79983,43.33891],[-2.79982,43.33871]]}},{"type":"Feature","properties":{"id":335542017,"highway":"service"},"geometry":{"type":"LineString","coordinates":[[-2.79045,43.32643],[-2.79055,43.32641],[-2.79079,43.32642],[-2.79113,43.32645],[-2.79128,43.32649],[-2.79147,43.32654],[-2.79151,43.32657],[-2.79154,43.3266],[-2.79153,43.32666],[-2.79152,43.32675],[-2.79153,43.32683],[-2.79155,43.32688],[-2.79159,43.32692],[-2.79163,43.32696],[-2.79171,43.327],[-2.79204,43.32714],[-2.79225,43.3272],[-2.79245,43.32725],[-2.79278,43.32734],[-2.79294,43.32741],[-2.79322,43.32755],[-2.79331,43.32757],[-2.79338,43.32757],[-2.79371,43.32753],[-2.79413,43.32751],[-2.79424,43.3275],[-2.79427,43.32744]]}},{"type":"Feature","properties":{"id":335542018,"highway":"service"},"geometry":{"type":"LineString","coordinates":[[-2.79028,43.32649],[-2.79039,43.3266],[-2.79058,43.32675],[-2.79062,43.32681],[-2.79099,43.32724],[-2.79107,43.32729],[-2.79121,43.32738],[-2.79144,43.32748],[-2.79156,43.32753]]}},{"type":"Feature","properties":{"id":335542019,"highway":"track"},"geometry":{"type":"LineString","coordinates":[[-2.79039,43.3266],[-2.79041,43.32672],[-2.79055,43.32694],[-2.79066,43.32715],[-2.79067,43.32717],[-2.79068,43.3272],[-2.79064,43.3273],[-2.79061,43.32736],[-2.7906,43.32745],[-2.79049,43.32756],[-2.79029,43.32759],[-2.79017,43.32767],[-2.7901,43.32773]]}},{"type":"Feature","properties":{"id":335542020,"highway":"path"},"geometry":{"type":"LineString","coordinates":[[-2.79049,43.32756],[-2.79047,43.32767],[-2.79048,43.32783],[-2.79054,43.32794],[-2.79065,43.32808],[-2.7907,43.32814],[-2.79076,43.32829],[-2.79084,43.32844],[-2.79093,43.32852],[-2.79099,43.32856],[-2.79106,43.3287],[-2.79107,43.32889],[-2.79103,43.32909],[-2.79103,43.32932],[-2.79103,43.3296],[-2.79107,43.32977],[-2.79116,43.32991],[-2.79132,43.32999],[-2.79167,43.33003],[-2.79184,43.33006],[-2.79203,43.3301],[-2.79224,43.33008],[-2.79242,43.33009],[-2.7927,43.33014],[-2.79283,43.33015],[-2.79302,43.33013],[-2.79315,43.33013],[-2.79327,43.33009],[-2.79348,43.32998],[-2.79364,43.32991],[-2.79377,43.32988],[-2.79389,43.32984],[-2.79399,43.32981],[-2.79409,43.32974],[-2.79416,43.32971],[-2.79432,43.32963],[-2.79438,43.32961],[-2.7945,43.32958],[-2.79461,43.32954],[-2.7947,43.32951],[-2.79478,43.32946],[-2.79485,43.32937],[-2.79491,43.32928],[-2.79493,43.32919],[-2.79508,43.32896],[-2.79532,43.32861]]}},{"type":"Feature","properties":{"id":335542021,"highway":"track"},"geometry":{"type":"LineString","coordinates":[[-2.78916,43.32457],[-2.78926,43.32453],[-2.78948,43.32448],[-2.78962,43.32446],[-2.7898,43.3245],[-2.79,43.32459],[-2.79027,43.32469],[-2.79046,43.32474],[-2.79066,43.32476],[-2.79092,43.32476],[-2.79117,43.32474],[-2.79163,43.32478],[-2.79217,43.32481],[-2.79248,43.32483]]}},{"type":"Feature","properties":{"id":335542112,"highway":"track"},"geometry":{"type":"LineString","coordinates":[[-2.7828,43.32058],[-2.7827,43.32065],[-2.78262,43.32075],[-2.7825,43.32089],[-2.78239,43.32096],[-2.78211,43.3211],[-2.78192,43.32117],[-2.78176,43.32119],[-2.7815,43.32118],[-2.78129,43.3212],[-2.78111,43.32129],[-2.78088,43.3214],[-2.78055,43.32167]]}},{"type":"Feature","properties":{"id":338849541,"highway":"service"},"geometry":{"type":"LineString","coordinates":[[-2.78309,43.33244],[-2.78309,43.33263],[-2.78305,43.33287],[-2.78302,43.33308],[-2.78302,43.33328],[-2.78303,43.33334],[-2.78311,43.33338],[-2.7832,43.33338]]}},{"type":"Feature","properties":{"id":338849542,"highway":"service"},"geometry":{"type":"LineString","coordinates":[[-2.78271,43.33181],[-2.78285,43.33188],[-2.7829,43.33192],[-2.783,43.33201],[-2.78304,43.3321],[-2.78309,43.33223],[-2.7831,43.3323],[-2.78309,43.33244]]}},{"type":"Feature","properties":{"id":338849543,"highway":"unclassified","nombre":"Aldai auzoa","izena_eu":"Aldai auzoa","nombre_es":"Barrio Aldai"},"geometry":{"type":"LineString","coordinates":[[-2.78403,43.33023],[-2.78418,43.33024],[-2.78435,43.33026],[-2.7844,43.33027],[-2.78449,43.3303]]}},{"type":"Feature","properties":{"id":338851218,"highway":"service"},"geometry":{"type":"LineString","coordinates":[[-2.79562,43.31655],[-2.79581,43.31661],[-2.79587,43.31663]]}},{"type":"Feature","properties":{"id":338851219,"highway":"service","superficie":"ground"},"geometry":{"type":"LineString","coordinates":[[-2.79625,43.31638],[-2.79641,43.31632],[-2.7965,43.31631],[-2.79663,43.31633],[-2.79674,43.31634],[-2.79694,43.31633],[-2.79705,43.31635],[-2.79712,43.31638],[-2.79722,43.31644],[-2.79734,43.31657]]}},{"type":"Feature","properties":{"id":340724210,"highway":"secondary","ref":"BI-2121","oneway":"no","superficie":"asphalt"},"geometry":{"type":"LineString","coordinates":[[-2.79116,43.33118],[-2.79085,43.33114],[-2.78981,43.331],[-2.7896,43.33096],[-2.78945,43.33089],[-2.78925,43.33078],[-2.7889,43.33052],[-2.7889,43.33052],[-2.78855,43.33026],[-2.78824,43.33004],[-2.788,43.3299],[-2.78736,43.32953],[-2.78715,43.32942]]}},{"type":"Feature","properties":{"id":340724211,"highway":"secondary","ref":"BI-2121","oneway":"no","superficie":"artificial_turf"},"geometry":{"type":"LineString","coordinates":[[-2.78715,43.32942],[-2.78673,43.32918],[-2.78599,43.32876],[-2.78556,43.32852],[-2.78545,43.32845],[-2.78532,43.32837],[-2.78522,43.32829],[-2.78504,43.32808],[-2.78498,43.32802]]}},{"type":"Feature","properties":{"id":340724212,"highway":"secondary","ref":"BI-2121","superficie":"asphalt"},"geometry":{"type":"LineString","coordinates":[[-2.78364,43.32554],[-2.78347,43.32521],[-2.78337,43.32507],[-2.78327,43.3249],[-2.78318,43.32476],[-2.78313,43.32472],[-2.78305,43.32467],[-2.78285,43.32463],[-2.78247,43.32457],[-2.78209,43.32452],[-2.78179,43.32447],[-2.78154,43.32443],[-2.78138,43.32442],[-2.78125,43.32443],[-2.78114,43.32446],[-2.781,43.3245],[-2.78079,43.32459],[-2.78018,43.32487],[-2.77997,43.32495]]}},{"type":"Feature","properties":{"id":340941975,"highway":"track"},"geometry":{"type":"LineString","coordinates":[[-2.79156,43.32753],[-2.7916,43.32759],[-2.79164,43.32762],[-2.7917,43.32764],[-2.79177,43.32764],[-2.79189,43.32764],[-2.79196,43.32765],[-2.792,43.32766],[-2.79205,43.32768],[-2.79212,43.32774],[-2.79227,43.32789],[-2.79239,43.32803],[-2.79239,43.32808],[-2.79235,43.32816],[-2.79232,43.32825],[-2.79233,43.32833],[-2.79238,43.32841],[-2.79247,43.32852],[-2.79257,43.3286],[-2.79265,43.32868]]}},{"type":"Feature","properties":{"id":345934202,"highway":"service"},"geometry":{"type":"LineString","coordinates":[[-2.78315,43.3306],[-2.7832,43.33063]]}},{"type":"Feature","properties":{"id":346236554,"highway":"service"},"geometry":{"type":"LineString","coordinates":[[-2.79544,43.32037],[-2.79539,43.32028],[-2.79538,43.3198],[-2.79527,43.31966],[-2.79505,43.31956],[-2.79492,43.31948],[-2.79485,43.3194],[-2.79476,43.31927],[-2.79469,43.31912],[-2.7947,43.31896],[-2.79477,43.31885]]}},{"type":"Feature","properties":{"id":346236555,"highway":"service","superficie":"concrete"},"geometry":{"type":"LineString","coordinates":[[-2.8083,43.32063],[-2.80813,43.32064],[-2.80807,43.32063],[-2.80771,43.32043],[-2.80763,43.32041],[-2.80755,43.32044]]}},{"type":"Feature","properties":{"id":370160116,"highway":"service"},"geometry":{"type":"LineString","coordinates":[[-2.79068,43.32233],[-2.79061,43.32226],[-2.79057,43.32219],[-2.79059,43.32212],[-2.79068,43.32194]]}},{"type":"Feature","properties":{"id":370160146,"highway":"service"},"geometry":{"type":"LineString","coordinates":[[-2.79164,43.3217],[-2.79182,43.32159],[-2.79195,43.32152],[-2.79212,43.32142],[-2.79222,43.32133],[-2.79228,43.32123],[-2.79229,43.32115],[-2.79227,43.3211],[-2.79222,43.32105],[-2.79213,43.32103],[-2.79205,43.32109]]}},{"type":"Feature","properties":{"id":370579019,"highway":"service"},"geometry":{"type":"LineString","coordinates":[[-2.79549,43.32522],[-2.7955,43.32528],[-2.79558,43.32584]]}},{"type":"Feature","properties":{"id":370579403,"highway":"service"},"geometry":{"type":"LineString","coordinates":[[-2.80034,43.32507],[-2.80046,43.32501],[-2.80056,43.32494],[-2.80075,43.32486],[-2.80082,43.32483],[-2.80088,43.32483],[-2.80107,43.32477]]}},{"type":"Feature","properties":{"id":370579628,"highway":"unclassified"},"geometry":{"type":"LineString","coordinates":[[-2.79972,43.32412],[-2.79966,43.32395],[-2.79953,43.32373],[-2.79946,43.32363],[-2.79937,43.32352],[-2.79935,43.32347],[-2.79934,43.32343],[-2.79935,43.3234]]}},{"type":"Feature","properties":{"id":370579629,"highway":"unclassified","puente":"yes"},"geometry":{"type":"LineString","coordinates":[[-2.79974,43.32418],[-2.79972,43.32412]]}},{"type":"Feature","properties":{"id":370581887,"highway":"track"},"geometry":{"type":"LineString","coordinates":[[-2.79828,43.32961],[-2.7982,43.32958],[-2.79813,43.32951],[-2.79807,43.32947],[-2.79799,43.32938],[-2.79792,43.32934],[-2.79775,43.32926],[-2.79745,43.3292],[-2.79708,43.32912],[-2.79688,43.32908],[-2.79669,43.32909],[-2.79636,43.32914]]}},{"type":"Feature","properties":{"id":370581888,"highway":"track"},"geometry":{"type":"LineString","coordinates":[[-2.79871,43.32909],[-2.79863,43.329],[-2.79851,43.32885],[-2.79844,43.32876],[-2.79836,43.32869],[-2.79827,43.32861],[-2.79823,43.32853],[-2.79822,43.3285]]}},{"type":"Feature","properties":{"id":375229412,"highway":"service"},"geometry":{"type":"LineString","coordinates":[[-2.79229,43.33799],[-2.79237,43.33802],[-2.7926,43.33807],[-2.7927,43.33811],[-2.79272,43.33816],[-2.7927,43.33823],[-2.79255,43.33839],[-2.79242,43.33856],[-2.79229,43.33878],[-2.79226,43.33883]]}},{"type":"Feature","properties":{"id":375229413,"highway":"track"},"geometry":{"type":"LineString","coordinates":[[-2.79042,43.34074],[-2.79055,43.34068],[-2.79077,43.34062],[-2.7909,43.34059],[-2.79107,43.34056],[-2.79123,43.3405],[-2.79159,43.34034],[-2.79178,43.34027],[-2.79207,43.34025]]}},{"type":"Feature","properties":{"id":375229414,"highway":"track"},"geometry":{"type":"LineString","coordinates":[[-2.79226,43.33883],[-2.7924,43.33898],[-2.7925,43.33916],[-2.79257,43.33937],[-2.79259,43.3396],[-2.79254,43.3398],[-2.79238,43.34004],[-2.79221,43.34018],[-2.79207,43.34025]]}},{"type":"Feature","properties":{"id":385979210,"highway":"track"},"geometry":{"type":"LineString","coordinates":[[-2.79667,43.31609],[-2.79671,43.31599],[-2.7968,43.31586],[-2.79684,43.31574],[-2.79685,43.31566],[-2.79683,43.31554],[-2.79681,43.31543],[-2.79678,43.31538],[-2.79672,43.31533],[-2.79663,43.31524],[-2.79648,43.31519]]}},{"type":"Feature","properties":{"id":385980380,"highway":"track"},"geometry":{"type":"LineString","coordinates":[[-2.79537,43.31391],[-2.79545,43.31391],[-2.79565,43.31395],[-2.79591,43.31397],[-2.79618,43.31401],[-2.79644,43.31404],[-2.79657,43.31407],[-2.79666,43.31409],[-2.79673,43.31409],[-2.79681,43.31407],[-2.79685,43.31406],[-2.79691,43.31407],[-2.79718,43.31414],[-2.79732,43.31417],[-2.79748,43.3142],[-2.79764,43.31425],[-2.79796,43.31439],[-2.79808,43.31444],[-2.79818,43.31448],[-2.79834,43.31455],[-2.79841,43.3146],[-2.79851,43.31467],[-2.7986,43.31467],[-2.79866,43.31471]]}},{"type":"Feature","properties":{"id":386191320,"highway":"path"},"geometry":{"type":"LineString","coordinates":[[-2.8051,43.31747],[-2.80497,43.31748],[-2.80484,43.31748],[-2.80474,43.31756],[-2.8047,43.31764],[-2.80443,43.31776],[-2.80418,43.31781],[-2.80399,43.31791],[-2.80384,43.31804],[-2.80356,43.31811]]}},{"type":"Feature","properties":{"id":386197202,"highway":"track"},"geometry":{"type":"LineString","coordinates":[[-2.80226,43.31806],[-2.80234,43.31805],[-2.80235,43.318],[-2.80233,43.31787],[-2.80231,43.31775],[-2.80235,43.31767],[-2.80242,43.31765],[-2.80257,43.31767],[-2.80276,43.31772],[-2.80295,43.31776],[-2.80307,43.31781],[-2.80324,43.31789],[-2.80338,43.31798],[-2.80348,43.31806],[-2.80356,43.31811],[-2.80364,43.31819],[-2.80375,43.31835],[-2.80382,43.31845]]}},{"type":"Feature","properties":{"id":386197203,"highway":"track"},"geometry":{"type":"LineString","coordinates":[[-2.79935,43.3234],[-2.79915,43.3234],[-2.79883,43.32341],[-2.79861,43.32344],[-2.79839,43.3235],[-2.79815,43.32359],[-2.79793,43.32372],[-2.79777,43.32385],[-2.79757,43.32399],[-2.79735,43.32418],[-2.7972,43.32434],[-2.7971,43.32444],[-2.797,43.32452],[-2.79683,43.32462],[-2.79669,43.32467],[-2.79648,43.32473],[-2.79632,43.32475],[-2.79609,43.32474],[-2.79594,43.32476],[-2.79574,43.32479],[-2.79556,43.32482],[-2.79537,43.32485],[-2.79514,43.32489],[-2.79484,43.32493],[-2.79459,43.32495],[-2.79444,43.32495],[-2.79417,43.32493],[-2.79392,43.32491],[-2.79356,43.32489],[-2.79334,43.32488],[-2.79311,43.32486],[-2.79292,43.32484],[-2.79266,43.32483],[-2.79248,43.32483]]}},{"type":"Feature","properties":{"id":407708589,"highway":"track"},"geometry":{"type":"LineString","coordinates":[[-2.79067,43.32717],[-2.79077,43.3272],[-2.79088,43.32722],[-2.79094,43.32725],[-2.79102,43.32731],[-2.79118,43.3274],[-2.79143,43.32751],[-2.79156,43.3276],[-2.79164,43.32762]]}},{"type":"Feature","properties":{"id":484736758,"highway":"track"},"geometry":{"type":"LineString","coordinates":[[-2.80742,43.32248],[-2.80751,43.32233],[-2.8075,43.32225],[-2.80743,43.3222],[-2.80729,43.32212]]}},{"type":"Feature","properties":{"id":487684458,"highway":"track"},"geometry":{"type":"LineString","coordinates":[[-2.7888,43.34285],[-2.78868,43.34286],[-2.78849,43.3429],[-2.78829,43.34297],[-2.78798,43.3431],[-2.78771,43.34322],[-2.78758,43.34328]]}},{"type":"Feature","properties":{"id":487684459,"highway":"track"},"geometry":{"type":"LineString","coordinates":[[-2.78952,43.34284],[-2.78956,43.34289],[-2.78961,43.34301],[-2.78965,43.34318],[-2.78968,43.34332]]}},{"type":"Feature","properties":{"id":487685440,"highway":"footway"},"geometry":{"type":"LineString","coordinates":[[-2.78506,43.32801],[-2.78509,43.32802],[-2.7852,43.32799],[-2.78525,43.328],[-2.78541,43.32814],[-2.78554,43.32822],[-2.78577,43.32832],[-2.78602,43.32853],[-2.78623,43.32856],[-2.78632,43.3285]]}},{"type":"Feature","properties":{"id":487685441,"highway":"footway"},"geometry":{"type":"LineString","coordinates":[[-2.78577,43.32832],[-2.78555,43.32812]]}},{"type":"Feature","properties":{"id":601761994,"highway":"track"},"geometry":{"type":"LineString","coordinates":[[-2.78366,43.32475],[-2.7836,43.32475],[-2.7835,43.32474],[-2.7833,43.32468],[-2.78315,43.32465],[-2.7831,43.32465],[-2.78305,43.32467]]}},{"type":"Feature","properties":{"id":601761997,"highway":"service"},"geometry":{"type":"LineString","coordinates":[[-2.78439,43.32509],[-2.78431,43.32501],[-2.78424,43.32492],[-2.78414,43.32473],[-2.78411,43.32465],[-2.78407,43.32458]]}},{"type":"Feature","properties":{"id":601761998,"highway":"service"},"geometry":{"type":"LineString","coordinates":[[-2.78439,43.32509],[-2.78443,43.32493],[-2.78449,43.32475]]}},{"type":"Feature","properties":{"id":602549823,"highway":"secondary","ref":"BI-2121","oneway":"no","superficie":"asphalt"},"geometry":{"type":"LineString","coordinates":[[-2.79255,43.33117],[-2.79157,43.3312],[-2.79129,43.33119],[-2.79116,43.33118]]}},{"type":"Feature","properties":{"id":602549824,"highway":"service"},"geometry":{"type":"LineString","coordinates":[[-2.78465,43.3288],[-2.78477,43.32886],[-2.78512,43.32903]]}},{"type":"Feature","properties":{"id":626877065,"highway":"track"},"geometry":{"type":"LineString","coordinates":[[-2.80343,43.32187],[-2.80362,43.3218],[-2.8039,43.32174],[-2.80414,43.32167],[-2.80436,43.32159],[-2.8045,43.32156],[-2.8046,43.32152],[-2.80486,43.32139],[-2.80497,43.3213],[-2.80511,43.32122],[-2.80527,43.32113],[-2.80542,43.32102]]}},{"type":"Feature","properties":{"id":626877067,"highway":"path"},"geometry":{"type":"LineString","coordinates":[[-2.80542,43.32102],[-2.80548,43.32097],[-2.80551,43.32092],[-2.80549,43.32088],[-2.80532,43.32077],[-2.80511,43.32052],[-2.80506,43.32042],[-2.80505,43.32028],[-2.80503,43.32015],[-2.805,43.32007],[-2.80491,43.31997],[-2.80485,43.31989],[-2.80484,43.31978],[-2.8048,43.31966],[-2.8047,43.31948],[-2.80462,43.31931],[-2.80452,43.31917],[-2.80445,43.31901],[-2.80445,43.31891],[-2.80448,43.31876],[-2.80454,43.31859],[-2.8046,43.31849],[-2.80463,43.31847],[-2.80474,43.31845],[-2.80484,43.31837],[-2.80489,43.31828],[-2.80491,43.31824],[-2.80484,43.31815],[-2.80483,43.31806],[-2.80485,43.31797],[-2.80493,43.31781],[-2.80499,43.31772],[-2.80509,43.31758],[-2.8051,43.31753],[-2.8051,43.31747]]}},{"type":"Feature","properties":{"id":641180548,"highway":"track"},"geometry":{"type":"LineString","coordinates":[[-2.79587,43.31663],[-2.79605,43.31662],[-2.79622,43.31661],[-2.79626,43.31659],[-2.79628,43.31655],[-2.79625,43.31638]]}},{"type":"Feature","properties":{"id":641180549,"highway":"service"},"geometry":{"type":"LineString","coordinates":[[-2.79625,43.31638],[-2.79608,43.31635]]}},{"type":"Feature","properties":{"id":641180555,"highway":"track"},"geometry":{"type":"LineString","coordinates":[[-2.79625,43.31638],[-2.79638,43.31646],[-2.79656,43.31658],[-2.79672,43.31669],[-2.79678,43.31676],[-2.79688,43.31686],[-2.79697,43.31698]]}},{"type":"Feature","properties":{"id":646846982,"highway":"service"},"geometry":{"type":"LineString","coordinates":[[-2.79068,43.32233],[-2.79077,43.32243],[-2.79079,43.32251],[-2.79055,43.32295]]}},{"type":"Feature","properties":{"id":646846987,"highway":"service"},"geometry":{"type":"LineString","coordinates":[[-2.7902,43.32642],[-2.79014,43.32653],[-2.79005,43.32662],[-2.79001,43.32666],[-2.78987,43.32665],[-2.78971,43.32664]]}},{"type":"Feature","properties":{"id":646846988,"highway":"service"},"geometry":{"type":"LineString","coordinates":[[-2.79041,43.32672],[-2.79034,43.32675],[-2.79028,43.32677],[-2.79017,43.32682],[-2.79012,43.3269]]}},{"type":"Feature","properties":{"id":647882708,"highway":"path"},"geometry":{"type":"LineString","coordinates":[[-2.8051,43.31747],[-2.8051,43.31747]]}},{"type":"Feature","properties":{"id":647882709,"highway":"unclassified"},"geometry":{"type":"LineString","coordinates":[[-2.80356,43.32216],[-2.80354,43.32209],[-2.80343,43.32187]]}},{"type":"Feature","properties":{"id":647882710,"highway":"unclassified"},"geometry":{"type":"LineString","coordinates":[[-2.79935,43.3234],[-2.7994,43.32339]]}},{"type":"Feature","properties":{"id":647882711,"highway":"track"},"geometry":{"type":"LineString","coordinates":[[-2.79248,43.32483],[-2.7926,43.32461],[-2.79252,43.32445],[-2.79252,43.32438],[-2.79256,43.32426],[-2.79282,43.32402],[-2.7929,43.32393],[-2.79291,43.3238],[-2.79297,43.32366],[-2.79304,43.3236],[-2.79316,43.32361],[-2.79344,43.32373],[-2.79349,43.32371],[-2.7934,43.32354]]}},{"type":"Feature","properties":{"id":647882712,"highway":"tertiary","ref":"BI-4118"},"geometry":{"type":"LineString","coordinates":[[-2.78919,43.32472],[-2.78917,43.32463],[-2.78916,43.32457]]}},{"type":"Feature","properties":{"id":647882713,"highway":"tertiary","ref":"BI-4118"},"geometry":{"type":"LineString","coordinates":[[-2.78612,43.32561],[-2.78621,43.32559],[-2.78634,43.32561],[-2.78643,43.32567],[-2.78653,43.32578],[-2.78662,43.32588],[-2.7867,43.32594],[-2.78685,43.32603],[-2.78702,43.32608],[-2.7872,43.32613],[-2.78726,43.32614],[-2.78773,43.32618],[-2.78808,43.32621],[-2.78839,43.32624],[-2.78847,43.32625],[-2.78856,43.32625],[-2.78874,43.32626],[-2.7889,43.32623],[-2.78914,43.32615],[-2.7894,43.32605],[-2.78947,43.32602],[-2.78957,43.32597],[-2.78963,43.32592],[-2.78966,43.32588],[-2.78968,43.32579],[-2.78967,43.32571],[-2.78961,43.32558],[-2.7895,43.32536],[-2.78933,43.325],[-2.78919,43.32472]]}},{"type":"Feature","properties":{"id":647882714,"highway":"tertiary","ref":"BI-4118"},"geometry":{"type":"LineString","coordinates":[[-2.78647,43.32671],[-2.78653,43.32667],[-2.7866,43.32656],[-2.7866,43.32653],[-2.78659,43.32645],[-2.78656,43.32637],[-2.78649,43.3263],[-2.78642,43.32623],[-2.78624,43.32611],[-2.78612,43.32604],[-2.786,43.32595],[-2.78595,43.32586],[-2.78593,43.32578],[-2.78594,43.32574],[-2.78601,43.32566],[-2.78612,43.32561]]}},{"type":"Feature","properties":{"id":647882717,"highway":"secondary","ref":"BI-2121","oneway":"no","superficie":"asphalt"},"geometry":{"type":"LineString","coordinates":[[-2.78464,43.32759],[-2.78458,43.32751],[-2.78446,43.32736],[-2.7844,43.32728],[-2.78436,43.32723],[-2.78393,43.32666],[-2.78386,43.32656],[-2.78384,43.32649]]}},{"type":"Feature","properties":{"id":652964968,"highway":"service"},"geometry":{"type":"LineString","coordinates":[[-2.79669,43.3368],[-2.79671,43.33715]]}},{"type":"Feature","properties":{"id":652964988,"highway":"service"},"geometry":{"type":"LineString","coordinates":[[-2.79443,43.33649],[-2.79456,43.33629],[-2.79456,43.33624],[-2.7945,43.33618],[-2.79414,43.3361]]}},{"type":"Feature","properties":{"id":652964992,"highway":"service"},"geometry":{"type":"LineString","coordinates":[[-2.79531,43.33675],[-2.79536,43.33693],[-2.79534,43.33699],[-2.79455,43.33743],[-2.79449,43.33744],[-2.79437,43.33738],[-2.79436,43.33734],[-2.79434,43.33723]]}},{"type":"Feature","properties":{"id":652964996,"highway":"service"},"geometry":{"type":"LineString","coordinates":[[-2.7925,43.33691],[-2.79236,43.3368],[-2.79228,43.33678],[-2.79219,43.33679],[-2.79213,43.33685]]}},{"type":"Feature","properties":{"id":652964997,"highway":"service"},"geometry":{"type":"LineString","coordinates":[[-2.79262,43.33695],[-2.7925,43.33691],[-2.79219,43.33695]]}},{"type":"Feature","properties":{"id":652965001,"highway":"track"},"geometry":{"type":"LineString","coordinates":[[-2.78909,43.33843],[-2.78897,43.33857],[-2.78885,43.33876]]}},{"type":"Feature","properties":{"id":652965005,"highway":"service"},"geometry":{"type":"LineString","coordinates":[[-2.79005,43.3421],[-2.78998,43.34212],[-2.78981,43.34222]]}},{"type":"Feature","properties":{"id":652965006,"highway":"service"},"geometry":{"type":"LineString","coordinates":[[-2.79016,43.34144],[-2.79031,43.34142],[-2.79037,43.34141]]}},{"type":"Feature","properties":{"id":665601241,"highway":"track"},"geometry":{"type":"LineString","coordinates":[[-2.79862,43.32037],[-2.79868,43.32036],[-2.79898,43.32043],[-2.79907,43.32045],[-2.79917,43.32043],[-2.79927,43.32039],[-2.79939,43.32034],[-2.79946,43.32028],[-2.79953,43.32022],[-2.79959,43.32014],[-2.79966,43.32003],[-2.7997,43.31993],[-2.79977,43.31985],[-2.79984,43.31983],[-2.79995,43.3198],[-2.80012,43.31978],[-2.80029,43.31978],[-2.80063,43.31981],[-2.80076,43.31983],[-2.80087,43.31984],[-2.80102,43.31983],[-2.80113,43.31982]]}},{"type":"Feature","properties":{"id":670025062,"highway":"track"},"geometry":{"type":"LineString","coordinates":[[-2.77766,43.32142],[-2.77765,43.32141]]}},{"type":"Feature","properties":{"id":670265224,"highway":"service"},"geometry":{"type":"LineString","coordinates":[[-2.79759,43.33165],[-2.79765,43.3317],[-2.79766,43.33176],[-2.79764,43.33181],[-2.79747,43.33206],[-2.79739,43.33211],[-2.79732,43.33214],[-2.79725,43.33215],[-2.7968,43.33211],[-2.79671,43.33211],[-2.79649,43.33214],[-2.79644,43.33217]]}},{"type":"Feature","properties":{"id":694240520,"highway":"service"},"geometry":{"type":"LineString","coordinates":[[-2.78446,43.32736],[-2.7844,43.32738],[-2.7842,43.32747]]}},{"type":"Feature","properties":{"id":694240521,"highway":"service","oneway":"yes"},"geometry":{"type":"LineString","coordinates":[[-2.7842,43.32747],[-2.7841,43.32749],[-2.78379,43.32762],[-2.78379,43.32767],[-2.78382,43.32771],[-2.78389,43.32773],[-2.78394,43.32771],[-2.78417,43.32761],[-2.78418,43.32755],[-2.7842,43.32747]]}},{"type":"Feature","properties":{"id":734461477,"highway":"service"},"geometry":{"type":"LineString","coordinates":[[-2.80836,43.31952],[-2.80826,43.31954],[-2.80792,43.3197],[-2.80764,43.31986],[-2.80752,43.31994],[-2.80751,43.31997],[-2.80753,43.32004],[-2.80758,43.3201],[-2.8076,43.32012],[-2.80769,43.32017]]}},{"type":"Feature","properties":{"id":1133163431,"highway":"living_street","ref":"BI-2121","oneway":"no","superficie":"paving_stones"},"geometry":{"type":"LineString","coordinates":[[-2.78475,43.32775],[-2.7847,43.32767],[-2.78464,43.32759]]}},{"type":"Feature","properties":{"id":1133163432,"highway":"living_street","ref":"BI-2121","oneway":"no","superficie":"paving_stones"},"geometry":{"type":"LineString","coordinates":[[-2.78498,43.32802],[-2.78497,43.32801],[-2.78488,43.32792],[-2.78481,43.32785],[-2.78478,43.3278],[-2.78475,43.32775]]}},{"type":"Feature","properties":{"id":1190467293,"highway":"service"},"geometry":{"type":"LineString","coordinates":[[-2.79919,43.32552],[-2.79931,43.32602],[-2.79927,43.32605],[-2.79891,43.32606],[-2.79843,43.32611]]}},{"type":"Feature","properties":{"id":1190467294,"highway":"service"},"geometry":{"type":"LineString","coordinates":[[-2.79732,43.32536],[-2.79751,43.32542],[-2.79761,43.32547],[-2.79766,43.32553],[-2.79771,43.32561],[-2.79768,43.32566],[-2.79763,43.32567],[-2.79754,43.32565],[-2.79748,43.32563],[-2.79745,43.32565],[-2.79742,43.3257]]}},{"type":"Feature","properties":{"id":1190467309,"highway":"service"},"geometry":{"type":"LineString","coordinates":[[-2.79981,43.32561],[-2.79992,43.32604]]}},{"type":"Feature","properties":{"id":1190467312,"highway":"track"},"geometry":{"type":"LineString","coordinates":[[-2.80031,43.32553],[-2.80046,43.32562],[-2.80051,43.32564],[-2.80068,43.32574],[-2.80119,43.32591],[-2.80133,43.32597],[-2.80203,43.32598],[-2.80222,43.32605]]}},{"type":"Feature","properties":{"id":1190467313,"highway":"track"},"geometry":{"type":"LineString","coordinates":[[-2.80051,43.32564],[-2.80051,43.32573],[-2.80053,43.32584],[-2.80051,43.32593],[-2.80033,43.32627],[-2.8,43.3267],[-2.79999,43.32686],[-2.79989,43.32703],[-2.79971,43.32721],[-2.79973,43.32729],[-2.79991,43.32737]]}},{"type":"Feature","properties":{"id":1354720478,"highway":"footway"},"geometry":{"type":"LineString","coordinates":[[-2.78475,43.32786],[-2.78476,43.32785]]}},{"type":"Feature","properties":{"id":1354720479,"highway":"footway"},"geometry":{"type":"LineString","coordinates":[[-2.78476,43.32785],[-2.78481,43.32785],[-2.78485,43.32784],[-2.78487,43.32783]]}},{"type":"Feature","properties":{"id":1354720480,"highway":"footway"},"geometry":{"type":"LineString","coordinates":[[-2.78487,43.32783],[-2.78492,43.32787],[-2.78506,43.32801]]}},{"type":"Feature","properties":{"id":1354720481,"highway":"service","oneway":"no"},"geometry":{"type":"LineString","coordinates":[[-2.78437,43.32828],[-2.78433,43.32826],[-2.78418,43.32819]]}},{"type":"Feature","properties":{"id":1354720482,"highway":"service","oneway":"no"},"geometry":{"type":"LineString","coordinates":[[-2.78418,43.32819],[-2.78421,43.32814]]}},{"type":"Feature","properties":{"id":1354720483,"highway":"service","oneway":"no"},"geometry":{"type":"LineString","coordinates":[[-2.78418,43.32819],[-2.78415,43.32826]]}},{"type":"Feature","properties":{"id":1354720484,"highway":"service","oneway":"no"},"geometry":{"type":"LineString","coordinates":[[-2.78287,43.33002],[-2.78285,43.33005],[-2.78284,43.33007],[-2.78262,43.33007]]}},{"type":"Feature","properties":{"id":1354720485,"highway":"footway"},"geometry":{"type":"LineString","coordinates":[[-2.78373,43.32857],[-2.78372,43.32859],[-2.7837,43.32862]]}}]}
