{"type":"FeatureCollection","features":[{"type":"Feature","properties":{"id":23360858,"highway":"motorway","nombre":"Iparraldeko autobia","izena_eu":"Iparraldeko autobia","nombre_es":"Autovía del Norte","ref":"N-I","oneway":"yes","superficie":"asphalt"},"geometry":{"type":"LineString","coordinates":[[-2.05886,43.17446],[-2.05908,43.17429],[-2.05955,43.17393],[-2.05981,43.17372],[-2.06018,43.17344],[-2.06167,43.17223],[-2.06202,43.17195],[-2.06246,43.17161],[-2.06351,43.17083],[-2.06436,43.17018],[-2.06505,43.16967],[-2.06539,43.16938]]}},{"type":"Feature","properties":{"id":27444037,"highway":"motorway_link","oneway":"yes"},"geometry":{"type":"LineString","coordinates":[[-2.06497,43.16848],[-2.06504,43.16846],[-2.06512,43.16843]]}},{"type":"Feature","properties":{"id":27444038,"highway":"motorway","nombre":"Iparraldeko autobia","izena_eu":"Iparraldeko autobia","nombre_es":"Autovía del Norte","ref":"N-I","oneway":"yes","puente":"yes","superficie":"asphalt"},"geometry":{"type":"LineString","coordinates":[[-2.06613,43.16796],[-2.06607,43.16814]]}},{"type":"Feature","properties":{"id":27444039,"highway":"motorway","nombre":"Iparraldeko autobia","izena_eu":"Iparraldeko autobia","nombre_es":"Autovía del Norte","ref":"N-I","oneway":"yes","superficie":"asphalt"},"geometry":{"type":"LineString","coordinates":[[-2.06407,43.17026],[-2.06336,43.17079],[-2.06233,43.17156],[-2.06137,43.17231],[-2.06042,43.1731],[-2.05969,43.17368],[-2.05965,43.17371],[-2.05937,43.17393],[-2.05889,43.17429],[-2.05818,43.17483],[-2.0575,43.17535],[-2.05684,43.17587],[-2.05648,43.17618],[-2.05647,43.17619]]}},{"type":"Feature","properties":{"id":27444040,"highway":"motorway","nombre":"Iparraldeko autobia","izena_eu":"Iparraldeko autobia","nombre_es":"Autovía del Norte","ref":"N-I","oneway":"yes","puente":"yes","superficie":"asphalt"},"geometry":{"type":"LineString","coordinates":[[-2.06621,43.16818],[-2.06627,43.168]]}},{"type":"Feature","properties":{"id":27444041,"highway":"motorway","nombre":"Iparraldeko autobia","izena_eu":"Iparraldeko autobia","nombre_es":"Autovía del Norte","ref":"N-I","oneway":"yes","superficie":"asphalt"},"geometry":{"type":"LineString","coordinates":[[-2.06644,43.16084],[-2.06631,43.16058],[-2.06604,43.16002],[-2.06591,43.15961],[-2.06584,43.15915],[-2.06583,43.15885],[-2.06585,43.15855],[-2.06595,43.15813],[-2.06612,43.15769],[-2.06618,43.15758]]}},{"type":"Feature","properties":{"id":27444043,"highway":"motorway_link","oneway":"yes","superficie":"asphalt"},"geometry":{"type":"LineString","coordinates":[[-2.06539,43.16938],[-2.06574,43.16914],[-2.06593,43.16898],[-2.06614,43.1688],[-2.06628,43.1686],[-2.06636,43.16846],[-2.06639,43.16843],[-2.06641,43.16842],[-2.06644,43.16841],[-2.06647,43.1684],[-2.06653,43.16839],[-2.06659,43.16839]]}},{"type":"Feature","properties":{"id":27444514,"highway":"motorway","nombre":"Iparraldeko autobia","izena_eu":"Iparraldeko autobia","nombre_es":"Autovía del Norte","ref":"N-I","oneway":"yes","superficie":"asphalt"},"geometry":{"type":"LineString","coordinates":[[-2.06609,43.15749],[-2.06592,43.15782],[-2.0658,43.15818],[-2.06572,43.15853],[-2.0657,43.15884],[-2.0657,43.15915],[-2.06578,43.15962],[-2.06589,43.15996],[-2.06604,43.16033],[-2.06639,43.16102],[-2.06665,43.16159],[-2.06674,43.16181],[-2.06682,43.16206],[-2.0669,43.1623],[-2.06696,43.16255],[-2.06697,43.16269],[-2.06697,43.16284],[-2.06695,43.16308],[-2.06688,43.16331],[-2.06676,43.16357],[-2.06657,43.16387],[-2.0662,43.16435],[-2.06609,43.16451],[-2.06599,43.16473],[-2.06593,43.16483],[-2.06587,43.16499],[-2.06585,43.16509],[-2.06582,43.16533],[-2.06581,43.16555],[-2.06584,43.16579],[-2.06598,43.16628],[-2.06612,43.16676],[-2.06617,43.167],[-2.0662,43.16727],[-2.0662,43.16734]]}},{"type":"Feature","properties":{"id":27853175,"highway":"tertiary","nombre":"Kale Nagusia","ref":"GI-3650","superficie":"asphalt"},"geometry":{"type":"LineString","coordinates":[[-2.06951,43.16479],[-2.06951,43.1649],[-2.06948,43.16504],[-2.06938,43.16533],[-2.06935,43.16541],[-2.06888,43.16625],[-2.06876,43.16644],[-2.06872,43.16649],[-2.06847,43.16687],[-2.06832,43.16707],[-2.06811,43.16728],[-2.06778,43.16764],[-2.06763,43.16775],[-2.06741,43.16791],[-2.06737,43.16794],[-2.06724,43.16804]]}},{"type":"Feature","properties":{"id":41475859,"highway":"residential","nombre":"San Migel plaza","oneway":"yes","superficie":"asphalt"},"geometry":{"type":"LineString","coordinates":[[-2.06811,43.16728],[-2.06788,43.16728],[-2.06741,43.16739],[-2.06736,43.16739],[-2.06727,43.16739],[-2.06712,43.16738],[-2.0671,43.16738],[-2.06708,43.16738],[-2.06701,43.16739],[-2.06693,43.1674],[-2.06688,43.16744],[-2.06681,43.16749],[-2.06678,43.16763],[-2.06678,43.16775],[-2.06692,43.16784],[-2.06724,43.16804]]}},{"type":"Feature","properties":{"id":45854211,"highway":"residential","nombre":"Laskibar auzoa","superficie":"asphalt"},"geometry":{"type":"LineString","coordinates":[[-2.0613,43.1722],[-2.0612,43.17214],[-2.05988,43.17147]]}},{"type":"Feature","properties":{"id":45854212,"highway":"residential","nombre":"Laskibar auzoa"},"geometry":{"type":"LineString","coordinates":[[-2.0596,43.17247],[-2.05988,43.17147]]}},{"type":"Feature","properties":{"id":45854217,"highway":"residential","nombre":"Katategi auzoa","superficie":"asphalt"},"geometry":{"type":"LineString","coordinates":[[-2.06456,43.16968],[-2.06362,43.16901]]}},{"type":"Feature","properties":{"id":45854218,"highway":"residential","nombre":"Katategi auzoa","superficie":"asphalt"},"geometry":{"type":"LineString","coordinates":[[-2.06381,43.17026],[-2.06289,43.16957]]}},{"type":"Feature","properties":{"id":45854220,"highway":"residential","nombre":"Laskibar auzoa","superficie":"asphalt"},"geometry":{"type":"LineString","coordinates":[[-2.06217,43.17152],[-2.0619,43.17134],[-2.06086,43.17074],[-2.06066,43.17063],[-2.06051,43.17056]]}},{"type":"Feature","properties":{"id":45854221,"highway":"residential","nombre":"Laskibar auzoa","superficie":"asphalt"},"geometry":{"type":"LineString","coordinates":[[-2.06181,43.1718],[-2.06017,43.17093]]}},{"type":"Feature","properties":{"id":45854223,"highway":"residential","nombre":"Agarre bailara","puente":"yes"},"geometry":{"type":"LineString","coordinates":[[-2.06638,43.16457],[-2.06597,43.16443]]}},{"type":"Feature","properties":{"id":45854224,"highway":"residential","nombre":"Agarre bailara"},"geometry":{"type":"LineString","coordinates":[[-2.06597,43.16443],[-2.06588,43.1644],[-2.06578,43.16433],[-2.06575,43.16427],[-2.06569,43.16407],[-2.0656,43.16392],[-2.06555,43.16383],[-2.0655,43.16376],[-2.06544,43.16357],[-2.06535,43.16338],[-2.06526,43.16324],[-2.06512,43.16313],[-2.06501,43.1631],[-2.06494,43.16312],[-2.06494,43.16315],[-2.06495,43.16319],[-2.06494,43.16332],[-2.06496,43.16351],[-2.06502,43.16362],[-2.06505,43.16373],[-2.06494,43.16402],[-2.06482,43.16435],[-2.06478,43.16449],[-2.06485,43.16457],[-2.06494,43.1647],[-2.06501,43.1649],[-2.06506,43.1651],[-2.0651,43.16533]]}},{"type":"Feature","properties":{"id":45854226,"highway":"residential","nombre":"Katategi auzoa","oneway":"yes","superficie":"asphalt"},"geometry":{"type":"LineString","coordinates":[[-2.06433,43.16849],[-2.06419,43.16859],[-2.06405,43.16871],[-2.06382,43.16886],[-2.06362,43.16901],[-2.0631,43.16941],[-2.06289,43.16957]]}},{"type":"Feature","properties":{"id":45854227,"highway":"residential","nombre":"Katategi auzoa","superficie":"asphalt"},"geometry":{"type":"LineString","coordinates":[[-2.06496,43.16935],[-2.06482,43.16925],[-2.06405,43.16871]]}},{"type":"Feature","properties":{"id":45854232,"highway":"residential","nombre":"Agarre bailara"},"geometry":{"type":"LineString","coordinates":[[-2.06657,43.16675],[-2.06645,43.16644],[-2.06633,43.1661],[-2.06624,43.16573],[-2.06622,43.16557],[-2.0662,43.16543],[-2.06621,43.16528],[-2.06628,43.16513],[-2.06636,43.16496],[-2.06646,43.16476],[-2.06647,43.16468],[-2.06643,43.1646],[-2.06638,43.16457]]}},{"type":"Feature","properties":{"id":45854233,"highway":"residential","nombre":"Zillar kalea","oneway":"yes"},"geometry":{"type":"LineString","coordinates":[[-2.06525,43.16717],[-2.06516,43.16722],[-2.06515,43.16726],[-2.06516,43.16759],[-2.06516,43.16763],[-2.0652,43.16775],[-2.06521,43.16778]]}},{"type":"Feature","properties":{"id":45856839,"highway":"tertiary","ref":"GI-3650","puente":"yes","superficie":"asphalt"},"geometry":{"type":"LineString","coordinates":[[-2.06968,43.16375],[-2.06953,43.16411]]}},{"type":"Feature","properties":{"id":45856840,"highway":"tertiary","ref":"GI-3650","superficie":"asphalt"},"geometry":{"type":"LineString","coordinates":[[-2.06953,43.16411],[-2.06951,43.16416]]}},{"type":"Feature","properties":{"id":45883182,"highway":"service","nombre":"Katategi auzoa","superficie":"asphalt"},"geometry":{"type":"LineString","coordinates":[[-2.06482,43.16925],[-2.06497,43.16913],[-2.06509,43.16903],[-2.06511,43.169],[-2.06512,43.16897],[-2.06504,43.16891],[-2.06448,43.16847],[-2.06373,43.16786]]}},{"type":"Feature","properties":{"id":45982232,"highway":"service","nombre":"Laskibar auzoa","superficie":"asphalt"},"geometry":{"type":"LineString","coordinates":[[-2.0565,43.17596],[-2.05645,43.17583],[-2.05623,43.17565]]}},{"type":"Feature","properties":{"id":45982233,"highway":"service","nombre":"Laskibar auzoa","superficie":"asphalt"},"geometry":{"type":"LineString","coordinates":[[-2.05645,43.17583],[-2.05719,43.17527],[-2.05783,43.17481],[-2.05857,43.17423]]}},{"type":"Feature","properties":{"id":45982234,"highway":"service","oneway":"yes","superficie":"asphalt"},"geometry":{"type":"LineString","coordinates":[[-2.05684,43.17587],[-2.0565,43.17609],[-2.0564,43.17618]]}},{"type":"Feature","properties":{"id":45982243,"highway":"service","nombre":"Laskibar auzoa","superficie":"asphalt"},"geometry":{"type":"LineString","coordinates":[[-2.05792,43.17487],[-2.05783,43.17481],[-2.0575,43.17457]]}},{"type":"Feature","properties":{"id":45982245,"highway":"service","nombre":"Laskibar auzoa","superficie":"asphalt"},"geometry":{"type":"LineString","coordinates":[[-2.05729,43.17535],[-2.05719,43.17527],[-2.05688,43.17505]]}},{"type":"Feature","properties":{"id":45982246,"highway":"service","nombre":"Laskibar auzoa","superficie":"asphalt"},"geometry":{"type":"LineString","coordinates":[[-2.05811,43.17393],[-2.0575,43.17457],[-2.05688,43.17505],[-2.05623,43.17565]]}},{"type":"Feature","properties":{"id":45982247,"highway":"residential"},"geometry":{"type":"LineString","coordinates":[[-2.05946,43.1737],[-2.0594,43.17366],[-2.05872,43.17315]]}},{"type":"Feature","properties":{"id":45982248,"highway":"residential","nombre":"Gurdi kalea","oneway":"yes"},"geometry":{"type":"LineString","coordinates":[[-2.05872,43.17315],[-2.05931,43.17271],[-2.0596,43.17247]]}},{"type":"Feature","properties":{"id":45982250,"highway":"residential","nombre":"Zillar kalea","oneway":"yes"},"geometry":{"type":"LineString","coordinates":[[-2.06519,43.16791],[-2.06536,43.16786],[-2.06556,43.16784],[-2.0657,43.16784],[-2.06582,43.16783],[-2.06592,43.16779],[-2.06597,43.16773],[-2.06597,43.16772],[-2.06599,43.16767],[-2.06603,43.1675],[-2.06605,43.16736],[-2.06606,43.16727],[-2.06606,43.16717],[-2.06604,43.16713],[-2.06603,43.16711],[-2.06601,43.1671],[-2.06598,43.16709]]}},{"type":"Feature","properties":{"id":45982254,"highway":"service","superficie":"asphalt"},"geometry":{"type":"LineString","coordinates":[[-2.05868,43.1743],[-2.05857,43.17423],[-2.05811,43.17393]]}},{"type":"Feature","properties":{"id":45982255,"highway":"residential","nombre":"San Migel plaza","tunel":"yes"},"geometry":{"type":"LineString","coordinates":[[-2.06655,43.16731],[-2.06603,43.16731]]}},{"type":"Feature","properties":{"id":45982258,"highway":"residential","nombre":"Larriturri"},"geometry":{"type":"LineString","coordinates":[[-2.06575,43.16648],[-2.06547,43.16657],[-2.06543,43.16658],[-2.06509,43.16666]]}},{"type":"Feature","properties":{"id":45982262,"highway":"residential","nombre":"San Migel plaza","superficie":"asphalt"},"geometry":{"type":"LineString","coordinates":[[-2.06688,43.16744],[-2.06677,43.16738],[-2.06668,43.16734],[-2.06655,43.16731]]}},{"type":"Feature","properties":{"id":45982274,"highway":"pedestrian"},"geometry":{"type":"LineString","coordinates":[[-2.0671,43.16738],[-2.06704,43.16719],[-2.06708,43.16709],[-2.06723,43.16692],[-2.06743,43.16671],[-2.0672,43.16659],[-2.06699,43.16648],[-2.06685,43.16637],[-2.06681,43.16628]]}},{"type":"Feature","properties":{"id":45982275,"highway":"residential","nombre":"Nekazari kalea","oneway":"yes"},"geometry":{"type":"LineString","coordinates":[[-2.06883,43.16832],[-2.06886,43.16828],[-2.06903,43.16802],[-2.06913,43.16784],[-2.06915,43.16781],[-2.06937,43.16744],[-2.06937,43.16742],[-2.06937,43.1674],[-2.06937,43.16739],[-2.06936,43.16737],[-2.06936,43.16735],[-2.06936,43.16734],[-2.06936,43.16732],[-2.06944,43.16716],[-2.06944,43.16714],[-2.06943,43.16712],[-2.06942,43.16709],[-2.0694,43.16707],[-2.06931,43.16705]]}},{"type":"Feature","properties":{"id":45982276,"highway":"residential"},"geometry":{"type":"LineString","coordinates":[[-2.06826,43.16794],[-2.06828,43.16798],[-2.06854,43.16817],[-2.06868,43.16827],[-2.06876,43.1683],[-2.06883,43.16832]]}},{"type":"Feature","properties":{"id":45982277,"highway":"residential","nombre":"Eguzkialde kalea"},"geometry":{"type":"LineString","coordinates":[[-2.06881,43.16695],[-2.06854,43.16742],[-2.06844,43.16759],[-2.06835,43.16772],[-2.06826,43.16788],[-2.06826,43.16791],[-2.06826,43.16794]]}},{"type":"Feature","properties":{"id":45982284,"highway":"pedestrian","nombre":"Kale Txiki"},"geometry":{"type":"LineString","coordinates":[[-2.07014,43.16651],[-2.07038,43.16564]]}},{"type":"Feature","properties":{"id":45982287,"highway":"residential","nombre":"Pello Arrese-Igor kalea","superficie":"asphalt"},"geometry":{"type":"LineString","coordinates":[[-2.06847,43.16687],[-2.06881,43.16695],[-2.06895,43.16698],[-2.06931,43.16705]]}},{"type":"Feature","properties":{"id":45982288,"highway":"residential","nombre":"Agarre bailara"},"geometry":{"type":"LineString","coordinates":[[-2.06622,43.16557],[-2.06636,43.16573],[-2.06646,43.16588],[-2.06662,43.16605],[-2.06673,43.16621],[-2.06681,43.16628],[-2.06689,43.16632],[-2.06703,43.16636],[-2.06721,43.16634],[-2.06739,43.16628],[-2.06751,43.16616],[-2.06759,43.16602],[-2.06761,43.16582],[-2.06754,43.16553],[-2.06748,43.16525],[-2.06751,43.16503],[-2.06752,43.1649],[-2.06748,43.16484],[-2.06733,43.16475],[-2.06732,43.16466],[-2.06735,43.1645],[-2.06748,43.16444],[-2.06766,43.16444],[-2.06778,43.16445],[-2.06781,43.1645],[-2.06782,43.16467]]}},{"type":"Feature","properties":{"id":45982289,"highway":"pedestrian"},"geometry":{"type":"LineString","coordinates":[[-2.07106,43.16627],[-2.07071,43.16622],[-2.07065,43.16621]]}},{"type":"Feature","properties":{"id":45982290,"highway":"residential","nombre":"Paper kalea","oneway":"yes"},"geometry":{"type":"LineString","coordinates":[[-2.07052,43.16558],[-2.07041,43.16557],[-2.07004,43.16552],[-2.06972,43.16547],[-2.06935,43.16541]]}},{"type":"Feature","properties":{"id":45982291,"highway":"residential","nombre":"Gregorio Ameztoy kalea","oneway":"yes"},"geometry":{"type":"LineString","coordinates":[[-2.06888,43.16625],[-2.06927,43.16634],[-2.06963,43.1664],[-2.06979,43.16643],[-2.07014,43.16651]]}},{"type":"Feature","properties":{"id":45982292,"highway":"residential","nombre":"Share kalea","oneway":"yes"},"geometry":{"type":"LineString","coordinates":[[-2.06927,43.16634],[-2.06972,43.16547]]}},{"type":"Feature","properties":{"id":45982293,"highway":"residential","nombre":"Biltegi kalea","oneway":"yes"},"geometry":{"type":"LineString","coordinates":[[-2.07004,43.16552],[-2.07002,43.16558],[-2.06984,43.16623],[-2.06979,43.16643]]}},{"type":"Feature","properties":{"id":45982294,"highway":"residential","nombre":"Etxezarreta kalea","oneway":"yes"},"geometry":{"type":"LineString","coordinates":[[-2.06949,43.16453],[-2.06964,43.16459],[-2.07014,43.16477],[-2.07017,43.16479],[-2.07032,43.16487],[-2.07042,43.165],[-2.07067,43.16538]]}},{"type":"Feature","properties":{"id":45982295,"highway":"pedestrian"},"geometry":{"type":"LineString","coordinates":[[-2.07095,43.16673],[-2.07106,43.16627],[-2.07119,43.16576],[-2.0712,43.16549],[-2.07068,43.16462],[-2.06957,43.1642],[-2.06955,43.16419]]}},{"type":"Feature","properties":{"id":46011103,"highway":"residential","nombre":"Agarre bailara"},"geometry":{"type":"LineString","coordinates":[[-2.06485,43.16457],[-2.06467,43.16454],[-2.06445,43.16449],[-2.06415,43.16436],[-2.06382,43.16423],[-2.06343,43.16413],[-2.06338,43.16412],[-2.06322,43.16408],[-2.06295,43.16399],[-2.06272,43.16392],[-2.06248,43.16385],[-2.06235,43.16383],[-2.06217,43.16381],[-2.06183,43.16377],[-2.06153,43.16377],[-2.06128,43.16377]]}},{"type":"Feature","properties":{"id":46011113,"highway":"residential","nombre":"Agarre bailara"},"geometry":{"type":"LineString","coordinates":[[-2.06395,43.16388],[-2.06343,43.16402],[-2.06338,43.16412]]}},{"type":"Feature","properties":{"id":46011118,"highway":"residential","nombre":"Agarre bailara"},"geometry":{"type":"LineString","coordinates":[[-2.0627,43.16359],[-2.06238,43.16373],[-2.06235,43.16383]]}},{"type":"Feature","properties":{"id":46011126,"highway":"residential","nombre":"Agarre bailara"},"geometry":{"type":"LineString","coordinates":[[-2.06158,43.16352],[-2.0613,43.16373],[-2.06128,43.16377]]}},{"type":"Feature","properties":{"id":47391722,"highway":"motorway_link","oneway":"yes","superficie":"asphalt"},"geometry":{"type":"LineString","coordinates":[[-2.06924,43.1642],[-2.06903,43.16407],[-2.06881,43.16393],[-2.0682,43.16368],[-2.06795,43.16357],[-2.0678,43.1635],[-2.0677,43.16342],[-2.06758,43.1633],[-2.06746,43.16312],[-2.06737,43.16289],[-2.067,43.16192],[-2.0667,43.16127],[-2.06644,43.16084]]}},{"type":"Feature","properties":{"id":54059654,"highway":"residential"},"geometry":{"type":"LineString","coordinates":[[-2.06051,43.17056],[-2.06052,43.1705],[-2.0604,43.17027],[-2.06017,43.17038],[-2.06008,43.17031]]}},{"type":"Feature","properties":{"id":54059655,"highway":"residential"},"geometry":{"type":"LineString","coordinates":[[-2.0604,43.17027],[-2.06051,43.17015]]}},{"type":"Feature","properties":{"id":54059659,"highway":"living_street","nombre":"Gurdi kalea","superficie":"asphalt"},"geometry":{"type":"LineString","coordinates":[[-2.05862,43.17321],[-2.05847,43.17331],[-2.0584,43.17333],[-2.05828,43.17334],[-2.05797,43.17359],[-2.05787,43.17351]]}},{"type":"Feature","properties":{"id":54059665,"highway":"unclassified","nombre":"Laskibar auzoa","superficie":"unpaved"},"geometry":{"type":"LineString","coordinates":[[-2.05828,43.17284],[-2.05817,43.17278],[-2.05812,43.17269],[-2.05815,43.17258],[-2.05825,43.17248],[-2.05826,43.17231],[-2.05845,43.17215],[-2.05874,43.1717],[-2.05871,43.17158],[-2.05868,43.17154],[-2.05862,43.17146],[-2.05851,43.17142]]}},{"type":"Feature","properties":{"id":54059676,"highway":"service","nombre":"Laskibar auzoa"},"geometry":{"type":"LineString","coordinates":[[-2.05874,43.1717],[-2.05881,43.17164],[-2.05896,43.17157]]}},{"type":"Feature","properties":{"id":54059703,"highway":"pedestrian","puente":"yes"},"geometry":{"type":"LineString","coordinates":[[-2.05942,43.1736],[-2.05975,43.17388]]}},{"type":"Feature","properties":{"id":54267319,"highway":"track","nombre":"Agarre bailara"},"geometry":{"type":"LineString","coordinates":[[-2.05994,43.16606],[-2.05963,43.16618],[-2.05916,43.1664],[-2.05852,43.16667],[-2.05799,43.16683],[-2.05762,43.16698],[-2.05662,43.16752],[-2.05651,43.16758],[-2.05556,43.16795],[-2.05533,43.16808],[-2.05522,43.16823],[-2.05515,43.16826],[-2.05508,43.16825],[-2.05504,43.16817],[-2.05509,43.16799],[-2.05541,43.16698],[-2.05538,43.16664],[-2.05514,43.1664],[-2.05409,43.16607]]}},{"type":"Feature","properties":{"id":202750886,"highway":"service","nombre":"Azketaerreka industrialdea","superficie":"asphalt"},"geometry":{"type":"LineString","coordinates":[[-2.05685,43.17626],[-2.05683,43.17628]]}},{"type":"Feature","properties":{"id":202750898,"highway":"service","oneway":"yes","superficie":"asphalt"},"geometry":{"type":"LineString","coordinates":[[-2.05815,43.17515],[-2.05825,43.17506],[-2.05863,43.17473],[-2.05886,43.17446]]}},{"type":"Feature","properties":{"id":234453018,"highway":"track"},"geometry":{"type":"LineString","coordinates":[[-2.04505,43.15969],[-2.04499,43.15965],[-2.04493,43.15962],[-2.04474,43.15957],[-2.04453,43.15954],[-2.04403,43.15952],[-2.0437,43.15951],[-2.04342,43.1595],[-2.04298,43.15948],[-2.04269,43.15947],[-2.04254,43.15946],[-2.04233,43.15944],[-2.04206,43.1594]]}},{"type":"Feature","properties":{"id":328044202,"highway":"path","nombre":"Agarre bailara"},"geometry":{"type":"LineString","coordinates":[[-2.04505,43.15969],[-2.04496,43.15983],[-2.04499,43.16007],[-2.04526,43.16016],[-2.04561,43.1602],[-2.04592,43.1604],[-2.0463,43.16107],[-2.04746,43.1627],[-2.04788,43.16338],[-2.04808,43.1638],[-2.0482,43.16429],[-2.04827,43.16461],[-2.04842,43.16506],[-2.0486,43.16563],[-2.0487,43.16601],[-2.04871,43.16637],[-2.04889,43.1669],[-2.04904,43.1671]]}},{"type":"Feature","properties":{"id":328044212,"highway":"path"},"geometry":{"type":"LineString","coordinates":[[-2.04402,43.16418],[-2.04412,43.16417]]}},{"type":"Feature","properties":{"id":328044216,"highway":"track","nombre":"Agarre bailara"},"geometry":{"type":"LineString","coordinates":[[-2.05409,43.16607],[-2.05403,43.16618],[-2.05397,43.16636],[-2.05396,43.16649],[-2.05398,43.16665],[-2.05398,43.16678],[-2.05394,43.16693],[-2.05384,43.16703],[-2.05364,43.16724],[-2.05342,43.16745],[-2.05319,43.16766],[-2.05303,43.16782],[-2.05287,43.16803],[-2.05279,43.16817],[-2.05261,43.1684],[-2.05238,43.16866],[-2.05229,43.16875],[-2.0522,43.16891],[-2.05216,43.16898],[-2.05205,43.16917],[-2.05188,43.16938],[-2.05174,43.16953],[-2.05157,43.16972],[-2.05146,43.16987],[-2.05132,43.17004],[-2.05126,43.17011],[-2.05111,43.17018],[-2.05093,43.17026],[-2.05078,43.17033],[-2.05058,43.17041],[-2.05046,43.17046],[-2.05035,43.17054],[-2.05034,43.17054]]}},{"type":"Feature","properties":{"id":328444056,"highway":"track"},"geometry":{"type":"LineString","coordinates":[[-2.04256,43.16197],[-2.0426,43.16194],[-2.04275,43.16187],[-2.04282,43.16184],[-2.0431,43.16172],[-2.04337,43.16163],[-2.04369,43.16154],[-2.044,43.16146],[-2.0443,43.16137],[-2.04459,43.16129],[-2.04476,43.16126],[-2.04493,43.16124],[-2.04502,43.16124],[-2.0451,43.16127],[-2.04524,43.16136],[-2.04554,43.16199],[-2.04589,43.16274],[-2.04604,43.16311],[-2.04621,43.16338],[-2.04633,43.16366],[-2.04637,43.16398],[-2.04636,43.16409],[-2.04634,43.16425],[-2.04622,43.16456],[-2.04622,43.16487],[-2.04624,43.16508],[-2.04632,43.16523],[-2.04653,43.16535],[-2.04671,43.16545],[-2.04695,43.16562],[-2.04715,43.16588],[-2.04745,43.1665],[-2.04764,43.16693],[-2.04773,43.16714],[-2.04773,43.16737],[-2.0477,43.16754],[-2.04766,43.16766]]}},{"type":"Feature","properties":{"id":328444062,"highway":"track","nombre":"Agarre bailara"},"geometry":{"type":"LineString","coordinates":[[-2.05409,43.16607],[-2.05402,43.16602],[-2.05353,43.16569],[-2.05271,43.16527],[-2.05213,43.16471],[-2.05157,43.16417],[-2.05083,43.16376],[-2.05056,43.1634],[-2.05054,43.16338],[-2.05022,43.16318],[-2.05001,43.16292],[-2.04962,43.16229],[-2.04953,43.16206],[-2.04898,43.16152],[-2.04887,43.16135],[-2.04853,43.1608],[-2.04817,43.16038],[-2.04796,43.15995],[-2.04786,43.15964],[-2.0478,43.15938],[-2.04778,43.15919],[-2.04779,43.15906],[-2.04781,43.15895],[-2.04779,43.15883],[-2.04775,43.15875],[-2.04762,43.15872],[-2.04746,43.15876],[-2.04739,43.1588],[-2.04733,43.15883],[-2.0472,43.15894],[-2.04713,43.15907],[-2.04713,43.15935],[-2.04699,43.15973],[-2.04681,43.16013],[-2.04683,43.16043],[-2.04685,43.1606],[-2.04681,43.16071],[-2.04676,43.16072],[-2.0467,43.16071],[-2.04658,43.1604],[-2.04648,43.16024],[-2.0463,43.15997],[-2.0462,43.15988],[-2.04604,43.15984],[-2.04588,43.15985],[-2.04575,43.15987],[-2.04549,43.15992],[-2.04536,43.15991],[-2.04524,43.15986],[-2.04517,43.15979],[-2.04505,43.15969]]}},{"type":"Feature","properties":{"id":360857783,"highway":"path"},"geometry":{"type":"LineString","coordinates":[[-2.04804,43.15855],[-2.048,43.15862],[-2.04781,43.15895]]}},{"type":"Feature","properties":{"id":372869878,"highway":"footway"},"geometry":{"type":"LineString","coordinates":[[-2.07101,43.16675],[-2.07095,43.16673],[-2.07061,43.16666],[-2.07071,43.16622],[-2.07084,43.16572],[-2.07086,43.16563],[-2.07085,43.16557],[-2.07084,43.16554],[-2.07081,43.16549],[-2.07073,43.16536],[-2.07046,43.16492],[-2.07033,43.16476],[-2.06959,43.16448]]}},{"type":"Feature","properties":{"id":372869895,"highway":"footway","puente":"yes","superficie":"asphalt"},"geometry":{"type":"LineString","coordinates":[[-2.06974,43.16377],[-2.06959,43.16413]]}},{"type":"Feature","properties":{"id":372869896,"highway":"footway","puente":"yes"},"geometry":{"type":"LineString","coordinates":[[-2.07131,43.1668],[-2.07101,43.16675]]}},{"type":"Feature","properties":{"id":372869904,"highway":"footway"},"geometry":{"type":"LineString","coordinates":[[-2.06959,43.16413],[-2.06957,43.1642],[-2.06953,43.16441],[-2.06959,43.16448],[-2.06965,43.16455],[-2.06964,43.16459],[-2.06961,43.16467]]}},{"type":"Feature","properties":{"id":499059819,"highway":"residential","nombre":"Errekalde kalea"},"geometry":{"type":"LineString","coordinates":[[-2.06737,43.16794],[-2.06745,43.168],[-2.06752,43.16806],[-2.06763,43.16816],[-2.06764,43.16817],[-2.06804,43.1686],[-2.06805,43.16862],[-2.06807,43.16863],[-2.06809,43.16863]]}},{"type":"Feature","properties":{"id":499059824,"highway":"service","nombre":"Ibai-Ondo auzoa","superficie":"asphalt"},"geometry":{"type":"LineString","coordinates":[[-2.06279,43.17151],[-2.06293,43.17141],[-2.0652,43.1697],[-2.06598,43.16907],[-2.06608,43.16898],[-2.06635,43.16873],[-2.06647,43.16864],[-2.06656,43.16857]]}},{"type":"Feature","properties":{"id":499062354,"highway":"residential","nombre":"Katategi auzoa","superficie":"asphalt"},"geometry":{"type":"LineString","coordinates":[[-2.06213,43.16967],[-2.06216,43.16973],[-2.06223,43.16981],[-2.06305,43.17034],[-2.06331,43.17052],[-2.06339,43.17057]]}},{"type":"Feature","properties":{"id":499062357,"highway":"residential","nombre":"Zillar kalea","oneway":"yes","superficie":"asphalt"},"geometry":{"type":"LineString","coordinates":[[-2.06521,43.16778],[-2.06528,43.16784],[-2.06536,43.16786]]}},{"type":"Feature","properties":{"id":499062359,"highway":"residential","nombre":"Zillar kalea"},"geometry":{"type":"LineString","coordinates":[[-2.06602,43.167],[-2.06597,43.16684],[-2.06577,43.16653],[-2.06575,43.16648],[-2.06557,43.1662],[-2.06556,43.16619],[-2.06545,43.16608],[-2.06529,43.16592],[-2.06518,43.16576],[-2.06514,43.16564],[-2.0651,43.16533]]}},{"type":"Feature","properties":{"id":499062360,"highway":"residential","nombre":"Laskibar auzoa","superficie":"asphalt"},"geometry":{"type":"LineString","coordinates":[[-2.06217,43.17152],[-2.06181,43.1718],[-2.0613,43.1722],[-2.06082,43.1726],[-2.06044,43.17291],[-2.06007,43.17319],[-2.05974,43.17347],[-2.05952,43.17365],[-2.05946,43.1737],[-2.05868,43.1743],[-2.05792,43.17487],[-2.05781,43.17495],[-2.05729,43.17535],[-2.05709,43.1755],[-2.05672,43.17578],[-2.0565,43.17596],[-2.05634,43.1761]]}},{"type":"Feature","properties":{"id":499062361,"highway":"motorway_link","oneway":"yes","superficie":"asphalt"},"geometry":{"type":"LineString","coordinates":[[-2.0655,43.16883],[-2.06551,43.16892],[-2.06543,43.16907],[-2.06529,43.16922],[-2.06512,43.16937],[-2.06476,43.16966],[-2.06407,43.17026]]}},{"type":"Feature","properties":{"id":499062362,"highway":"residential","nombre":"Zillar kalea","superficie":"asphalt"},"geometry":{"type":"LineString","coordinates":[[-2.06519,43.16791],[-2.06504,43.16804],[-2.065,43.16809],[-2.06492,43.16819],[-2.06491,43.1682],[-2.06488,43.16826],[-2.06487,43.16831]]}},{"type":"Feature","properties":{"id":499062363,"highway":"residential","nombre":"Zillar kalea","oneway":"yes","superficie":"asphalt"},"geometry":{"type":"LineString","coordinates":[[-2.06521,43.16778],[-2.06519,43.16791]]}},{"type":"Feature","properties":{"id":499256152,"highway":"motorway_link","oneway":"yes","superficie":"asphalt"},"geometry":{"type":"LineString","coordinates":[[-2.066,43.16814],[-2.06596,43.16825],[-2.06593,43.16832],[-2.06584,43.16845],[-2.06577,43.16851],[-2.06571,43.16854]]}},{"type":"Feature","properties":{"id":499256153,"highway":"tertiary","oneway":"yes","superficie":"asphalt"},"geometry":{"type":"LineString","coordinates":[[-2.06671,43.16814],[-2.06658,43.16812],[-2.06643,43.1681]]}},{"type":"Feature","properties":{"id":499256154,"highway":"motorway_link","oneway":"no"},"geometry":{"type":"LineString","coordinates":[[-2.06507,43.1683],[-2.06508,43.16835],[-2.06509,43.16839],[-2.06512,43.16843]]}},{"type":"Feature","properties":{"id":499256155,"highway":"motorway_link","oneway":"yes"},"geometry":{"type":"LineString","coordinates":[[-2.06571,43.16854],[-2.06555,43.16877],[-2.0655,43.16883]]}},{"type":"Feature","properties":{"id":499256156,"highway":"motorway_link","oneway":"yes","puente":"yes","superficie":"asphalt"},"geometry":{"type":"LineString","coordinates":[[-2.06605,43.16795],[-2.066,43.16814]]}},{"type":"Feature","properties":{"id":499256158,"highway":"tertiary","oneway":"no","superficie":"asphalt"},"geometry":{"type":"LineString","coordinates":[[-2.06643,43.1681],[-2.06585,43.168],[-2.06561,43.16797],[-2.06547,43.16797],[-2.06537,43.168],[-2.0653,43.16802],[-2.0652,43.16807],[-2.06516,43.1681],[-2.06511,43.16816],[-2.06509,43.1682],[-2.06508,43.16824],[-2.06507,43.16828],[-2.06507,43.1683]]}},{"type":"Feature","properties":{"id":499256159,"highway":"tertiary","nombre":"Kale Nagusia","ref":"GI-3650","oneway":"yes","superficie":"asphalt"},"geometry":{"type":"LineString","coordinates":[[-2.06713,43.16813],[-2.06704,43.16815],[-2.06699,43.16816],[-2.06694,43.16816],[-2.06682,43.16817]]}},{"type":"Feature","properties":{"id":499256160,"highway":"motorway_link","oneway":"yes","superficie":"asphalt"},"geometry":{"type":"LineString","coordinates":[[-2.0662,43.16734],[-2.06611,43.16766],[-2.06608,43.16786],[-2.06606,43.16791],[-2.06605,43.16795]]}},{"type":"Feature","properties":{"id":499256161,"highway":"tertiary","nombre":"Kale Nagusia","ref":"GI-3650","oneway":"yes","superficie":"asphalt"},"geometry":{"type":"LineString","coordinates":[[-2.06689,43.16829],[-2.06695,43.16825],[-2.06698,43.16823],[-2.06713,43.16813]]}},{"type":"Feature","properties":{"id":499256162,"highway":"tertiary","oneway":"yes","superficie":"asphalt"},"geometry":{"type":"LineString","coordinates":[[-2.06643,43.1681],[-2.06648,43.16814],[-2.06651,43.16818],[-2.06653,43.16822]]}},{"type":"Feature","properties":{"id":499256163,"highway":"service","nombre":"Ibai-Ondo auzoa"},"geometry":{"type":"LineString","coordinates":[[-2.06697,43.16842],[-2.06729,43.16865],[-2.06767,43.16892]]}},{"type":"Feature","properties":{"id":499256164,"highway":"tertiary","oneway":"yes"},"geometry":{"type":"LineString","coordinates":[[-2.06507,43.1683],[-2.06501,43.16836],[-2.06498,43.16838],[-2.06493,43.16841]]}},{"type":"Feature","properties":{"id":502832096,"highway":"path"},"geometry":{"type":"LineString","coordinates":[[-2.05216,43.16898],[-2.05224,43.16869],[-2.05226,43.16849],[-2.05229,43.16823],[-2.05228,43.16805],[-2.05225,43.16786],[-2.05224,43.16765],[-2.05226,43.16747],[-2.05229,43.16726],[-2.05235,43.167],[-2.05239,43.16676],[-2.05239,43.16649],[-2.05236,43.16621],[-2.05228,43.16601],[-2.05222,43.16586],[-2.05214,43.16576],[-2.05208,43.16567],[-2.05202,43.16556],[-2.052,43.16548],[-2.05203,43.16531],[-2.05207,43.16518],[-2.05211,43.16501],[-2.05212,43.16488],[-2.05213,43.16471]]}},{"type":"Feature","properties":{"id":502832097,"highway":"path","nombre":"Agarre bailara"},"geometry":{"type":"LineString","coordinates":[[-2.05402,43.16602],[-2.05404,43.16579],[-2.05406,43.16557],[-2.05407,43.16545],[-2.0541,43.16539],[-2.05416,43.16538],[-2.05424,43.16539],[-2.05451,43.16546],[-2.055,43.16558],[-2.05512,43.16559],[-2.05517,43.16556],[-2.05519,43.1655],[-2.05522,43.16542],[-2.05528,43.16535],[-2.05539,43.16529],[-2.05557,43.16519],[-2.05568,43.16508],[-2.05577,43.16496],[-2.05583,43.16484],[-2.05583,43.16476],[-2.05577,43.16465],[-2.05568,43.16454],[-2.05554,43.16437],[-2.05545,43.16424],[-2.05537,43.16414],[-2.05536,43.16403],[-2.05536,43.16397],[-2.05541,43.16396],[-2.05546,43.16399],[-2.05555,43.16403],[-2.05568,43.16407],[-2.05582,43.16408],[-2.05602,43.16408],[-2.05627,43.16405],[-2.0565,43.16404],[-2.05668,43.16408],[-2.05703,43.16418],[-2.05744,43.16432],[-2.05796,43.16454],[-2.0583,43.16465],[-2.05866,43.16478],[-2.05888,43.16484],[-2.05908,43.16494],[-2.05924,43.16504],[-2.05944,43.16518],[-2.05957,43.16532],[-2.05976,43.16556],[-2.05988,43.16582],[-2.05992,43.16597],[-2.05992,43.16602],[-2.05994,43.16606]]}},{"type":"Feature","properties":{"id":502832454,"highway":"path","nombre":"Agarre bailara"},"geometry":{"type":"MultiLineString","coordinates":[[[-2.06128,43.16377],[-2.06112,43.16363],[-2.06104,43.1635],[-2.06106,43.16338],[-2.06119,43.16327],[-2.06146,43.16316],[-2.0619,43.16304],[-2.06246,43.16283],[-2.06265,43.16269],[-2.06275,43.16251],[-2.0627,43.1624],[-2.06257,43.16219],[-2.06245,43.16206],[-2.06229,43.16185],[-2.06203,43.16148],[-2.06185,43.1613],[-2.06177,43.16117],[-2.06173,43.16105],[-2.06171,43.16094],[-2.06171,43.16088],[-2.06164,43.16086],[-2.06154,43.1609],[-2.06131,43.16094],[-2.06122,43.16094],[-2.06109,43.16091],[-2.06089,43.16081],[-2.06065,43.16068],[-2.06031,43.16058],[-2.06008,43.1605],[-2.05972,43.16042],[-2.05954,43.16036],[-2.05937,43.1603],[-2.05929,43.1603],[-2.05922,43.16033],[-2.05919,43.16038],[-2.05923,43.16044],[-2.05935,43.16054],[-2.05955,43.16078],[-2.05964,43.16095],[-2.05978,43.16135],[-2.05978,43.16154],[-2.05964,43.16187],[-2.05952,43.16196],[-2.05934,43.16202],[-2.05912,43.16207],[-2.05893,43.1621],[-2.05866,43.16206],[-2.05841,43.16204],[-2.05829,43.162],[-2.05824,43.16198],[-2.0581,43.16193],[-2.05798,43.16186],[-2.05792,43.16182],[-2.0577,43.16176],[-2.05751,43.16173],[-2.05744,43.16166],[-2.05731,43.16156],[-2.0572,43.16152],[-2.05704,43.16144],[-2.0569,43.16138],[-2.0568,43.16132],[-2.05676,43.16128],[-2.05675,43.16123],[-2.05678,43.16115],[-2.05679,43.16106],[-2.05673,43.161],[-2.05665,43.16096],[-2.05651,43.16092],[-2.05649,43.16088],[-2.05652,43.16083],[-2.05657,43.16072],[-2.05655,43.16065],[-2.05646,43.16058],[-2.05637,43.16054],[-2.0561,43.16053],[-2.05595,43.16049],[-2.05591,43.16046],[-2.0559,43.16039],[-2.05592,43.16032],[-2.05588,43.16028],[-2.0558,43.16027],[-2.05571,43.16022],[-2.05571,43.16015],[-2.05576,43.16008],[-2.05577,43.15998],[-2.05572,43.15992],[-2.05563,43.15987],[-2.05557,43.15986],[-2.05554,43.15979],[-2.05547,43.15975],[-2.05539,43.15976],[-2.0553,43.15977],[-2.05527,43.15975],[-2.05525,43.15967],[-2.05519,43.15962],[-2.05512,43.15962],[-2.05501,43.15964],[-2.05492,43.15961],[-2.05488,43.15957],[-2.05478,43.15954],[-2.05471,43.15948],[-2.05467,43.15938],[-2.05467,43.15927],[-2.05464,43.15922],[-2.05458,43.1592],[-2.05454,43.15915],[-2.05449,43.15914],[-2.05436,43.15921],[-2.05425,43.15917]],[[-2.05398,43.15918],[-2.05387,43.15923],[-2.05366,43.15925],[-2.05347,43.15923],[-2.05342,43.15922]]]}},{"type":"Feature","properties":{"id":502832721,"highway":"path"},"geometry":{"type":"LineString","coordinates":[[-2.05527,43.15975],[-2.05527,43.15984],[-2.05521,43.15991],[-2.05509,43.15996],[-2.05493,43.16],[-2.05478,43.16002],[-2.05457,43.16003],[-2.05441,43.16003],[-2.0543,43.16005],[-2.05425,43.16007],[-2.0542,43.16012],[-2.05416,43.16016],[-2.05412,43.1602],[-2.054,43.16023],[-2.05384,43.16025],[-2.05374,43.16024],[-2.0536,43.16021],[-2.05333,43.16018],[-2.05305,43.16015],[-2.05284,43.16015],[-2.05245,43.16018],[-2.05205,43.16022],[-2.0517,43.16024],[-2.05159,43.16026],[-2.05147,43.16029],[-2.05133,43.16033],[-2.05117,43.16035],[-2.05078,43.16034],[-2.05024,43.16034],[-2.04984,43.16033],[-2.04952,43.1603],[-2.04924,43.16028],[-2.04903,43.16026],[-2.04896,43.16027],[-2.0489,43.16031],[-2.04887,43.16039],[-2.04887,43.16048],[-2.04886,43.16072],[-2.04887,43.16097],[-2.04888,43.16122],[-2.04887,43.16135]]}},{"type":"Feature","properties":{"id":502832910,"highway":"path"},"geometry":{"type":"LineString","coordinates":[[-2.05829,43.162],[-2.05806,43.16199],[-2.05784,43.16202],[-2.05763,43.16203],[-2.05738,43.16202],[-2.05709,43.16201],[-2.05681,43.16197],[-2.05665,43.16192],[-2.05643,43.16182],[-2.05629,43.16171],[-2.05613,43.16159],[-2.056,43.16155],[-2.05579,43.1615],[-2.05567,43.16148],[-2.0555,43.16148],[-2.0554,43.1615],[-2.05524,43.16154],[-2.05508,43.16156],[-2.05482,43.16156],[-2.0545,43.16153],[-2.05426,43.16151],[-2.05402,43.16153],[-2.05377,43.16154],[-2.05353,43.16156],[-2.05328,43.1616],[-2.05295,43.16165],[-2.05263,43.16167],[-2.05248,43.16171],[-2.05242,43.16176],[-2.0524,43.16182],[-2.05241,43.16188],[-2.05246,43.16193],[-2.05248,43.16199],[-2.05244,43.16208],[-2.05236,43.16218],[-2.05223,43.16224],[-2.0521,43.16229],[-2.05191,43.16232],[-2.05176,43.16238],[-2.05162,43.16246],[-2.05157,43.16254],[-2.05154,43.16265],[-2.05149,43.16272],[-2.05139,43.16278],[-2.05118,43.1629],[-2.05108,43.16296],[-2.05093,43.16306],[-2.05084,43.16311],[-2.05069,43.16324],[-2.05062,43.16331],[-2.05054,43.16338]]}},{"type":"Feature","properties":{"id":502833090,"highway":"path"},"geometry":{"type":"LineString","coordinates":[[-2.05919,43.16038],[-2.05916,43.16047],[-2.05907,43.16055],[-2.05897,43.16063],[-2.05892,43.1607],[-2.05894,43.16077],[-2.059,43.16082],[-2.05906,43.1609],[-2.05903,43.16101],[-2.05896,43.16116],[-2.0589,43.16129],[-2.05885,43.16138],[-2.05876,43.16145],[-2.05858,43.16153],[-2.05845,43.16161],[-2.05835,43.16169],[-2.05824,43.16179],[-2.05818,43.16183],[-2.05807,43.16185],[-2.05798,43.16186]]}},{"type":"Feature","properties":{"id":502833352,"highway":"path","nombre":"Agarre bailara"},"geometry":{"type":"LineString","coordinates":[[-2.06555,43.16383],[-2.06563,43.16374],[-2.06576,43.16371],[-2.06591,43.1637],[-2.06601,43.16366],[-2.06603,43.16351],[-2.06597,43.16336],[-2.06583,43.16313],[-2.06564,43.16299],[-2.06533,43.16277],[-2.0651,43.16251],[-2.06503,43.1624],[-2.065,43.16224],[-2.06505,43.16203],[-2.06498,43.16181],[-2.06488,43.16159],[-2.06473,43.16146],[-2.06459,43.16146],[-2.06436,43.16151],[-2.0641,43.16161],[-2.06384,43.16168],[-2.06366,43.16169],[-2.06348,43.16162],[-2.06331,43.16151],[-2.06289,43.16128],[-2.06246,43.16101],[-2.06199,43.16082],[-2.06185,43.16082],[-2.06164,43.16086]]}},{"type":"Feature","properties":{"id":502833353,"highway":"path","nombre":"Santa Lutzia auzoa"},"geometry":{"type":"LineString","coordinates":[[-2.0618,43.15919],[-2.06179,43.1593],[-2.06183,43.15948],[-2.06183,43.15959],[-2.06177,43.15965],[-2.06172,43.1597],[-2.06169,43.15977],[-2.06168,43.1598],[-2.06169,43.15989],[-2.06167,43.15994],[-2.06162,43.15999],[-2.06152,43.16004],[-2.06109,43.16015],[-2.06077,43.16022],[-2.06063,43.16023],[-2.06039,43.16022],[-2.06027,43.16021],[-2.05999,43.16016],[-2.05967,43.16011],[-2.05944,43.16006],[-2.05931,43.16006],[-2.05925,43.16008],[-2.05921,43.16012],[-2.0592,43.16017],[-2.0592,43.16025],[-2.05919,43.16038]]}},{"type":"Feature","properties":{"id":502834075,"highway":"path"},"geometry":{"type":"MultiLineString","coordinates":[[[-2.06169,43.15977],[-2.06162,43.15975],[-2.06155,43.15971],[-2.0615,43.15966],[-2.0614,43.15951],[-2.06131,43.1594],[-2.06121,43.15923]],[[-2.0598,43.15908],[-2.05974,43.15909],[-2.05953,43.1591],[-2.05923,43.15908],[-2.0592,43.15907],[-2.05922,43.15905],[-2.05929,43.15901],[-2.05937,43.15896]]]}},{"type":"Feature","properties":{"id":754379405,"highway":"path","nombre":"Agarre bailara"},"geometry":{"type":"LineString","coordinates":[[-2.06494,43.16315],[-2.06487,43.16313],[-2.06476,43.1631],[-2.06469,43.16305],[-2.06465,43.16297],[-2.0646,43.16286],[-2.06458,43.16279],[-2.06454,43.16274],[-2.06453,43.16267],[-2.06453,43.16262],[-2.06452,43.16246],[-2.06447,43.16238],[-2.06442,43.1623],[-2.06444,43.16226],[-2.06456,43.1622],[-2.0647,43.16218],[-2.06485,43.16223],[-2.06497,43.16233],[-2.06503,43.1624]]}},{"type":"Feature","properties":{"id":763975844,"highway":"residential","nombre":"Agarre bailara"},"geometry":{"type":"LineString","coordinates":[[-2.06406,43.16368],[-2.06401,43.1637],[-2.06396,43.16374],[-2.06394,43.16378],[-2.06394,43.16383],[-2.06395,43.16388],[-2.06399,43.16392],[-2.06404,43.16395],[-2.06411,43.16396],[-2.06417,43.16396],[-2.06424,43.16394],[-2.06429,43.16391],[-2.06432,43.16387],[-2.06434,43.16382],[-2.06433,43.16377],[-2.0643,43.16373],[-2.06425,43.16369],[-2.06419,43.16367],[-2.06413,43.16367],[-2.06406,43.16368]]}},{"type":"Feature","properties":{"id":763975845,"highway":"residential","nombre":"Agarre bailara"},"geometry":{"type":"LineString","coordinates":[[-2.06275,43.16342],[-2.06271,43.16345],[-2.06268,43.1635],[-2.06268,43.16354],[-2.0627,43.16359],[-2.06274,43.16363],[-2.0628,43.16365],[-2.06286,43.16366],[-2.06292,43.16366],[-2.06298,43.16364],[-2.06302,43.16361],[-2.06305,43.16357],[-2.06306,43.16352],[-2.06305,43.16348],[-2.06303,43.16344],[-2.06298,43.16341],[-2.06293,43.16339],[-2.06287,43.16338],[-2.0628,43.16339],[-2.06275,43.16342]]}},{"type":"Feature","properties":{"id":763975846,"highway":"residential","nombre":"Agarre bailara"},"geometry":{"type":"LineString","coordinates":[[-2.06156,43.16337],[-2.06153,43.16339],[-2.06151,43.16342],[-2.06151,43.16345],[-2.06152,43.16348],[-2.06155,43.1635],[-2.06158,43.16352],[-2.06162,43.16353],[-2.06166,43.16352],[-2.0617,43.16351],[-2.06172,43.16349],[-2.06174,43.16347],[-2.06175,43.16344],[-2.06175,43.16341],[-2.06173,43.16339],[-2.0617,43.16337],[-2.06167,43.16336],[-2.06163,43.16335],[-2.06159,43.16336],[-2.06156,43.16337]]}},{"type":"Feature","properties":{"id":771950096,"highway":"path"},"geometry":{"type":"LineString","coordinates":[[-2.06473,43.16146],[-2.06467,43.16138],[-2.06465,43.16132],[-2.06464,43.16127],[-2.06461,43.16123],[-2.06461,43.16114],[-2.06457,43.16107],[-2.06453,43.161],[-2.06453,43.16094],[-2.06458,43.16086],[-2.06461,43.16084],[-2.06465,43.16083],[-2.06467,43.16078],[-2.06476,43.16071],[-2.06486,43.16055],[-2.0649,43.16049],[-2.06491,43.16043],[-2.06493,43.1604],[-2.06484,43.16036],[-2.06484,43.16031],[-2.06484,43.16028],[-2.06478,43.16021],[-2.06479,43.16017],[-2.06479,43.16007],[-2.0648,43.15999],[-2.0648,43.15995],[-2.06485,43.15989],[-2.06488,43.15986],[-2.06491,43.15978],[-2.06493,43.15974],[-2.06489,43.15968],[-2.06493,43.15961],[-2.06496,43.15955],[-2.06496,43.1595],[-2.065,43.15947],[-2.06501,43.15943],[-2.06504,43.15938],[-2.06509,43.15931],[-2.06511,43.15927],[-2.06513,43.1592],[-2.06517,43.15913],[-2.06519,43.1591],[-2.06519,43.15905],[-2.06518,43.15898],[-2.06517,43.15892],[-2.06519,43.15886],[-2.0652,43.15881],[-2.06522,43.15877],[-2.06521,43.15873],[-2.06521,43.15867],[-2.06522,43.15864],[-2.06522,43.15859],[-2.06522,43.15852],[-2.06521,43.15846],[-2.06516,43.15841],[-2.06516,43.15836],[-2.06516,43.15832],[-2.06509,43.15827],[-2.06503,43.15823],[-2.065,43.15817],[-2.06501,43.15812],[-2.06506,43.15806]]}},{"type":"Feature","properties":{"id":1047657321,"highway":"footway"},"geometry":{"type":"LineString","coordinates":[[-2.07101,43.16675],[-2.07096,43.16676],[-2.07094,43.16677],[-2.07091,43.16679],[-2.07087,43.16683],[-2.07084,43.16688],[-2.07079,43.16699],[-2.07076,43.16706],[-2.07062,43.16744],[-2.07042,43.16784],[-2.07026,43.16805],[-2.07014,43.16822],[-2.06985,43.16861],[-2.06953,43.16889],[-2.06932,43.16904],[-2.06914,43.16913],[-2.06896,43.1692],[-2.0688,43.16926],[-2.06861,43.16932],[-2.06848,43.16936],[-2.06837,43.16938],[-2.06826,43.16939],[-2.06818,43.16936],[-2.06815,43.16932],[-2.06811,43.16926],[-2.06808,43.1692],[-2.06805,43.16912],[-2.06803,43.16905],[-2.06798,43.16896],[-2.06795,43.16891],[-2.0679,43.16885],[-2.06788,43.16881],[-2.06789,43.16876],[-2.06792,43.16873],[-2.06797,43.16869],[-2.068,43.16868],[-2.06809,43.16863]]}},{"type":"Feature","properties":{"id":1047657322,"highway":"footway"},"geometry":{"type":"LineString","coordinates":[[-2.06876,43.16841],[-2.06885,43.16845],[-2.0689,43.16848],[-2.06897,43.1685],[-2.06903,43.16854],[-2.06908,43.16858],[-2.06926,43.16869],[-2.06933,43.16874],[-2.0694,43.16879],[-2.06946,43.16883],[-2.0695,43.16887],[-2.06953,43.16889]]}},{"type":"Feature","properties":{"id":1047659594,"highway":"footway"},"geometry":{"type":"LineString","coordinates":[[-2.07061,43.16666],[-2.06962,43.16646],[-2.06963,43.1664]]}},{"type":"Feature","properties":{"id":1047659595,"highway":"footway"},"geometry":{"type":"LineString","coordinates":[[-2.07084,43.16572],[-2.07078,43.16571]]}},{"type":"Feature","properties":{"id":1054341560,"highway":"footway"},"geometry":{"type":"LineString","coordinates":[[-2.06915,43.16781],[-2.06926,43.16785],[-2.06955,43.16791],[-2.06977,43.16797],[-2.06997,43.16801],[-2.07011,43.16803],[-2.07026,43.16805]]}},{"type":"Feature","properties":{"id":1054345836,"highway":"path"},"geometry":{"type":"LineString","coordinates":[[-2.06598,43.16713],[-2.06598,43.16719],[-2.06597,43.16725],[-2.06596,43.16731],[-2.066,43.16731],[-2.06603,43.16731]]}},{"type":"Feature","properties":{"id":1167970349,"highway":"residential","oneway":"yes"},"geometry":{"type":"LineString","coordinates":[[-2.06486,43.1685],[-2.06486,43.16854],[-2.06489,43.16857],[-2.06492,43.1686],[-2.06496,43.16861],[-2.065,43.16863]]}},{"type":"Feature","properties":{"id":1167970350,"highway":"residential","oneway":"yes"},"geometry":{"type":"LineString","coordinates":[[-2.065,43.16863],[-2.06499,43.1686],[-2.06498,43.16857],[-2.06497,43.16855],[-2.06497,43.16855],[-2.06496,43.1685]]}},{"type":"Feature","properties":{"id":1168290526,"highway":"track","superficie":"dirt"},"geometry":{"type":"LineString","coordinates":[[-2.05851,43.17142],[-2.05845,43.17142],[-2.05839,43.17141],[-2.05825,43.17142],[-2.05808,43.17145],[-2.05794,43.17147],[-2.05761,43.17156],[-2.05749,43.17161],[-2.05744,43.17166],[-2.05741,43.17169],[-2.05739,43.17173],[-2.05737,43.17177],[-2.05735,43.17181],[-2.05735,43.17187],[-2.05734,43.17191],[-2.05733,43.17197],[-2.05732,43.17199],[-2.05731,43.17202],[-2.0573,43.17204],[-2.05728,43.17205],[-2.05727,43.17205],[-2.05725,43.17205],[-2.05721,43.17205],[-2.05718,43.17204],[-2.05716,43.17204],[-2.05713,43.17202],[-2.05711,43.17201],[-2.05694,43.1719],[-2.0569,43.17188],[-2.05689,43.17187],[-2.05685,43.17186],[-2.05682,43.17186],[-2.05677,43.17185],[-2.05674,43.17186],[-2.05671,43.17187],[-2.05667,43.17188],[-2.05662,43.17191]]}},{"type":"Feature","properties":{"id":1168290531,"highway":"service","superficie":"asphalt"},"geometry":{"type":"LineString","coordinates":[[-2.06473,43.16833],[-2.06472,43.16841],[-2.06473,43.16847]]}},{"type":"Feature","properties":{"id":1168290533,"highway":"service"},"geometry":{"type":"LineString","coordinates":[[-2.0651,43.16533],[-2.06488,43.16546],[-2.06468,43.16568],[-2.06443,43.16596],[-2.06429,43.16611],[-2.06418,43.16623],[-2.06399,43.16634],[-2.06391,43.16637],[-2.06372,43.16642],[-2.06362,43.16642],[-2.06361,43.16641],[-2.0636,43.16639],[-2.06375,43.16628],[-2.06414,43.16548]]}},{"type":"Feature","properties":{"id":1168290535,"highway":"track"},"geometry":{"type":"LineString","coordinates":[[-2.0626,43.16515],[-2.06267,43.16527],[-2.06266,43.16541],[-2.06255,43.1656],[-2.06245,43.16593],[-2.06245,43.16609],[-2.06253,43.16655],[-2.06257,43.16684],[-2.06257,43.16699],[-2.06251,43.16709],[-2.06244,43.16716],[-2.06239,43.16722],[-2.06233,43.16727],[-2.06235,43.16731],[-2.06239,43.16733],[-2.06257,43.16727],[-2.06292,43.16698],[-2.0632,43.16678],[-2.0634,43.16659],[-2.06351,43.16646],[-2.06361,43.16641]]}},{"type":"Feature","properties":{"id":1168290542,"highway":"service","nombre":"Ibai-Ondo auzoa"},"geometry":{"type":"LineString","coordinates":[[-2.05776,43.1755],[-2.0578,43.17553],[-2.05807,43.1757],[-2.05806,43.17574],[-2.05803,43.17578],[-2.05765,43.17622],[-2.05746,43.17637],[-2.05741,43.17641]]}},{"type":"Feature","properties":{"id":1168290543,"highway":"service"},"geometry":{"type":"LineString","coordinates":[[-2.05634,43.1761],[-2.05615,43.17612]]}},{"type":"Feature","properties":{"id":1315996030,"highway":"tertiary","nombre":"Kale Nagusia","ref":"GI-3650","oneway":"yes","superficie":"asphalt"},"geometry":{"type":"LineString","coordinates":[[-2.06945,43.16421],[-2.0694,43.16429],[-2.06938,43.16433]]}},{"type":"Feature","properties":{"id":1315996031,"highway":"tertiary","nombre":"Kale Nagusia","ref":"GI-3650","oneway":"yes","superficie":"asphalt"},"geometry":{"type":"LineString","coordinates":[[-2.06945,43.16421],[-2.06933,43.16422],[-2.06924,43.1642]]}},{"type":"Feature","properties":{"id":1315996032,"highway":"tertiary","nombre":"Kale Nagusia","ref":"GI-3650","oneway":"yes","superficie":"asphalt"},"geometry":{"type":"LineString","coordinates":[[-2.06951,43.16416],[-2.06949,43.16418],[-2.06945,43.16421]]}},{"type":"Feature","properties":{"id":1315996033,"highway":"tertiary","nombre":"Kale Nagusia","ref":"GI-3650","oneway":"yes","superficie":"asphalt"},"geometry":{"type":"LineString","coordinates":[[-2.06951,43.16479],[-2.06949,43.16455],[-2.06949,43.16453]]}},{"type":"Feature","properties":{"id":1315996034,"highway":"tertiary","nombre":"Kale Nagusia","ref":"GI-3650","oneway":"yes","superficie":"asphalt"},"geometry":{"type":"LineString","coordinates":[[-2.06944,43.16461],[-2.06951,43.16479]]}},{"type":"Feature","properties":{"id":1315996035,"highway":"tertiary","nombre":"Kale Nagusia","ref":"GI-3650","oneway":"yes","superficie":"asphalt"},"geometry":{"type":"LineString","coordinates":[[-2.06947,43.16447],[-2.06948,43.16441],[-2.06951,43.16416]]}},{"type":"Feature","properties":{"id":1315996036,"highway":"tertiary","nombre":"Kale Nagusia","ref":"GI-3650","oneway":"yes","superficie":"asphalt"},"geometry":{"type":"LineString","coordinates":[[-2.06938,43.16433],[-2.06924,43.1642]]}},{"type":"Feature","properties":{"id":1315996037,"highway":"tertiary","nombre":"Kale Nagusia","ref":"GI-3650","oneway":"yes","superficie":"asphalt"},"geometry":{"type":"LineString","coordinates":[[-2.06938,43.16433],[-2.06935,43.16436],[-2.06936,43.16442],[-2.06938,43.16448]]}},{"type":"Feature","properties":{"id":1315996038,"highway":"tertiary","nombre":"Kale Nagusia","ref":"GI-3650","oneway":"yes","superficie":"asphalt"},"geometry":{"type":"LineString","coordinates":[[-2.06947,43.16447],[-2.06941,43.16436],[-2.06938,43.16433]]}},{"type":"Feature","properties":{"id":1315996039,"highway":"residential","nombre":"Etxezarreta kalea","oneway":"yes","superficie":"asphalt"},"geometry":{"type":"LineString","coordinates":[[-2.06938,43.16448],[-2.06944,43.16451],[-2.06949,43.16453]]}},{"type":"Feature","properties":{"id":1315996040,"highway":"tertiary","nombre":"Kale Nagusia","ref":"GI-3650","oneway":"yes","superficie":"asphalt"},"geometry":{"type":"LineString","coordinates":[[-2.06949,43.16453],[-2.06947,43.16447]]}},{"type":"Feature","properties":{"id":1315996041,"highway":"tertiary","nombre":"Kale Nagusia","ref":"GI-3650","oneway":"yes","superficie":"asphalt"},"geometry":{"type":"LineString","coordinates":[[-2.06938,43.16448],[-2.06944,43.16461]]}},{"type":"Feature","properties":{"id":1315996046,"highway":"service","nombre":"Ibai-Ondo auzoa","oneway":"yes","superficie":"asphalt"},"geometry":{"type":"LineString","coordinates":[[-2.06167,43.17223],[-2.06204,43.17199],[-2.06255,43.17167],[-2.06279,43.17151]]}},{"type":"Feature","properties":{"id":1315996047,"highway":"service","oneway":"yes","superficie":"asphalt"},"geometry":{"type":"LineString","coordinates":[[-2.06659,43.16854],[-2.06668,43.16847],[-2.06673,43.16841]]}},{"type":"Feature","properties":{"id":1315996048,"highway":"service","oneway":"yes","superficie":"asphalt"},"geometry":{"type":"LineString","coordinates":[[-2.06662,43.1684],[-2.06659,43.16854]]}},{"type":"Feature","properties":{"id":1315996049,"highway":"service","oneway":"yes","superficie":"asphalt"},"geometry":{"type":"LineString","coordinates":[[-2.06679,43.1684],[-2.06697,43.16842]]}},{"type":"Feature","properties":{"id":1315996050,"highway":"service","oneway":"yes","superficie":"asphalt"},"geometry":{"type":"LineString","coordinates":[[-2.06697,43.16842],[-2.06691,43.16837],[-2.06687,43.16834]]}},{"type":"Feature","properties":{"id":1315996051,"highway":"service","nombre":"Ibai-Ondo auzoa","superficie":"asphalt"},"geometry":{"type":"LineString","coordinates":[[-2.06697,43.16842],[-2.06734,43.16817]]}},{"type":"Feature","properties":{"id":1315996052,"highway":"service"},"geometry":{"type":"LineString","coordinates":[[-2.06656,43.16857],[-2.06669,43.16865]]}},{"type":"Feature","properties":{"id":1315996053,"highway":"service"},"geometry":{"type":"LineString","coordinates":[[-2.06684,43.16853],[-2.06669,43.16865]]}},{"type":"Feature","properties":{"id":1315996055,"highway":"service","nombre":"Ibai-Ondo auzoa"},"geometry":{"type":"LineString","coordinates":[[-2.06598,43.16907],[-2.06641,43.16937]]}},{"type":"Feature","properties":{"id":1359888981,"highway":"cycleway","superficie":"asphalt"},"geometry":{"type":"LineString","coordinates":[[-2.068,43.16868],[-2.06798,43.16866],[-2.0678,43.16847],[-2.06776,43.16842],[-2.06772,43.16832],[-2.06761,43.16821],[-2.06751,43.16811],[-2.06744,43.16805],[-2.06745,43.168]]}},{"type":"Feature","properties":{"id":1360078014,"highway":"residential","nombre":"Etxezarreta kalea","oneway":"yes"},"geometry":{"type":"LineString","coordinates":[[-2.07014,43.16651],[-2.07045,43.16656],[-2.07049,43.16655],[-2.07053,43.16654],[-2.07057,43.16651],[-2.07065,43.16621],[-2.07078,43.16571]]}},{"type":"Feature","properties":{"id":1360078016,"highway":"residential","oneway":"yes"},"geometry":{"type":"LineString","coordinates":[[-2.07067,43.16538],[-2.07069,43.16542],[-2.07068,43.16547],[-2.07066,43.16551],[-2.07065,43.16552],[-2.07062,43.16555],[-2.07059,43.16557],[-2.07052,43.16558]]}},{"type":"Feature","properties":{"id":1360078017,"highway":"residential","oneway":"yes"},"geometry":{"type":"LineString","coordinates":[[-2.07078,43.16571],[-2.07077,43.16567],[-2.07072,43.16563],[-2.07067,43.16561],[-2.07059,43.1656],[-2.07052,43.16558]]}},{"type":"Feature","properties":{"id":1360078018,"highway":"service","nombre":"Etxezarreta kalea"},"geometry":{"type":"LineString","coordinates":[[-2.0711,43.1654],[-2.07081,43.16549],[-2.07073,43.16551],[-2.07069,43.16552],[-2.07065,43.16552]]}},{"type":"Feature","properties":{"id":1360078019,"highway":"service","oneway":"yes"},"geometry":{"type":"LineString","coordinates":[[-2.07077,43.16567],[-2.07076,43.16561],[-2.07075,43.16557],[-2.07073,43.16551]]}},{"type":"Feature","properties":{"id":1360078020,"highway":"footway"},"geometry":{"type":"LineString","coordinates":[[-2.07073,43.16536],[-2.07067,43.16538]]}},{"type":"Feature","properties":{"id":1360078021,"highway":"footway"},"geometry":{"type":"LineString","coordinates":[[-2.07078,43.16571],[-2.07071,43.16571],[-2.0707,43.16569],[-2.07069,43.16568],[-2.07065,43.16567],[-2.07038,43.16564],[-2.07002,43.16558]]}},{"type":"Feature","properties":{"id":1370561096,"highway":"motorway","nombre":"Iparraldeko autobia","izena_eu":"Iparraldeko autobia","nombre_es":"Autovía del Norte","ref":"N-I","oneway":"yes","superficie":"asphalt"},"geometry":{"type":"LineString","coordinates":[[-2.0662,43.16734],[-2.06619,43.16762],[-2.06613,43.16796]]}},{"type":"Feature","properties":{"id":1370561097,"highway":"motorway","nombre":"Iparraldeko autobia","izena_eu":"Iparraldeko autobia","nombre_es":"Autovía del Norte","ref":"N-I","oneway":"yes","superficie":"asphalt"},"geometry":{"type":"LineString","coordinates":[[-2.06627,43.168],[-2.06632,43.16771],[-2.06634,43.1674],[-2.06634,43.16725],[-2.06632,43.16708],[-2.06625,43.16677],[-2.06616,43.16641],[-2.06604,43.16599],[-2.06597,43.16569],[-2.06595,43.16553],[-2.06595,43.16535],[-2.06598,43.16513],[-2.06604,43.16492],[-2.0661,43.16478],[-2.06628,43.16449],[-2.06648,43.16421],[-2.06668,43.16393],[-2.06689,43.16362],[-2.06699,43.1634],[-2.06705,43.16319],[-2.0671,43.16299],[-2.06711,43.16276],[-2.06709,43.16256],[-2.06706,43.16236],[-2.06693,43.16199],[-2.06678,43.16157],[-2.0666,43.16116],[-2.06644,43.16084]]}},{"type":"Feature","properties":{"id":1370561098,"highway":"tertiary","ref":"GI-3650","superficie":"asphalt"},"geometry":{"type":"LineString","coordinates":[[-2.06653,43.16822],[-2.06651,43.16826],[-2.06651,43.1683],[-2.06653,43.16833],[-2.06656,43.16836],[-2.06659,43.16839]]}},{"type":"Feature","properties":{"id":1370561100,"highway":"motorway","nombre":"Iparraldeko autobia","izena_eu":"Iparraldeko autobia","nombre_es":"Autovía del Norte","ref":"N-I","oneway":"yes","superficie":"asphalt"},"geometry":{"type":"LineString","coordinates":[[-2.06539,43.16938],[-2.06564,43.1691],[-2.06587,43.16881],[-2.06605,43.16853],[-2.06616,43.1683],[-2.06621,43.16818]]}},{"type":"Feature","properties":{"id":1370561102,"highway":"motorway","nombre":"Iparraldeko autobia","izena_eu":"Iparraldeko autobia","nombre_es":"Autovía del Norte","ref":"N-I","oneway":"yes","superficie":"asphalt"},"geometry":{"type":"LineString","coordinates":[[-2.06607,43.16814],[-2.06605,43.16821],[-2.06591,43.16852],[-2.06579,43.16873],[-2.06563,43.16893],[-2.0654,43.1692],[-2.06515,43.16942],[-2.06464,43.16983],[-2.06407,43.17026]]}},{"type":"Feature","properties":{"id":1370561103,"highway":"motorway_link","oneway":"yes"},"geometry":{"type":"LineString","coordinates":[[-2.06571,43.16854],[-2.06559,43.16858],[-2.06552,43.16859],[-2.06543,43.16858],[-2.06532,43.16856],[-2.06523,43.16852],[-2.06519,43.16849],[-2.06512,43.16843]]}},{"type":"Feature","properties":{"id":1370561104,"highway":"motorway_link","oneway":"yes","superficie":"asphalt"},"geometry":{"type":"LineString","coordinates":[[-2.06512,43.16843],[-2.06518,43.16853],[-2.06529,43.16861],[-2.06541,43.16868],[-2.06548,43.16878],[-2.0655,43.16883]]}},{"type":"Feature","properties":{"id":1370561105,"highway":"motorway","nombre":"Iparraldeko autobia","izena_eu":"Iparraldeko autobia","nombre_es":"Autovía del Norte","ref":"N-I","oneway":"yes","superficie":"asphalt"},"geometry":{"type":"LineString","coordinates":[[-2.05662,43.17623],[-2.05685,43.17601],[-2.05803,43.17509],[-2.05886,43.17446]]}},{"type":"Feature","properties":{"id":1385593083,"highway":"residential","nombre":"Sagasti kalea","oneway":"yes"},"geometry":{"type":"LineString","coordinates":[[-2.06602,43.167],[-2.06602,43.16703],[-2.06601,43.16706],[-2.06599,43.16708],[-2.06598,43.16709]]}},{"type":"Feature","properties":{"id":1385593084,"highway":"residential","nombre":"Zillar kalea","oneway":"yes"},"geometry":{"type":"LineString","coordinates":[[-2.06606,43.16717],[-2.06605,43.16708],[-2.06602,43.167]]}},{"type":"Feature","properties":{"id":1385593085,"highway":"service","oneway":"yes"},"geometry":{"type":"LineString","coordinates":[[-2.0657,43.16784],[-2.06577,43.16779],[-2.06579,43.16778],[-2.06583,43.16777],[-2.06584,43.16775],[-2.06585,43.16772],[-2.06586,43.16752],[-2.06588,43.16744],[-2.06588,43.16743],[-2.06588,43.16741],[-2.06588,43.16738],[-2.06587,43.16736],[-2.06584,43.16732],[-2.06581,43.1673],[-2.06575,43.16729],[-2.06564,43.16728],[-2.06551,43.16728],[-2.06545,43.16727],[-2.06542,43.16726],[-2.06538,43.16726],[-2.06534,43.16727],[-2.0653,43.16732],[-2.06528,43.16738],[-2.06528,43.16755],[-2.06527,43.16768],[-2.06526,43.16773],[-2.06521,43.16778]]}},{"type":"Feature","properties":{"id":1385593087,"highway":"residential","nombre":"Katategi auzoa","superficie":"asphalt"},"geometry":{"type":"LineString","coordinates":[[-2.06484,43.16847],[-2.06478,43.16847],[-2.06476,43.16847],[-2.06473,43.16847],[-2.0647,43.16847],[-2.06448,43.16847],[-2.06442,43.16848],[-2.06433,43.16849]]}},{"type":"Feature","properties":{"id":1385593088,"highway":"residential","nombre":"Katategi auzoa","superficie":"asphalt"},"geometry":{"type":"LineString","coordinates":[[-2.06213,43.16967],[-2.06183,43.16976],[-2.06162,43.16986],[-2.06155,43.1699],[-2.06125,43.17008]]}},{"type":"Feature","properties":{"id":1385593090,"highway":"tertiary","superficie":"asphalt"},"geometry":{"type":"LineString","coordinates":[[-2.06486,43.16842],[-2.06485,43.16844],[-2.06484,43.16845],[-2.06484,43.16847]]}},{"type":"Feature","properties":{"id":1385593091,"highway":"service","nombre":"Katategi auzoa","superficie":"asphalt"},"geometry":{"type":"LineString","coordinates":[[-2.06442,43.16848],[-2.06432,43.1684]]}},{"type":"Feature","properties":{"id":1385593092,"highway":"service","superficie":"asphalt"},"geometry":{"type":"LineString","coordinates":[[-2.06432,43.1684],[-2.06429,43.16839],[-2.06419,43.16842],[-2.06324,43.16915],[-2.0629,43.16941]]}},{"type":"Feature","properties":{"id":1385593093,"highway":"steps"},"geometry":{"type":"LineString","coordinates":[[-2.05975,43.17388],[-2.05966,43.17395]]}},{"type":"Feature","properties":{"id":1385593094,"highway":"steps"},"geometry":{"type":"LineString","coordinates":[[-2.05966,43.17395],[-2.05969,43.17396],[-2.05961,43.17402]]}},{"type":"Feature","properties":{"id":1385593095,"highway":"footway"},"geometry":{"type":"LineString","coordinates":[[-2.05961,43.17402],[-2.05942,43.17418],[-2.05901,43.1745],[-2.05887,43.17461],[-2.05874,43.17472],[-2.05857,43.17485],[-2.05842,43.17496],[-2.05828,43.17508]]}},{"type":"Feature","properties":{"id":1385593096,"highway":"steps"},"geometry":{"type":"LineString","coordinates":[[-2.05942,43.1736],[-2.05947,43.17356],[-2.05951,43.17354]]}},{"type":"Feature","properties":{"id":1385593097,"highway":"footway"},"geometry":{"type":"LineString","coordinates":[[-2.05951,43.17354],[-2.05957,43.17353],[-2.05962,43.17349]]}},{"type":"Feature","properties":{"id":1385593098,"highway":"footway"},"geometry":{"type":"LineString","coordinates":[[-2.05944,43.17363],[-2.0594,43.17366],[-2.05937,43.17369]]}},{"type":"Feature","properties":{"id":1385593099,"highway":"footway"},"geometry":{"type":"LineString","coordinates":[[-2.05944,43.17363],[-2.05947,43.17361],[-2.05957,43.17353]]}},{"type":"Feature","properties":{"id":1385593100,"highway":"service","nombre":"Ibai-Ondo auzoa","oneway":"yes","superficie":"asphalt"},"geometry":{"type":"LineString","coordinates":[[-2.05685,43.17626],[-2.05695,43.17617],[-2.05725,43.17593],[-2.05776,43.1755]]}},{"type":"Feature","properties":{"id":1385593101,"highway":"service","superficie":"asphalt"},"geometry":{"type":"LineString","coordinates":[[-2.05815,43.17515],[-2.05784,43.17543],[-2.05776,43.1755]]}},{"type":"Feature","properties":{"id":1385593102,"highway":"footway"},"geometry":{"type":"LineString","coordinates":[[-2.05828,43.17508],[-2.05802,43.17529],[-2.058,43.17536],[-2.0578,43.17553],[-2.05777,43.17554],[-2.05735,43.17588],[-2.05712,43.17607],[-2.05692,43.17624],[-2.05688,43.17627],[-2.05686,43.17628]]}},{"type":"Feature","properties":{"id":1411593501,"highway":"residential","nombre":"Zillar kalea","oneway":"yes","superficie":"asphalt"},"geometry":{"type":"LineString","coordinates":[[-2.06492,43.16841],[-2.0649,43.16837],[-2.06487,43.16831]]}},{"type":"Feature","properties":{"id":1411593502,"highway":"residential","nombre":"Zillar kalea","oneway":"yes","superficie":"asphalt"},"geometry":{"type":"LineString","coordinates":[[-2.06487,43.16831],[-2.06487,43.16837],[-2.06486,43.16842]]}},{"type":"Feature","properties":{"id":1411593503,"highway":"tertiary","superficie":"asphalt"},"geometry":{"type":"LineString","coordinates":[[-2.06494,43.16851],[-2.06496,43.1685],[-2.06497,43.16848],[-2.06498,43.16847],[-2.06497,43.16845],[-2.06497,43.16844],[-2.06495,43.16842],[-2.06493,43.16841]]}},{"type":"Feature","properties":{"id":1411593504,"highway":"tertiary","superficie":"asphalt"},"geometry":{"type":"LineString","coordinates":[[-2.06493,43.16841],[-2.06492,43.16841]]}},{"type":"Feature","properties":{"id":1411593505,"highway":"tertiary","superficie":"asphalt"},"geometry":{"type":"LineString","coordinates":[[-2.06486,43.1685],[-2.06487,43.16851],[-2.0649,43.16851],[-2.06492,43.16851],[-2.06494,43.16851]]}},{"type":"Feature","properties":{"id":1411593506,"highway":"tertiary","superficie":"asphalt"},"geometry":{"type":"LineString","coordinates":[[-2.06492,43.16841],[-2.06491,43.16841],[-2.06488,43.16841],[-2.06486,43.16842]]}},{"type":"Feature","properties":{"id":1411593511,"highway":"tertiary","ref":"GI-3650","superficie":"asphalt"},"geometry":{"type":"LineString","coordinates":[[-2.06689,43.16829],[-2.06689,43.16825],[-2.06686,43.1682],[-2.06682,43.16817],[-2.06677,43.16815],[-2.06671,43.16814],[-2.06665,43.16814],[-2.0666,43.16816],[-2.06656,43.16819],[-2.06653,43.16822]]}},{"type":"Feature","properties":{"id":1411593512,"highway":"tertiary","nombre":"Kale Nagusia","ref":"GI-3650","superficie":"asphalt"},"geometry":{"type":"LineString","coordinates":[[-2.06724,43.16804],[-2.06718,43.16809],[-2.06713,43.16813]]}},{"type":"Feature","properties":{"id":1411593513,"highway":"tertiary","ref":"GI-3650","superficie":"asphalt"},"geometry":{"type":"LineString","coordinates":[[-2.06659,43.16839],[-2.06662,43.1684],[-2.06668,43.16841],[-2.06673,43.16841]]}},{"type":"Feature","properties":{"id":1411593514,"highway":"tertiary","ref":"GI-3650","superficie":"asphalt"},"geometry":{"type":"LineString","coordinates":[[-2.06673,43.16841],[-2.06679,43.1684],[-2.06684,43.16837],[-2.06687,43.16834]]}},{"type":"Feature","properties":{"id":1411593515,"highway":"service","superficie":"asphalt"},"geometry":{"type":"LineString","coordinates":[[-2.06656,43.16857],[-2.06659,43.16854]]}},{"type":"Feature","properties":{"id":1411593516,"highway":"service"},"geometry":{"type":"LineString","coordinates":[[-2.06669,43.16865],[-2.06661,43.1687]]}},{"type":"Feature","properties":{"id":1411593518,"highway":"footway"},"geometry":{"type":"LineString","coordinates":[[-2.066,43.16772],[-2.06597,43.16772],[-2.06594,43.16771]]}},{"type":"Feature","properties":{"id":1411593519,"highway":"footway"},"geometry":{"type":"LineString","coordinates":[[-2.066,43.16772],[-2.06601,43.16772],[-2.066,43.16785],[-2.06599,43.16789]]}},{"type":"Feature","properties":{"id":1411593520,"highway":"footway"},"geometry":{"type":"LineString","coordinates":[[-2.06596,43.16731],[-2.06597,43.16744],[-2.06598,43.16751],[-2.06597,43.16755],[-2.06596,43.16763],[-2.06594,43.16771],[-2.06594,43.16771]]}},{"type":"Feature","properties":{"id":1411593521,"highway":"footway"},"geometry":{"type":"LineString","coordinates":[[-2.06593,43.16746],[-2.06588,43.16743],[-2.06585,43.16741]]}},{"type":"Feature","properties":{"id":1411593522,"highway":"footway"},"geometry":{"type":"LineString","coordinates":[[-2.06596,43.16731],[-2.06595,43.16732],[-2.06593,43.16746]]}},{"type":"Feature","properties":{"id":1411593523,"highway":"footway"},"geometry":{"type":"LineString","coordinates":[[-2.06597,43.16706],[-2.06598,43.16709],[-2.06598,43.16713]]}},{"type":"Feature","properties":{"id":1411593527,"highway":"residential","oneway":"yes"},"geometry":{"type":"LineString","coordinates":[[-2.05634,43.1761],[-2.05629,43.17615]]}},{"type":"Feature","properties":{"id":1427741284,"highway":"cycleway"},"geometry":{"type":"LineString","coordinates":[[-2.06521,43.16778],[-2.06518,43.16778],[-2.06516,43.16779],[-2.06515,43.1678],[-2.06514,43.16782],[-2.0651,43.16785],[-2.06505,43.16789],[-2.06496,43.16797],[-2.0649,43.16803],[-2.06489,43.16803]]}},{"type":"Feature","properties":{"id":1427741285,"highway":"footway"},"geometry":{"type":"LineString","coordinates":[[-2.06486,43.16817],[-2.06489,43.16803],[-2.06489,43.16801],[-2.06495,43.16795],[-2.06499,43.16792],[-2.06504,43.16787],[-2.06511,43.16782],[-2.06513,43.16779],[-2.06514,43.16776],[-2.0652,43.16775]]}},{"type":"Feature","properties":{"id":1431648143,"highway":"service"},"geometry":{"type":"LineString","coordinates":[[-2.06259,43.17108],[-2.06239,43.17095]]}},{"type":"Feature","properties":{"id":1431648144,"highway":"service","superficie":"asphalt"},"geometry":{"type":"LineString","coordinates":[[-2.06267,43.17113],[-2.06259,43.17108]]}},{"type":"Feature","properties":{"id":1431648145,"highway":"service","nombre":"Katategi auzoa","superficie":"asphalt"},"geometry":{"type":"LineString","coordinates":[[-2.0619,43.17134],[-2.06201,43.17125],[-2.06219,43.17107],[-2.06122,43.17044],[-2.061,43.17063],[-2.06086,43.17074]]}},{"type":"Feature","properties":{"id":1431648146,"highway":"service","nombre":"Katategi auzoa","superficie":"asphalt"},"geometry":{"type":"LineString","coordinates":[[-2.061,43.17063],[-2.06201,43.17125],[-2.06222,43.17139]]}},{"type":"Feature","properties":{"id":1431648147,"highway":"service","superficie":"asphalt"},"geometry":{"type":"LineString","coordinates":[[-2.06219,43.17107],[-2.06222,43.17105]]}},{"type":"Feature","properties":{"id":1431648149,"highway":"service"},"geometry":{"type":"LineString","coordinates":[[-2.06209,43.16993],[-2.06214,43.16989]]}},{"type":"Feature","properties":{"id":1431648150,"highway":"residential","nombre":"Katategi auzoa","oneway":"yes","superficie":"asphalt"},"geometry":{"type":"LineString","coordinates":[[-2.06289,43.16957],[-2.06274,43.16956],[-2.06213,43.16967]]}},{"type":"Feature","properties":{"id":1431648151,"highway":"service"},"geometry":{"type":"LineString","coordinates":[[-2.06214,43.16989],[-2.06223,43.16981]]}},{"type":"Feature","properties":{"id":1431648152,"highway":"service"},"geometry":{"type":"LineString","coordinates":[[-2.0629,43.17046],[-2.06299,43.17039]]}},{"type":"Feature","properties":{"id":1431648153,"highway":"service"},"geometry":{"type":"LineString","coordinates":[[-2.06299,43.17039],[-2.06305,43.17034]]}},{"type":"Feature","properties":{"id":1431648160,"highway":"service"},"geometry":{"type":"LineString","coordinates":[[-2.06066,43.17063],[-2.06072,43.17058]]}},{"type":"Feature","properties":{"id":1431648162,"highway":"residential","nombre":"Laskibar auzoa"},"geometry":{"type":"LineString","coordinates":[[-2.06017,43.17093],[-2.06051,43.17056]]}},{"type":"Feature","properties":{"id":1431648163,"highway":"residential","nombre":"Laskibar auzoa"},"geometry":{"type":"LineString","coordinates":[[-2.05988,43.17147],[-2.05992,43.17132],[-2.05998,43.17107],[-2.06006,43.171],[-2.06017,43.17093]]}},{"type":"Feature","properties":{"id":1431648164,"highway":"residential"},"geometry":{"type":"LineString","coordinates":[[-2.06044,43.17291],[-2.06033,43.17285],[-2.05997,43.17266],[-2.0596,43.17247]]}},{"type":"Feature","properties":{"id":1431648165,"highway":"service","superficie":"asphalt"},"geometry":{"type":"LineString","coordinates":[[-2.06149,43.17189],[-2.0612,43.17214],[-2.06072,43.17254],[-2.06033,43.17285],[-2.06001,43.17312],[-2.06007,43.17319]]}},{"type":"Feature","properties":{"id":1431648166,"highway":"service","superficie":"asphalt"},"geometry":{"type":"LineString","coordinates":[[-2.06082,43.1726],[-2.06072,43.17254]]}},{"type":"Feature","properties":{"id":1431648167,"highway":"service","superficie":"asphalt"},"geometry":{"type":"LineString","coordinates":[[-2.05974,43.17347],[-2.05968,43.17342]]}},{"type":"Feature","properties":{"id":1431648168,"highway":"service"},"geometry":{"type":"LineString","coordinates":[[-2.05968,43.17342],[-2.05965,43.1734]]}},{"type":"Feature","properties":{"id":1431648169,"highway":"service"},"geometry":{"type":"LineString","coordinates":[[-2.05997,43.17266],[-2.05988,43.17274]]}},{"type":"Feature","properties":{"id":1431648170,"highway":"service"},"geometry":{"type":"LineString","coordinates":[[-2.05988,43.17274],[-2.0597,43.17288]]}},{"type":"Feature","properties":{"id":1431648174,"highway":"residential","nombre":"Gurdi kalea"},"geometry":{"type":"LineString","coordinates":[[-2.05872,43.17315],[-2.05852,43.17299],[-2.05847,43.17292],[-2.05828,43.17284]]}},{"type":"Feature","properties":{"id":1431648176,"highway":"residential","nombre":"Gurdi kalea"},"geometry":{"type":"LineString","coordinates":[[-2.05872,43.17315],[-2.05862,43.17321]]}},{"type":"Feature","properties":{"id":1442596827,"highway":"cycleway","superficie":"asphalt"},"geometry":{"type":"LineString","coordinates":[[-2.05782,43.175],[-2.05785,43.17497],[-2.05869,43.17432],[-2.05939,43.17379],[-2.05955,43.17367],[-2.05971,43.17356],[-2.06012,43.17322],[-2.0605,43.17292],[-2.06084,43.17265],[-2.06185,43.17182],[-2.06224,43.17153],[-2.06281,43.17109],[-2.06318,43.1708],[-2.06369,43.17042],[-2.06396,43.17022],[-2.06444,43.16984],[-2.06495,43.16943],[-2.06503,43.16936],[-2.06501,43.16932],[-2.06498,43.16927],[-2.06505,43.16921],[-2.06517,43.1691],[-2.06523,43.16903],[-2.06526,43.16897],[-2.06527,43.16893],[-2.06526,43.16888],[-2.06522,43.16883],[-2.06515,43.16878],[-2.06506,43.16873],[-2.0649,43.16868],[-2.06478,43.16859],[-2.06478,43.16847],[-2.0648,43.16839],[-2.0648,43.16836],[-2.06482,43.16827],[-2.06483,43.16823],[-2.06486,43.16817],[-2.06492,43.16819],[-2.06501,43.16821],[-2.06504,43.16815],[-2.06507,43.1681],[-2.06511,43.16805],[-2.06517,43.16801],[-2.06523,43.16797],[-2.06531,43.16794],[-2.0654,43.16793],[-2.06549,43.16792],[-2.06561,43.16792],[-2.06578,43.16794],[-2.06597,43.16797],[-2.06645,43.16805],[-2.06667,43.16809],[-2.06686,43.16812],[-2.06699,43.16813],[-2.06706,43.16812],[-2.06714,43.16807],[-2.06718,43.16809]]}},{"type":"Feature","properties":{"id":1453996897,"highway":"residential","nombre":"Patxiku Pagadizabal kalea","superficie":"asphalt"},"geometry":{"type":"LineString","coordinates":[[-2.06948,43.16665],[-2.06911,43.16657],[-2.06872,43.16649]]}},{"type":"Feature","properties":{"id":1453996898,"highway":"residential","nombre":"Portalene kalea","superficie":"asphalt"},"geometry":{"type":"LineString","coordinates":[[-2.06895,43.16698],[-2.06911,43.16657]]}},{"type":"Feature","properties":{"id":1453996899,"highway":"footway","nombre":"Eguzkialde kalea"},"geometry":{"type":"LineString","coordinates":[[-2.06826,43.16791],[-2.06811,43.16794],[-2.06796,43.16799],[-2.06779,43.16808],[-2.06764,43.16817]]}},{"type":"Feature","properties":{"id":1453996900,"highway":"residential","nombre":"Nekazari kalea"},"geometry":{"type":"LineString","coordinates":[[-2.06809,43.16863],[-2.06812,43.16864],[-2.06815,43.16864],[-2.06871,43.16844],[-2.06876,43.16841],[-2.06883,43.16832]]}},{"type":"Feature","properties":{"id":1453996901,"highway":"footway"},"geometry":{"type":"LineString","coordinates":[[-2.06854,43.16817],[-2.06793,43.16836]]}},{"type":"Feature","properties":{"id":1453996902,"highway":"service","nombre":"Ibai-Ondo auzoa"},"geometry":{"type":"LineString","coordinates":[[-2.06729,43.16865],[-2.06759,43.16844]]}},{"type":"Feature","properties":{"id":1453996903,"highway":"service","nombre":"Azketaerreka industrialdea"},"geometry":{"type":"LineString","coordinates":[[-2.05691,43.1763],[-2.05688,43.17627],[-2.05685,43.17626]]}},{"type":"Feature","properties":{"id":1453996904,"highway":"residential","nombre":"Katategi auzoa","superficie":"asphalt"},"geometry":{"type":"LineString","coordinates":[[-2.065,43.16863],[-2.06518,43.16872],[-2.06523,43.16876],[-2.06527,43.16881],[-2.06531,43.16885],[-2.06532,43.16889],[-2.06532,43.16893],[-2.06532,43.16896],[-2.06529,43.16904],[-2.06525,43.16909],[-2.06517,43.16918],[-2.06508,43.16926],[-2.06501,43.16932],[-2.06496,43.16935],[-2.06456,43.16968],[-2.06381,43.17026],[-2.06339,43.17057],[-2.06267,43.17113],[-2.06217,43.17152]]}},{"type":"Feature","properties":{"id":1453996905,"highway":"service"},"geometry":{"type":"LineString","coordinates":[[-2.0631,43.16941],[-2.06281,43.1695],[-2.06273,43.1695],[-2.06265,43.16946],[-2.06291,43.16927],[-2.06297,43.16921],[-2.06281,43.169]]}},{"type":"Feature","properties":{"id":1453996906,"highway":"service"},"geometry":{"type":"LineString","coordinates":[[-2.06324,43.16915],[-2.06297,43.16896]]}},{"type":"Feature","properties":{"id":1453996909,"highway":"residential","nombre":"Sagasti kalea","oneway":"yes"},"geometry":{"type":"LineString","coordinates":[[-2.06598,43.16709],[-2.06529,43.16717],[-2.06525,43.16717],[-2.06479,43.16719]]}},{"type":"Feature","properties":{"id":1453996910,"highway":"residential","nombre":"Larriturri"},"geometry":{"type":"LineString","coordinates":[[-2.06543,43.16658],[-2.0652,43.16635]]}},{"type":"Feature","properties":{"id":1453996911,"highway":"service","nombre":"Zillar kalea"},"geometry":{"type":"LineString","coordinates":[[-2.06557,43.1662],[-2.06562,43.16608],[-2.06565,43.16598],[-2.06567,43.16593],[-2.06564,43.16584],[-2.06561,43.16576],[-2.0656,43.16569],[-2.06557,43.16561],[-2.06551,43.16559],[-2.06545,43.16561],[-2.0654,43.16565],[-2.06538,43.16568],[-2.06538,43.16573],[-2.06541,43.16578]]}},{"type":"Feature","properties":{"id":1453996912,"highway":"track","nombre":"Zillar auzoa"},"geometry":{"type":"LineString","coordinates":[[-2.06128,43.16377],[-2.06133,43.16388],[-2.06147,43.16391],[-2.06161,43.16391],[-2.06194,43.1641],[-2.0624,43.16436],[-2.06272,43.16468],[-2.06278,43.16494],[-2.0626,43.16515],[-2.0623,43.16525],[-2.06211,43.1652],[-2.06196,43.16507],[-2.06179,43.16494],[-2.06132,43.16478],[-2.06112,43.16478],[-2.06102,43.16486],[-2.06093,43.16508],[-2.06066,43.16542],[-2.06045,43.16581],[-2.06024,43.16595],[-2.05994,43.16606]]}},{"type":"Feature","properties":{"id":1453996913,"highway":"residential","nombre":"San Migel plaza"},"geometry":{"type":"LineString","coordinates":[[-2.06701,43.16739],[-2.06689,43.16724],[-2.06671,43.16701],[-2.06664,43.16691],[-2.06657,43.16675]]}},{"type":"Feature","properties":{"id":1453996914,"highway":"residential","nombre":"San Migel plaza","superficie":"sett"},"geometry":{"type":"LineString","coordinates":[[-2.06763,43.16775],[-2.06745,43.16759],[-2.06739,43.16747],[-2.06736,43.16739]]}},{"type":"Feature","properties":{"id":1453996915,"highway":"residential","nombre":"San Migel plaza","superficie":"paving_stones"},"geometry":{"type":"LineString","coordinates":[[-2.06741,43.16791],[-2.06721,43.16777],[-2.06718,43.16775],[-2.06692,43.16784]]}},{"type":"Feature","properties":{"id":1453996916,"highway":"residential","nombre":"San Migel plaza","superficie":"sett"},"geometry":{"type":"LineString","coordinates":[[-2.06745,43.16759],[-2.06721,43.16777]]}},{"type":"Feature","properties":{"id":1453996917,"highway":"residential","nombre":"San Migel plaza","superficie":"sett"},"geometry":{"type":"LineString","coordinates":[[-2.06718,43.16775],[-2.06711,43.16753],[-2.06708,43.16738]]}},{"type":"Feature","properties":{"id":1453996918,"highway":"residential","nombre":"Paper kalea","superficie":"asphalt"},"geometry":{"type":"LineString","coordinates":[[-2.06938,43.16533],[-2.06897,43.16527],[-2.06872,43.16523]]}},{"type":"Feature","properties":{"id":1453996919,"highway":"residential","nombre":"Troska kalea"},"geometry":{"type":"LineString","coordinates":[[-2.06824,43.16658],[-2.06833,43.16656],[-2.06841,43.1664],[-2.06857,43.16588],[-2.06872,43.16523],[-2.06883,43.16474]]}},{"type":"Feature","properties":{"id":1453996920,"highway":"residential","nombre":"Atxupi kalea"},"geometry":{"type":"LineString","coordinates":[[-2.06897,43.16527],[-2.06906,43.1649]]}},{"type":"Feature","properties":{"id":1470148391,"highway":"cycleway","puente":"yes"},"geometry":{"type":"LineString","coordinates":[[-2.05782,43.175],[-2.05687,43.17572],[-2.05719,43.17591],[-2.05686,43.17618],[-2.05677,43.17626]]}},{"type":"Feature","properties":{"id":1470148393,"highway":"steps"},"geometry":{"type":"LineString","coordinates":[[-2.05687,43.17572],[-2.05676,43.17581]]}},{"type":"Feature","properties":{"id":1470148394,"highway":"footway"},"geometry":{"type":"LineString","coordinates":[[-2.05676,43.17581],[-2.05672,43.17578]]}},{"type":"Feature","properties":{"id":1470148395,"highway":"steps"},"geometry":{"type":"LineString","coordinates":[[-2.05719,43.17591],[-2.05725,43.17586],[-2.05723,43.17585],[-2.05718,43.17589]]}},{"type":"Feature","properties":{"id":1470148396,"highway":"footway"},"geometry":{"type":"LineString","coordinates":[[-2.05718,43.17589],[-2.05725,43.17593]]}},{"type":"Feature","properties":{"id":1470148397,"highway":"footway"},"geometry":{"type":"LineString","coordinates":[[-2.05785,43.17497],[-2.05781,43.17495]]}},{"type":"Feature","properties":{"id":1470148398,"highway":"footway"},"geometry":{"type":"LineString","coordinates":[[-2.05947,43.17361],[-2.05952,43.17365],[-2.05955,43.17367]]}},{"type":"Feature","properties":{"id":1470148400,"highway":"footway"},"geometry":{"type":"LineString","coordinates":[[-2.06476,43.16847],[-2.06477,43.16839],[-2.0648,43.16839]]}},{"type":"Feature","properties":{"id":1470148401,"highway":"footway"},"geometry":{"type":"LineString","coordinates":[[-2.06744,43.16805],[-2.0674,43.16802],[-2.06736,43.16802],[-2.06733,43.16803],[-2.06722,43.16812],[-2.06718,43.16809]]}},{"type":"Feature","properties":{"id":1485783075,"highway":"footway"},"geometry":{"type":"LineString","coordinates":[[-2.06516,43.16759],[-2.0651,43.16759],[-2.0649,43.16759],[-2.0647,43.1676],[-2.0645,43.16765],[-2.0644,43.16769],[-2.06432,43.16773],[-2.06437,43.16777],[-2.06448,43.16785],[-2.06451,43.16791]]}},{"type":"Feature","properties":{"id":1485783076,"highway":"footway"},"geometry":{"type":"LineString","coordinates":[[-2.06514,43.16776],[-2.0651,43.16759]]}},{"type":"Feature","properties":{"id":1485783077,"highway":"path"},"geometry":{"type":"LineString","coordinates":[[-2.0647,43.1676],[-2.06439,43.16761],[-2.064,43.16764],[-2.06376,43.16768],[-2.0637,43.16767],[-2.06361,43.16766],[-2.06347,43.16771],[-2.06317,43.16786],[-2.06291,43.168],[-2.0627,43.16808],[-2.06261,43.1681],[-2.06256,43.16809],[-2.06253,43.16805],[-2.06252,43.16799],[-2.06251,43.16794],[-2.06248,43.16791],[-2.06234,43.16792],[-2.06218,43.16794],[-2.06201,43.168],[-2.06193,43.168],[-2.06186,43.16797],[-2.06176,43.16795],[-2.06164,43.16792],[-2.06139,43.16794],[-2.06126,43.16794],[-2.06112,43.168],[-2.06098,43.16803],[-2.06084,43.1681],[-2.06073,43.16812],[-2.06063,43.16811],[-2.0605,43.16814],[-2.06024,43.16822],[-2.06014,43.16823],[-2.06007,43.16821],[-2.05996,43.16818],[-2.05984,43.16818],[-2.05975,43.16814],[-2.05965,43.16808],[-2.05958,43.16801],[-2.05954,43.16791],[-2.05954,43.16782],[-2.05954,43.16775],[-2.05951,43.16773],[-2.05926,43.16781],[-2.05898,43.16787],[-2.05874,43.16797],[-2.0586,43.168],[-2.05848,43.16811],[-2.05835,43.16822],[-2.05816,43.16829],[-2.05805,43.16832],[-2.05795,43.16842],[-2.05783,43.16847],[-2.05778,43.16843],[-2.0578,43.16835],[-2.05783,43.16818],[-2.0578,43.16809],[-2.05773,43.16804],[-2.05762,43.16806],[-2.05753,43.16806],[-2.05746,43.168],[-2.05732,43.16803],[-2.05717,43.16795],[-2.05713,43.1679],[-2.05716,43.16783],[-2.05712,43.16781],[-2.05705,43.16784],[-2.05687,43.16793],[-2.05681,43.16792],[-2.05681,43.16789],[-2.05685,43.16782],[-2.05684,43.16773],[-2.05679,43.16766],[-2.05662,43.16752]]}},{"type":"Feature","properties":{"id":1485783078,"highway":"path"},"geometry":{"type":"LineString","coordinates":[[-2.05509,43.16799],[-2.05497,43.16796],[-2.05488,43.168],[-2.05476,43.16807],[-2.05469,43.16806],[-2.05462,43.16801],[-2.05453,43.16802],[-2.05443,43.16804],[-2.0544,43.16799],[-2.05432,43.16798],[-2.05427,43.168],[-2.05422,43.16797],[-2.05419,43.16791],[-2.0541,43.16791],[-2.054,43.16795],[-2.05396,43.16788],[-2.0539,43.1679],[-2.05383,43.16794],[-2.05379,43.16791],[-2.05378,43.16783],[-2.05373,43.16782],[-2.05365,43.1679],[-2.05361,43.16792],[-2.05346,43.16794],[-2.05331,43.16801],[-2.05322,43.1681],[-2.05318,43.16825],[-2.05311,43.16837],[-2.05292,43.16857],[-2.05277,43.16869],[-2.05257,43.16877],[-2.05243,43.16888],[-2.05229,43.16899],[-2.05222,43.16899],[-2.05216,43.16898]]}},{"type":"Feature","properties":{"id":1485783079,"highway":"path"},"geometry":{"type":"LineString","coordinates":[[-2.05216,43.16898],[-2.05211,43.16891],[-2.05208,43.16865],[-2.05201,43.16846],[-2.05193,43.16824],[-2.05194,43.1681],[-2.05184,43.16802],[-2.05179,43.1679],[-2.05169,43.16757],[-2.05155,43.16721],[-2.05149,43.16701],[-2.05149,43.16681],[-2.05143,43.16671],[-2.0513,43.16659],[-2.05117,43.16642],[-2.05105,43.16627],[-2.05088,43.16618],[-2.05074,43.16608],[-2.05066,43.16593],[-2.05057,43.16565],[-2.0505,43.16554],[-2.05033,43.16541],[-2.05004,43.16532],[-2.04991,43.16522],[-2.04981,43.16516],[-2.04972,43.16521],[-2.04966,43.16529],[-2.04952,43.1654],[-2.0494,43.16544],[-2.04938,43.16554],[-2.04946,43.16567],[-2.04955,43.16592],[-2.04954,43.16613],[-2.0495,43.16621],[-2.04936,43.16621],[-2.04917,43.16621],[-2.04906,43.16629],[-2.0491,43.1664],[-2.0492,43.16666],[-2.04922,43.16684],[-2.04907,43.16705],[-2.04904,43.1671],[-2.04883,43.16728],[-2.04875,43.16729],[-2.04866,43.16726],[-2.04859,43.16728],[-2.04858,43.16735],[-2.04854,43.16742],[-2.04834,43.16755],[-2.0482,43.16764],[-2.04803,43.16767],[-2.04775,43.16767],[-2.04766,43.16766],[-2.04758,43.16765],[-2.04756,43.16758],[-2.04752,43.16755],[-2.04746,43.16753],[-2.04742,43.16747],[-2.0474,43.16738],[-2.04734,43.16729],[-2.04724,43.16721],[-2.04722,43.16713],[-2.0472,43.16705],[-2.04713,43.16701],[-2.04693,43.16697],[-2.04684,43.16693],[-2.04674,43.16685],[-2.04664,43.16674],[-2.04656,43.16671],[-2.04653,43.16666],[-2.04655,43.16661],[-2.04652,43.16649],[-2.04651,43.16639],[-2.04647,43.16637],[-2.04635,43.16637],[-2.04628,43.16633],[-2.04626,43.16626],[-2.04624,43.16614],[-2.04617,43.16606],[-2.04606,43.16599],[-2.04596,43.16596],[-2.04586,43.16594],[-2.04576,43.16585],[-2.04567,43.16573],[-2.04561,43.16564],[-2.04549,43.16555],[-2.0454,43.16544],[-2.04525,43.16528],[-2.04506,43.16507],[-2.04497,43.16492],[-2.04481,43.1648],[-2.04459,43.16454],[-2.04436,43.16427],[-2.04426,43.16425],[-2.04412,43.16417]]}},{"type":"Feature","properties":{"id":1485783080,"highway":"path","nombre":"Agarre bailara"},"geometry":{"type":"LineString","coordinates":[[-2.04433,43.16416],[-2.04412,43.16417]]}},{"type":"Feature","properties":{"id":1485783081,"highway":"path"},"geometry":{"type":"LineString","coordinates":[[-2.04699,43.15973],[-2.04706,43.16014],[-2.04733,43.16077],[-2.04779,43.16171],[-2.04821,43.16231],[-2.04868,43.16288],[-2.04891,43.16341],[-2.0491,43.16403],[-2.0492,43.1645],[-2.04933,43.16484],[-2.04942,43.16514],[-2.04952,43.1654],[-2.04957,43.16549],[-2.04969,43.16555],[-2.04983,43.16561],[-2.04994,43.16577],[-2.05014,43.16614],[-2.05083,43.1673],[-2.05097,43.16763],[-2.05098,43.16795],[-2.05086,43.16837],[-2.05069,43.16867],[-2.05038,43.16895],[-2.05011,43.16914],[-2.0499,43.16922],[-2.04978,43.16933],[-2.04982,43.16938],[-2.05004,43.1694],[-2.05044,43.16947],[-2.05089,43.16965],[-2.05146,43.16987]]}},{"type":"Feature","properties":{"id":1485783082,"highway":"path"},"geometry":{"type":"MultiLineString","coordinates":[[[-2.04739,43.1588],[-2.0471,43.15884]],[[-2.04618,43.15913],[-2.04575,43.15934],[-2.04526,43.15963],[-2.04505,43.15969]]]}},{"type":"Feature","properties":{"id":1485783083,"highway":"path"},"geometry":{"type":"LineString","coordinates":[[-2.04499,43.15965],[-2.04476,43.15974],[-2.0445,43.15994],[-2.04431,43.16016],[-2.04416,43.16045],[-2.04391,43.16097],[-2.04375,43.16122],[-2.04359,43.16135],[-2.04353,43.16147],[-2.04352,43.16151],[-2.04356,43.16163],[-2.04362,43.16187],[-2.04357,43.16199],[-2.0437,43.1621],[-2.04372,43.16219],[-2.04382,43.16229],[-2.04392,43.16251],[-2.04392,43.16264],[-2.04398,43.1628],[-2.044,43.1629],[-2.04417,43.1631],[-2.04421,43.16321],[-2.04415,43.1633],[-2.04405,43.16344],[-2.04407,43.16356],[-2.04417,43.16385],[-2.04426,43.16405],[-2.04433,43.16416]]}},{"type":"Feature","properties":{"id":1485783084,"highway":"path"},"geometry":{"type":"MultiLineString","coordinates":[[[-2.04392,43.16264],[-2.04365,43.16257],[-2.04345,43.16254],[-2.04334,43.16245],[-2.04326,43.16238],[-2.04301,43.16228],[-2.04284,43.16227],[-2.04272,43.16222]],[[-2.04264,43.1621],[-2.04267,43.16199],[-2.04275,43.16187]]]}},{"type":"Feature","properties":{"id":1486242818,"highway":"path"},"geometry":{"type":"LineString","coordinates":[[-2.04836,43.15874],[-2.0483,43.15874],[-2.04818,43.15868],[-2.048,43.15862]]}},{"type":"Feature","properties":{"id":1497686129,"highway":"tertiary","superficie":"asphalt"},"geometry":{"type":"LineString","coordinates":[[-2.06484,43.16847],[-2.06484,43.16848],[-2.06486,43.1685]]}},{"type":"Feature","properties":{"id":1497686130,"highway":"tertiary","ref":"GI-3650","superficie":"asphalt"},"geometry":{"type":"LineString","coordinates":[[-2.06687,43.16834],[-2.06689,43.16829]]}}]}
