{"type":"FeatureCollection","features":[{"type":"Feature","properties":{"id":19848065,"highway":"tertiary"},"geometry":{"type":"LineString","coordinates":[[-2.57371,42.49266],[-2.57367,42.49268],[-2.57365,42.49269],[-2.57363,42.49269],[-2.5736,42.49269],[-2.57357,42.49269],[-2.57355,42.49269],[-2.57353,42.49268],[-2.5735,42.49267],[-2.57345,42.49265]]}},{"type":"Feature","properties":{"id":24261643,"highway":"tertiary","ref":"A-3216"},"geometry":{"type":"LineString","coordinates":[[-2.57523,42.49238],[-2.57521,42.49239],[-2.57518,42.4924],[-2.57516,42.49241],[-2.57515,42.49243],[-2.57513,42.49244],[-2.57512,42.49246],[-2.57512,42.49248],[-2.57512,42.4925],[-2.57512,42.49252],[-2.57513,42.49253],[-2.57514,42.49255]]}},{"type":"Feature","properties":{"id":24261676,"highway":"unclassified"},"geometry":{"type":"LineString","coordinates":[[-2.58246,42.48786],[-2.58246,42.48773],[-2.58244,42.48763],[-2.58243,42.48751],[-2.58242,42.4874],[-2.58244,42.48729],[-2.58245,42.48722],[-2.5825,42.48707],[-2.58253,42.48698],[-2.58257,42.48687],[-2.58262,42.48676],[-2.58269,42.48666],[-2.58279,42.48656],[-2.58305,42.48636],[-2.58317,42.48625],[-2.58383,42.48561],[-2.58396,42.48551],[-2.58418,42.48538],[-2.58429,42.4853],[-2.58436,42.48522],[-2.58452,42.48495],[-2.58459,42.48487],[-2.58479,42.48467],[-2.58485,42.48462],[-2.58503,42.48438],[-2.58512,42.4843],[-2.58523,42.48424],[-2.58536,42.4842],[-2.58569,42.48412],[-2.58604,42.48402],[-2.58621,42.48399],[-2.58637,42.48397],[-2.58654,42.48395],[-2.58677,42.48395],[-2.58715,42.48397],[-2.5882,42.48394],[-2.58863,42.48393],[-2.58901,42.48391],[-2.5893,42.48388],[-2.5896,42.48382],[-2.58984,42.48374],[-2.59008,42.48365],[-2.5903,42.48355],[-2.59097,42.48323],[-2.59119,42.48312],[-2.59139,42.48299],[-2.59151,42.48291]]}},{"type":"Feature","properties":{"id":24261831,"highway":"tertiary","ref":"A-4208"},"geometry":{"type":"LineString","coordinates":[[-2.57779,42.49542],[-2.57829,42.49536],[-2.57864,42.49531],[-2.57882,42.49529],[-2.57898,42.49528],[-2.5791,42.49529],[-2.57972,42.49535],[-2.57992,42.49538],[-2.58004,42.49542],[-2.58013,42.49548],[-2.58019,42.49553],[-2.58025,42.4956],[-2.58032,42.49572],[-2.58083,42.49678],[-2.58088,42.49687],[-2.58096,42.49695],[-2.58105,42.49701],[-2.58118,42.49708],[-2.58227,42.49758],[-2.58238,42.49767],[-2.58245,42.49774],[-2.58258,42.49793],[-2.58264,42.49798],[-2.58274,42.49802],[-2.58289,42.49805],[-2.58311,42.49807],[-2.5833,42.49808],[-2.58345,42.49806],[-2.58388,42.49798],[-2.58404,42.49795],[-2.58429,42.49794],[-2.58465,42.49795],[-2.5849,42.49796],[-2.58507,42.49798],[-2.58523,42.49801],[-2.5854,42.49806],[-2.58689,42.49862],[-2.587,42.49867],[-2.58708,42.49873],[-2.58713,42.4988],[-2.58714,42.49884]]}},{"type":"Feature","properties":{"id":41432651,"highway":"tertiary","puente":"yes"},"geometry":{"type":"LineString","coordinates":[[-2.57345,42.49265],[-2.57311,42.49245]]}},{"type":"Feature","properties":{"id":123049631,"highway":"track","nombre":"atajo GR99","superficie":"ground"},"geometry":{"type":"MultiLineString","coordinates":[[[-2.58788,42.4928],[-2.58734,42.49347],[-2.58737,42.49361],[-2.58748,42.49379],[-2.58762,42.49402],[-2.58783,42.49454],[-2.58792,42.49486],[-2.58798,42.49495]],[[-2.58796,42.49542],[-2.5878,42.49574],[-2.58786,42.49632],[-2.58793,42.49639]],[[-2.5879,42.49757],[-2.5879,42.49757],[-2.58779,42.49764],[-2.58697,42.49778],[-2.58678,42.49776],[-2.5865,42.49779],[-2.58574,42.49789],[-2.58522,42.49791],[-2.5851,42.49794],[-2.58507,42.49798]]]}},{"type":"Feature","properties":{"id":123049633,"highway":"unclassified","nombre":"atajo GR99"},"geometry":{"type":"LineString","coordinates":[[-2.59221,42.48389],[-2.59196,42.48399],[-2.59181,42.48403],[-2.59153,42.4841],[-2.59144,42.48414],[-2.59137,42.4842],[-2.59132,42.48428],[-2.5912,42.48448],[-2.59113,42.48453],[-2.59102,42.48458],[-2.59097,42.4846],[-2.59088,42.48461],[-2.59076,42.48464],[-2.59067,42.48466],[-2.59058,42.48468],[-2.59052,42.48469],[-2.59038,42.4847],[-2.59016,42.48471],[-2.59003,42.48474],[-2.58953,42.48498],[-2.58879,42.48531],[-2.58872,42.48536],[-2.58861,42.48543],[-2.58827,42.48574],[-2.58816,42.48582],[-2.58787,42.48601],[-2.58774,42.48611],[-2.58758,42.48617],[-2.58742,42.4862],[-2.58712,42.48622],[-2.58673,42.48623],[-2.58654,42.48624],[-2.58639,42.48628],[-2.58622,42.48633],[-2.58546,42.48659],[-2.58529,42.48666],[-2.58504,42.48679],[-2.58483,42.48692],[-2.58469,42.48701],[-2.58462,42.4871],[-2.58457,42.48719],[-2.58453,42.48731],[-2.58447,42.48738],[-2.58437,42.48743],[-2.5842,42.4875],[-2.58404,42.48754],[-2.5839,42.48756],[-2.58375,42.48755],[-2.58334,42.48752],[-2.58319,42.48752],[-2.58307,42.48754],[-2.58294,42.48758],[-2.58278,42.48766],[-2.58262,42.48775],[-2.58246,42.48786]]}},{"type":"Feature","properties":{"id":248230880,"highway":"tertiary","ref":"A-3216","oneway":"yes"},"geometry":{"type":"LineString","coordinates":[[-2.57514,42.49273],[-2.57536,42.49258]]}},{"type":"Feature","properties":{"id":248230882,"highway":"tertiary","ref":"A-3216","oneway":"yes"},"geometry":{"type":"LineString","coordinates":[[-2.57514,42.49255],[-2.57515,42.49264],[-2.57514,42.49273]]}},{"type":"Feature","properties":{"id":248230883,"highway":"tertiary","ref":"A-3216","oneway":"yes"},"geometry":{"type":"LineString","coordinates":[[-2.57533,42.49223],[-2.57523,42.49238]]}},{"type":"Feature","properties":{"id":248230885,"highway":"tertiary","ref":"A-3216","oneway":"yes"},"geometry":{"type":"LineString","coordinates":[[-2.57535,42.4924],[-2.57533,42.49223]]}},{"type":"Feature","properties":{"id":248230914,"highway":"service"},"geometry":{"type":"LineString","coordinates":[[-2.57837,42.48701],[-2.57841,42.48699],[-2.57843,42.48698],[-2.57844,42.48697],[-2.57845,42.48693],[-2.57844,42.48691],[-2.57842,42.48689],[-2.57839,42.48687],[-2.57836,42.48687],[-2.57833,42.48687],[-2.57831,42.48688],[-2.57828,42.4869],[-2.57827,42.48692],[-2.57827,42.48695],[-2.57829,42.48698],[-2.57832,42.487],[-2.57837,42.48701]]}},{"type":"Feature","properties":{"id":248230918,"highway":"track","nombre":"Soto xenda","izena_eu":"Soto xenda","nombre_es":"Senda del Soto"},"geometry":{"type":"LineString","coordinates":[[-2.57648,42.48875],[-2.57642,42.48878],[-2.57637,42.48882],[-2.57631,42.48893],[-2.57617,42.48916],[-2.57618,42.48921],[-2.57625,42.48929],[-2.57629,42.48934],[-2.57626,42.48942],[-2.57596,42.48983],[-2.57592,42.48992],[-2.57587,42.49018],[-2.57589,42.49029],[-2.57593,42.49039],[-2.57599,42.49046],[-2.57603,42.4905],[-2.5761,42.49053]]}},{"type":"Feature","properties":{"id":248230939,"highway":"residential","nombre":"La Poveda etorbidea","izena_eu":"La Poveda etorbidea","nombre_es":"Avenida la Poveda"},"geometry":{"type":"LineString","coordinates":[[-2.57562,42.49239],[-2.57563,42.49237],[-2.5759,42.49218],[-2.57606,42.49207],[-2.57632,42.49188],[-2.57663,42.49168],[-2.57688,42.49151],[-2.57708,42.49137],[-2.57763,42.49098],[-2.57799,42.49074],[-2.57828,42.49054],[-2.57887,42.49014],[-2.57968,42.4896],[-2.58007,42.48933],[-2.58053,42.489],[-2.58067,42.48889]]}},{"type":"Feature","properties":{"id":248230949,"highway":"service"},"geometry":{"type":"LineString","coordinates":[[-2.57907,42.48741],[-2.57845,42.48706]]}},{"type":"Feature","properties":{"id":248230950,"highway":"service","oneway":"yes"},"geometry":{"type":"LineString","coordinates":[[-2.57832,42.487],[-2.57845,42.48706]]}},{"type":"Feature","properties":{"id":248230955,"highway":"residential","nombre":"Soto bidea","izena_eu":"Soto bidea","nombre_es":"Camino del Soto"},"geometry":{"type":"LineString","coordinates":[[-2.57943,42.4867],[-2.57935,42.48693],[-2.57926,42.48713],[-2.57912,42.48735],[-2.57907,42.48741],[-2.57892,42.4876],[-2.57818,42.48829],[-2.57809,42.48842],[-2.57803,42.48861],[-2.57794,42.48914],[-2.5779,42.4893],[-2.57781,42.48941],[-2.5777,42.4895],[-2.57749,42.48957],[-2.5772,42.48969],[-2.57696,42.48985],[-2.57638,42.49028],[-2.57613,42.49049],[-2.5761,42.49053],[-2.57596,42.49069],[-2.57573,42.49096],[-2.5756,42.49119],[-2.57553,42.49141]]}},{"type":"Feature","properties":{"id":248230965,"highway":"service","oneway":"yes"},"geometry":{"type":"LineString","coordinates":[[-2.57845,42.48706],[-2.57844,42.48702],[-2.57843,42.48698]]}},{"type":"Feature","properties":{"id":248230980,"highway":"service"},"geometry":{"type":"LineString","coordinates":[[-2.578,42.48691],[-2.57766,42.48724],[-2.57797,42.48739],[-2.57732,42.48803]]}},{"type":"Feature","properties":{"id":248231025,"highway":"residential","nombre":"Soto xenda","izena_eu":"Soto xenda","nombre_es":"Senda del Soto"},"geometry":{"type":"LineString","coordinates":[[-2.57809,42.48842],[-2.57794,42.48837],[-2.57738,42.48805],[-2.57735,42.48804],[-2.57732,42.48803],[-2.57724,42.48805],[-2.57718,42.4881],[-2.57676,42.48849],[-2.57648,42.48875]]}},{"type":"Feature","properties":{"id":326979057,"highway":"track","nombre":"GR-99 Camino del Ebro"},"geometry":{"type":"LineString","coordinates":[[-2.57029,42.49636],[-2.57012,42.49642],[-2.56989,42.49659],[-2.5697,42.49667],[-2.56943,42.49672],[-2.56907,42.49674],[-2.56877,42.49676],[-2.56834,42.49702],[-2.5681,42.49711],[-2.56771,42.49719],[-2.56746,42.49725],[-2.56731,42.49728],[-2.56719,42.49728],[-2.5669,42.49729],[-2.56672,42.49733],[-2.56663,42.49737],[-2.5666,42.49742],[-2.56655,42.49748]]}},{"type":"Feature","properties":{"id":326979058,"highway":"residential","nombre":"Errege kalea","izena_eu":"Errege kalea","nombre_es":"Calle Real"},"geometry":{"type":"LineString","coordinates":[[-2.57344,42.49367],[-2.57323,42.49379],[-2.57292,42.49407],[-2.5729,42.49408],[-2.57276,42.49423],[-2.57259,42.49436],[-2.57253,42.4944],[-2.57237,42.49448]]}},{"type":"Feature","properties":{"id":326979059,"highway":"tertiary","nombre":"Foru Aldundi Txit Gorenaren etorbidea","izena_eu":"Foru Aldundi Txit Gorenaren etorbidea","nombre_es":"Avenida Excelentísima Diputación Foral","ref":"A-3216"},"geometry":{"type":"LineString","coordinates":[[-2.57344,42.49367],[-2.57352,42.49363],[-2.5737,42.49356],[-2.57393,42.49349],[-2.57401,42.49347],[-2.57416,42.49342],[-2.57439,42.49332],[-2.57458,42.49318],[-2.57475,42.49305],[-2.57514,42.49273]]}},{"type":"Feature","properties":{"id":326979060,"highway":"tertiary","ref":"A-3216"},"geometry":{"type":"LineString","coordinates":[[-2.57536,42.49258],[-2.57538,42.49257],[-2.57539,42.49256]]}},{"type":"Feature","properties":{"id":326979061,"highway":"track"},"geometry":{"type":"LineString","coordinates":[[-2.56649,42.49753],[-2.56633,42.49758],[-2.56593,42.49763],[-2.56556,42.49765],[-2.56544,42.49762],[-2.56535,42.49754],[-2.56522,42.49737],[-2.56499,42.49729],[-2.56462,42.49719],[-2.56453,42.49709],[-2.56456,42.49699],[-2.56469,42.4969],[-2.56493,42.49675],[-2.56495,42.49666],[-2.56489,42.49659],[-2.56477,42.49655],[-2.56422,42.49648],[-2.56407,42.49645],[-2.56354,42.49631],[-2.56319,42.49628],[-2.56246,42.49626],[-2.5617,42.49619],[-2.56137,42.49622],[-2.56046,42.4964],[-2.5604,42.49624],[-2.56034,42.49611],[-2.56024,42.49603],[-2.55995,42.496],[-2.55967,42.496],[-2.55862,42.49596],[-2.55816,42.49594],[-2.5579,42.49598],[-2.55775,42.49602],[-2.55766,42.496],[-2.55757,42.49595],[-2.5575,42.49589],[-2.55746,42.49578],[-2.55743,42.49568],[-2.5574,42.49556],[-2.55737,42.49546],[-2.55729,42.49541],[-2.5572,42.4954],[-2.55709,42.49544],[-2.55696,42.49546],[-2.55676,42.49542],[-2.55662,42.49538],[-2.55647,42.49532],[-2.55637,42.49528],[-2.55633,42.4952],[-2.55635,42.49511],[-2.55648,42.49487],[-2.55659,42.49474],[-2.55685,42.49438],[-2.55688,42.49426],[-2.55683,42.4941],[-2.55675,42.4938],[-2.55672,42.49363],[-2.55673,42.49348],[-2.55687,42.49329],[-2.55707,42.49313],[-2.55717,42.49303],[-2.55718,42.49291],[-2.55725,42.49279],[-2.5573,42.4927],[-2.5573,42.49258],[-2.55738,42.4923],[-2.55741,42.492],[-2.55746,42.49178],[-2.55753,42.49168],[-2.55768,42.49157],[-2.55798,42.49138],[-2.55812,42.4913],[-2.55815,42.49122],[-2.55816,42.49116],[-2.55799,42.49089],[-2.55791,42.49073],[-2.55791,42.49051],[-2.55798,42.49039],[-2.558,42.49032]]}},{"type":"Feature","properties":{"id":326979062,"highway":"residential","nombre":"Arrain kalea","izena_eu":"Arrain kalea","nombre_es":"Calle el Pez"},"geometry":{"type":"LineString","coordinates":[[-2.57148,42.49534],[-2.57164,42.49533],[-2.57188,42.49527],[-2.57205,42.49519],[-2.57202,42.49509],[-2.572,42.49499],[-2.572,42.49484],[-2.57195,42.49481],[-2.57193,42.49479],[-2.5719,42.49475],[-2.57187,42.49469]]}},{"type":"Feature","properties":{"id":326980102,"highway":"track"},"geometry":{"type":"LineString","coordinates":[[-2.56649,42.49753],[-2.56654,42.49769],[-2.56658,42.49786],[-2.56656,42.49841],[-2.5665,42.49858],[-2.5664,42.49865],[-2.56599,42.49877],[-2.56576,42.49886],[-2.56554,42.49896],[-2.56532,42.49899],[-2.56468,42.49895],[-2.56407,42.49894],[-2.56382,42.49898],[-2.56362,42.49904],[-2.56338,42.49922],[-2.56306,42.4995],[-2.56282,42.49959],[-2.56259,42.49965],[-2.56249,42.49973],[-2.56226,42.50005],[-2.56213,42.50015],[-2.56194,42.50024],[-2.56166,42.50034],[-2.56132,42.50048],[-2.56112,42.50049],[-2.56087,42.50047],[-2.56063,42.50043],[-2.56047,42.50045],[-2.56027,42.50051],[-2.55994,42.50067],[-2.5596,42.50077],[-2.55872,42.50101],[-2.55832,42.50117],[-2.55809,42.50133],[-2.55782,42.5016],[-2.55748,42.50194],[-2.55727,42.50204],[-2.55665,42.50222]]}},{"type":"Feature","properties":{"id":326980208,"highway":"tertiary","ref":"A-4202"},"geometry":{"type":"LineString","coordinates":[[-2.54991,42.49456],[-2.54996,42.4945],[-2.55152,42.49294],[-2.55166,42.49282],[-2.55182,42.49271],[-2.55211,42.49255],[-2.55268,42.49223],[-2.5538,42.49161],[-2.55396,42.49153],[-2.55411,42.49147],[-2.55617,42.49087],[-2.55747,42.49048],[-2.55781,42.49038],[-2.558,42.49032],[-2.55814,42.49028],[-2.55826,42.49026],[-2.55835,42.49025],[-2.55846,42.49026],[-2.55856,42.49028],[-2.55864,42.49031],[-2.55879,42.49039],[-2.55895,42.49047],[-2.55907,42.49055],[-2.55914,42.49059],[-2.55919,42.49063],[-2.55925,42.49069],[-2.5593,42.49076],[-2.55938,42.49091],[-2.55944,42.491],[-2.55952,42.49109],[-2.55963,42.49117],[-2.55973,42.49122],[-2.5598,42.49124],[-2.5599,42.49126],[-2.56,42.49126],[-2.56009,42.49126],[-2.56025,42.49125],[-2.56041,42.49124],[-2.56056,42.49124],[-2.56072,42.49126],[-2.56113,42.49134],[-2.56135,42.49139],[-2.56156,42.49145],[-2.56169,42.4915],[-2.56185,42.49157],[-2.56206,42.49168],[-2.56229,42.49179],[-2.5624,42.49183],[-2.56351,42.49226],[-2.56363,42.49231],[-2.56374,42.49238],[-2.56387,42.49246],[-2.56411,42.49267],[-2.56426,42.4928],[-2.56438,42.49289],[-2.56463,42.49304],[-2.56531,42.49343],[-2.5657,42.49367],[-2.56612,42.49391],[-2.56641,42.49408],[-2.56671,42.49427],[-2.56687,42.49438],[-2.567,42.49445],[-2.56711,42.4945],[-2.56723,42.49453],[-2.5676,42.4946],[-2.56791,42.49466],[-2.56811,42.49471],[-2.56838,42.4948],[-2.56856,42.49485],[-2.56868,42.49487],[-2.56877,42.49487],[-2.56889,42.49487],[-2.56902,42.49485],[-2.56915,42.49481],[-2.56934,42.49475],[-2.56975,42.4946],[-2.57002,42.4945],[-2.57024,42.49441],[-2.57055,42.49426],[-2.57103,42.49397],[-2.57117,42.4939],[-2.5714,42.49385],[-2.57165,42.49379],[-2.57185,42.49374],[-2.57201,42.49368],[-2.57226,42.49356],[-2.57247,42.49344],[-2.57254,42.4934],[-2.57297,42.49316],[-2.57337,42.49292],[-2.57353,42.49281],[-2.57371,42.49266]]}},{"type":"Feature","properties":{"id":375524308,"highway":"tertiary","nombre":"Foru Aldundi Txit Gorenaren etorbidea","izena_eu":"Foru Aldundi Txit Gorenaren etorbidea","nombre_es":"Avenida Excelentísima Diputación Foral","ref":"A-3216"},"geometry":{"type":"LineString","coordinates":[[-2.57371,42.49266],[-2.57396,42.49249],[-2.57406,42.49242],[-2.57414,42.49235],[-2.5742,42.4923],[-2.57426,42.49224],[-2.57431,42.49217],[-2.57435,42.49213],[-2.57462,42.49177],[-2.57468,42.4917],[-2.57474,42.49163],[-2.57483,42.49155],[-2.57488,42.49153],[-2.57494,42.4915],[-2.57496,42.49149],[-2.575,42.49149],[-2.57504,42.49148],[-2.5751,42.49148],[-2.57513,42.49148],[-2.57516,42.49149],[-2.5752,42.49149],[-2.57524,42.4915],[-2.57527,42.49152],[-2.5753,42.49153],[-2.57532,42.49155],[-2.57534,42.49156],[-2.57537,42.49158],[-2.57539,42.4916],[-2.57541,42.49163],[-2.57542,42.49165],[-2.57543,42.49167],[-2.57544,42.49168],[-2.57544,42.49171],[-2.57544,42.49173],[-2.57544,42.49176],[-2.57544,42.49179],[-2.57542,42.49185],[-2.57541,42.4919],[-2.57536,42.49212],[-2.57533,42.49223]]}},{"type":"Feature","properties":{"id":392261238,"highway":"residential","nombre":"Upeltegi kalea","izena_eu":"Upeltegi kalea","nombre_es":"Calle Bodegas"},"geometry":{"type":"LineString","coordinates":[[-2.57478,42.49523],[-2.57492,42.49532],[-2.57503,42.49547],[-2.57508,42.49556],[-2.57509,42.49559],[-2.5751,42.49563],[-2.5751,42.49574]]}},{"type":"Feature","properties":{"id":392262079,"highway":"track","nombre":"Las Bodegas La Puebla a Guardia - Camino San Ignacio"},"geometry":{"type":"LineString","coordinates":[[-2.57508,42.49829],[-2.57514,42.49842],[-2.57522,42.49864],[-2.57524,42.49876],[-2.57525,42.49886],[-2.57518,42.49907],[-2.57515,42.49918],[-2.57511,42.49953],[-2.57511,42.49959],[-2.57514,42.49972],[-2.57514,42.49995],[-2.57518,42.50016],[-2.57523,42.50031],[-2.5753,42.50041],[-2.57539,42.50053],[-2.57551,42.50063],[-2.57563,42.50071],[-2.57573,42.50075],[-2.57587,42.50077],[-2.57634,42.50081],[-2.57655,42.50083],[-2.57674,42.50086],[-2.57729,42.50105],[-2.57753,42.50116],[-2.57783,42.50136],[-2.57791,42.50146],[-2.57793,42.50149],[-2.578,42.50157],[-2.57808,42.50162],[-2.57823,42.50168],[-2.57849,42.50175],[-2.5787,42.50179],[-2.57899,42.50181],[-2.57911,42.50179],[-2.57936,42.50178],[-2.57951,42.50178],[-2.57965,42.50181],[-2.57975,42.50184],[-2.57983,42.5019],[-2.57991,42.50201],[-2.57996,42.50212],[-2.57998,42.50223],[-2.57996,42.50238],[-2.57992,42.50258],[-2.57989,42.50268],[-2.5798,42.50284],[-2.57974,42.50295],[-2.57974,42.50303],[-2.57974,42.50314],[-2.57978,42.50325],[-2.57983,42.50333],[-2.57989,42.5034],[-2.57991,42.50341],[-2.57997,42.50346],[-2.58028,42.50366],[-2.58047,42.50376],[-2.58055,42.50381],[-2.58084,42.50391],[-2.58097,42.50396],[-2.58117,42.50409],[-2.58133,42.5042]]}},{"type":"Feature","properties":{"id":392262422,"highway":"residential","nombre":"Eltziegoko Antzinako zeharbidea","izena_eu":"Eltziegoko Antzinako zeharbidea","nombre_es":"Travesía Antigua de Elciego"},"geometry":{"type":"LineString","coordinates":[[-2.57702,42.49568],[-2.57687,42.49573],[-2.57658,42.49583],[-2.5764,42.49584],[-2.57625,42.49581],[-2.57621,42.49579],[-2.57594,42.49566],[-2.57566,42.49555],[-2.57549,42.49543],[-2.57531,42.49529],[-2.57511,42.49522],[-2.57478,42.49523]]}},{"type":"Feature","properties":{"id":392262598,"highway":"residential","nombre":"Kale Nagusia","izena_eu":"Kale Nagusia","nombre_es":"Calle Mayor"},"geometry":{"type":"LineString","coordinates":[[-2.57314,42.49471],[-2.57302,42.49469],[-2.57287,42.49466],[-2.57273,42.49461],[-2.57262,42.49458],[-2.57244,42.49452],[-2.57237,42.49448]]}},{"type":"Feature","properties":{"id":405452791,"highway":"tertiary","nombre":"Gasteiz etorbidea","izena_eu":"Gasteiz etorbidea","nombre_es":"Avenida de Vitoria","ref":"A-3216"},"geometry":{"type":"LineString","coordinates":[[-2.57344,42.49367],[-2.57339,42.49374],[-2.57335,42.49395],[-2.57329,42.49418],[-2.57314,42.49471]]}},{"type":"Feature","properties":{"id":405452915,"highway":"residential","nombre":"Eltziegoko Antzinako zeharbidea","izena_eu":"Eltziegoko Antzinako zeharbidea","nombre_es":"Travesía Antigua de Elciego"},"geometry":{"type":"LineString","coordinates":[[-2.57478,42.49523],[-2.57451,42.49513],[-2.57447,42.49512],[-2.57419,42.49501],[-2.57389,42.49491],[-2.57345,42.4948]]}},{"type":"Feature","properties":{"id":423596753,"highway":"track","nombre":"Camino de La Puebla a Laguardia"},"geometry":{"type":"LineString","coordinates":[[-2.56156,42.50431],[-2.56173,42.50423],[-2.56194,42.5041],[-2.56213,42.5039],[-2.56232,42.5038],[-2.56253,42.50371],[-2.56278,42.50361],[-2.56299,42.50344],[-2.56316,42.5032],[-2.56312,42.50298],[-2.56318,42.50278],[-2.56343,42.50259],[-2.56374,42.50251],[-2.56402,42.50241],[-2.56424,42.50227],[-2.56445,42.50213],[-2.56463,42.50201],[-2.56497,42.50184],[-2.565,42.50182],[-2.56525,42.5017],[-2.56555,42.50165],[-2.56579,42.50154],[-2.56599,42.50133],[-2.56617,42.5011],[-2.56627,42.501],[-2.56653,42.50087],[-2.5667,42.50069],[-2.56687,42.50034],[-2.56696,42.50011],[-2.56698,42.49999],[-2.56697,42.49987],[-2.56691,42.49977],[-2.56684,42.4997],[-2.56662,42.49957],[-2.5665,42.49951],[-2.5663,42.49945],[-2.5662,42.49943],[-2.56613,42.49938],[-2.56612,42.49932],[-2.56617,42.49923],[-2.56625,42.49914],[-2.56655,42.49891],[-2.56665,42.4988],[-2.56673,42.49863],[-2.56676,42.49848],[-2.56676,42.49833],[-2.56673,42.49812],[-2.56669,42.49789],[-2.56664,42.49766],[-2.56655,42.49748]]}},{"type":"Feature","properties":{"id":473102457,"highway":"residential","nombre":"Kale Nagusiko zeharbidea","izena_eu":"Kale Nagusiko zeharbidea","nombre_es":"Travesía Calle Mayor"},"geometry":{"type":"LineString","coordinates":[[-2.57287,42.49466],[-2.57281,42.49474],[-2.57282,42.4948],[-2.57284,42.49487],[-2.57294,42.49493],[-2.57295,42.49497],[-2.57281,42.49523],[-2.57269,42.49537],[-2.57264,42.4954],[-2.57254,42.49538]]}},{"type":"Feature","properties":{"id":473102458,"highway":"residential","nombre":"Errege kalea","izena_eu":"Errege kalea","nombre_es":"Calle Real"},"geometry":{"type":"LineString","coordinates":[[-2.57229,42.49452],[-2.5723,42.49464],[-2.57236,42.49536]]}},{"type":"Feature","properties":{"id":473103403,"highway":"residential","nombre":"Arrain kalea","izena_eu":"Arrain kalea","nombre_es":"Calle el Pez"},"geometry":{"type":"LineString","coordinates":[[-2.57187,42.49469],[-2.57179,42.49469],[-2.57169,42.49465],[-2.57153,42.49459],[-2.57136,42.49451],[-2.57116,42.49437],[-2.57101,42.49427]]}},{"type":"Feature","properties":{"id":473103405,"highway":"residential","nombre":"Eliza plaza","izena_eu":"Eliza plaza","nombre_es":"Plaza la Iglesia"},"geometry":{"type":"LineString","coordinates":[[-2.57187,42.49469],[-2.57194,42.4946],[-2.57208,42.49438]]}},{"type":"Feature","properties":{"id":473104371,"highway":"residential","nombre":"Iturri kalea","izena_eu":"Iturri kalea","nombre_es":"Calle la Fuente"},"geometry":{"type":"LineString","coordinates":[[-2.57195,42.49481],[-2.5719,42.49486],[-2.57184,42.49497],[-2.57177,42.49505],[-2.57171,42.49507],[-2.5716,42.49505],[-2.57143,42.49497],[-2.57104,42.49486],[-2.57093,42.49483]]}},{"type":"Feature","properties":{"id":473105806,"highway":"residential","nombre":"Eguerdi kalea","izena_eu":"Eguerdi kalea","nombre_es":"Calle Mediodía"},"geometry":{"type":"LineString","coordinates":[[-2.57254,42.49538],[-2.57247,42.49537],[-2.57236,42.49536],[-2.5721,42.49537],[-2.57173,42.49539],[-2.57147,42.49539]]}},{"type":"Feature","properties":{"id":473105809,"highway":"unclassified"},"geometry":{"type":"LineString","coordinates":[[-2.56918,42.4953],[-2.56911,42.49531],[-2.56901,42.49527],[-2.56887,42.49526],[-2.56873,42.49529],[-2.5686,42.49494],[-2.56856,42.49485]]}},{"type":"Feature","properties":{"id":473105811,"highway":"unclassified","nombre":"Iturri kalea","izena_eu":"Iturri kalea","nombre_es":"Calle la Fuente"},"geometry":{"type":"LineString","coordinates":[[-2.56948,42.49593],[-2.56946,42.49581],[-2.56941,42.49569],[-2.56927,42.49554],[-2.56921,42.49542],[-2.56918,42.4953],[-2.56918,42.4952],[-2.56921,42.49512],[-2.56927,42.49505],[-2.56936,42.49501],[-2.56975,42.4949],[-2.57012,42.49484],[-2.57025,42.49481],[-2.57042,42.49473],[-2.57058,42.4947],[-2.57086,42.49479],[-2.57093,42.49483]]}},{"type":"Feature","properties":{"id":489650455,"highway":"residential","nombre":"Jose Antonio Agirre parkea","izena_eu":"Jose Antonio Agirre parkea","nombre_es":"Parque José Antonio Aguirre"},"geometry":{"type":"LineString","coordinates":[[-2.57632,42.49188],[-2.576,42.49161],[-2.57595,42.4916],[-2.57592,42.49162],[-2.57588,42.49185]]}},{"type":"Feature","properties":{"id":489651003,"highway":"residential","nombre":"Larrain Kaleko zeharbidea","izena_eu":"Larrain Kaleko zeharbidea","nombre_es":"Travesía Calle las Eras"},"geometry":{"type":"LineString","coordinates":[[-2.57252,42.49593],[-2.57261,42.49607],[-2.57263,42.49612],[-2.57263,42.49618],[-2.57265,42.49627],[-2.57268,42.4963],[-2.57272,42.49636],[-2.57274,42.49641],[-2.57276,42.49649],[-2.57278,42.49659],[-2.57312,42.49685]]}},{"type":"Feature","properties":{"id":489651004,"highway":"residential","nombre":"Kale Berria","izena_eu":"Kale Berria","nombre_es":"Calle Nueva","oneway":"yes"},"geometry":{"type":"LineString","coordinates":[[-2.57353,42.49429],[-2.57411,42.49455],[-2.57413,42.49457],[-2.57423,42.49461]]}},{"type":"Feature","properties":{"id":489651005,"highway":"residential","oneway":"yes"},"geometry":{"type":"LineString","coordinates":[[-2.57483,42.49336],[-2.57491,42.49353]]}},{"type":"Feature","properties":{"id":489651006,"highway":"residential"},"geometry":{"type":"LineString","coordinates":[[-2.57442,42.49359],[-2.57437,42.49345]]}},{"type":"Feature","properties":{"id":489651007,"highway":"residential","nombre":"Maria Cruz Saenz Diaz kalea","izena_eu":"Maria Cruz Saenz Diaz kalea","nombre_es":"Calle María Cruz Sáenz Díaz","oneway":"yes"},"geometry":{"type":"LineString","coordinates":[[-2.57667,42.4933],[-2.57661,42.49334],[-2.57613,42.49347],[-2.5758,42.49353],[-2.57575,42.49354],[-2.57557,42.49355],[-2.57513,42.49353],[-2.57491,42.49353],[-2.57472,42.49354],[-2.57442,42.49359],[-2.57432,42.49361],[-2.57421,42.49367],[-2.57394,42.49384],[-2.5738,42.49394],[-2.57373,42.49402],[-2.57354,42.49426],[-2.57353,42.49429],[-2.57351,42.49431],[-2.57349,42.49436],[-2.57345,42.49456],[-2.57342,42.49465],[-2.57334,42.49477]]}},{"type":"Feature","properties":{"id":489651008,"highway":"residential","nombre":"Maria Cruz Saenz Diaz kalea","izena_eu":"Maria Cruz Saenz Diaz kalea","nombre_es":"Calle María Cruz Sáenz Díaz"},"geometry":{"type":"LineString","coordinates":[[-2.57667,42.4933],[-2.57672,42.49333],[-2.57679,42.49333],[-2.57835,42.49295],[-2.57872,42.49277]]}},{"type":"Feature","properties":{"id":489651009,"highway":"residential","nombre":"Telleria kalea","izena_eu":"Telleria kalea","nombre_es":"Calle Tejerías"},"geometry":{"type":"LineString","coordinates":[[-2.57648,42.49274],[-2.57646,42.49279],[-2.57641,42.49285],[-2.57632,42.4929],[-2.57615,42.49297],[-2.57547,42.49321],[-2.57526,42.49327],[-2.57483,42.49336],[-2.57467,42.49339],[-2.57441,42.49344],[-2.57437,42.49345],[-2.57421,42.49346],[-2.57407,42.49348],[-2.57401,42.49347]]}},{"type":"Feature","properties":{"id":489651543,"highway":"residential","nombre":"Larrain kalea","izena_eu":"Larrain kalea","nombre_es":"Calle las Eras"},"geometry":{"type":"LineString","coordinates":[[-2.57268,42.4963],[-2.57243,42.49636],[-2.57228,42.49639],[-2.5722,42.4964],[-2.57213,42.49639],[-2.57207,42.49635],[-2.57201,42.49625]]}},{"type":"Feature","properties":{"id":489651544,"highway":"residential","nombre":"Larrain kalea","izena_eu":"Larrain kalea","nombre_es":"Calle las Eras"},"geometry":{"type":"LineString","coordinates":[[-2.57299,42.49612],[-2.57297,42.49617],[-2.57296,42.49622],[-2.57297,42.49625],[-2.57297,42.49627],[-2.57294,42.49629],[-2.57272,42.49636]]}},{"type":"Feature","properties":{"id":489651545,"highway":"residential","nombre":"Upeltegi kalea","izena_eu":"Upeltegi kalea","nombre_es":"Calle Bodegas"},"geometry":{"type":"LineString","coordinates":[[-2.57278,42.49659],[-2.57315,42.49654],[-2.57348,42.49648],[-2.57357,42.49643],[-2.57372,42.49627],[-2.57382,42.49619],[-2.57395,42.49615],[-2.57422,42.49612],[-2.57429,42.49606],[-2.57432,42.49601],[-2.57441,42.49596],[-2.57458,42.49583],[-2.5746,42.49579],[-2.57457,42.49576],[-2.57454,42.49565],[-2.57453,42.49562],[-2.57452,42.49552],[-2.57456,42.49545],[-2.57457,42.49542],[-2.57457,42.49536],[-2.57456,42.49532],[-2.5745,42.49528],[-2.57448,42.4952],[-2.57447,42.49512]]}},{"type":"Feature","properties":{"id":489651546,"highway":"residential","nombre":"Upeltegi kalea","izena_eu":"Upeltegi kalea","nombre_es":"Calle Bodegas"},"geometry":{"type":"LineString","coordinates":[[-2.57565,42.49582],[-2.57566,42.49571],[-2.57564,42.49568],[-2.57552,42.49563],[-2.57544,42.49557],[-2.5754,42.49555],[-2.57527,42.49553],[-2.57514,42.49555],[-2.57508,42.49556]]}},{"type":"Feature","properties":{"id":489651547,"highway":"residential","nombre":"Upeltegi kalea","izena_eu":"Upeltegi kalea","nombre_es":"Calle Bodegas"},"geometry":{"type":"LineString","coordinates":[[-2.57543,42.49577],[-2.57532,42.49581],[-2.57509,42.49588],[-2.5749,42.49595],[-2.57463,42.49608],[-2.57455,42.49606],[-2.57422,42.49612]]}},{"type":"Feature","properties":{"id":489651548,"highway":"residential","nombre":"Gaztelu kalea","izena_eu":"Gaztelu kalea","nombre_es":"Calle el Castillo"},"geometry":{"type":"LineString","coordinates":[[-2.57272,42.49587],[-2.57282,42.49601],[-2.57292,42.49609],[-2.57299,42.49612],[-2.57303,42.49614],[-2.57314,42.49616],[-2.57328,42.49615],[-2.57337,42.49609],[-2.57353,42.49596],[-2.57365,42.49589],[-2.5739,42.49583],[-2.57411,42.49578],[-2.57439,42.49575]]}},{"type":"Feature","properties":{"id":489651549,"highway":"residential","nombre":"Hamarren Kaleko zeharbidea","izena_eu":"Hamarren Kaleko zeharbidea","nombre_es":"Travesía Calle el Diezmo"},"geometry":{"type":"LineString","coordinates":[[-2.57174,42.49656],[-2.57171,42.49653],[-2.57171,42.49649],[-2.57176,42.49641],[-2.57185,42.49625],[-2.57187,42.49617],[-2.57186,42.49608],[-2.57184,42.49596],[-2.57177,42.49592],[-2.57166,42.49581],[-2.57159,42.49575],[-2.5715,42.49573],[-2.57144,42.49572]]}},{"type":"Feature","properties":{"id":516491621,"highway":"tertiary","ref":"A-3216"},"geometry":{"type":"LineString","coordinates":[[-2.57147,42.49688],[-2.57136,42.49701],[-2.57129,42.4971],[-2.57124,42.49719],[-2.57117,42.49732],[-2.5711,42.49748],[-2.57109,42.49755],[-2.57107,42.49769],[-2.57107,42.49784],[-2.5711,42.49797],[-2.57115,42.49812],[-2.57122,42.49826],[-2.57131,42.4984],[-2.5715,42.49864],[-2.57175,42.49891],[-2.57193,42.49909],[-2.572,42.49919],[-2.57207,42.49933],[-2.57212,42.49948],[-2.57216,42.49966],[-2.57217,42.49976],[-2.57217,42.49982],[-2.57226,42.50132],[-2.57229,42.50166],[-2.57233,42.50219],[-2.57235,42.50237],[-2.57238,42.50253],[-2.57244,42.50269],[-2.57252,42.50282],[-2.5726,42.50294],[-2.57273,42.5031],[-2.57297,42.50332],[-2.57316,42.50358],[-2.57326,42.50374],[-2.5733,42.50381],[-2.57335,42.50391],[-2.57338,42.50404],[-2.57341,42.50416],[-2.57343,42.50432],[-2.57343,42.5045],[-2.57345,42.50484],[-2.57346,42.50527],[-2.57346,42.50548],[-2.57348,42.50601],[-2.5735,42.50636],[-2.5735,42.50657],[-2.57348,42.50672],[-2.57343,42.50701],[-2.57333,42.50729],[-2.57331,42.50731]]}},{"type":"Feature","properties":{"id":522930839,"highway":"residential","oneway":"yes"},"geometry":{"type":"LineString","coordinates":[[-2.57694,42.4954],[-2.57704,42.49546],[-2.5771,42.4955],[-2.57712,42.49552],[-2.57713,42.49555],[-2.57713,42.49559],[-2.57711,42.49563]]}},{"type":"Feature","properties":{"id":522930840,"highway":"residential","oneway":"yes"},"geometry":{"type":"LineString","coordinates":[[-2.57721,42.49547],[-2.57718,42.49552],[-2.57717,42.49555],[-2.57716,42.49559],[-2.57711,42.49563],[-2.57702,42.49568]]}},{"type":"Feature","properties":{"id":522930841,"highway":"tertiary","ref":"A-4208","oneway":"yes"},"geometry":{"type":"LineString","coordinates":[[-2.57673,42.49527],[-2.57681,42.49533],[-2.57688,42.49538],[-2.57694,42.4954],[-2.57703,42.49542],[-2.57711,42.49545],[-2.57717,42.49546],[-2.57721,42.49547]]}},{"type":"Feature","properties":{"id":522930842,"highway":"residential","oneway":"yes"},"geometry":{"type":"LineString","coordinates":[[-2.57721,42.49562],[-2.57723,42.49558],[-2.57724,42.49556],[-2.57724,42.49554],[-2.57724,42.49552],[-2.57723,42.4955],[-2.57721,42.49547]]}},{"type":"Feature","properties":{"id":522930843,"highway":"residential"},"geometry":{"type":"LineString","coordinates":[[-2.5759,42.49652],[-2.57549,42.49665],[-2.57526,42.49687],[-2.57521,42.4969]]}},{"type":"Feature","properties":{"id":522930844,"highway":"residential"},"geometry":{"type":"LineString","coordinates":[[-2.57448,42.4952],[-2.57435,42.4952],[-2.5743,42.49536],[-2.5744,42.49537],[-2.57442,42.49542],[-2.5744,42.49558],[-2.5744,42.49569],[-2.57439,42.49575]]}},{"type":"Feature","properties":{"id":522930845,"highway":"residential","nombre":"Gazteluaren Goiko zeharbidea","izena_eu":"Gazteluaren Goiko zeharbidea","nombre_es":"Travesía Alta del Castillo"},"geometry":{"type":"LineString","coordinates":[[-2.57337,42.49609],[-2.57343,42.49597],[-2.57349,42.49585],[-2.57354,42.4958],[-2.57405,42.49568],[-2.57421,42.49563],[-2.5744,42.49569]]}},{"type":"Feature","properties":{"id":522930846,"highway":"residential"},"geometry":{"type":"LineString","coordinates":[[-2.57443,42.49382],[-2.57432,42.49389],[-2.57444,42.49404],[-2.57465,42.49408]]}},{"type":"Feature","properties":{"id":522930847,"highway":"residential","nombre":"Artxanda kalea","izena_eu":"Artxanda kalea","nombre_es":"Calle Archanda"},"geometry":{"type":"LineString","coordinates":[[-2.5758,42.49353],[-2.57579,42.49358],[-2.57555,42.49363],[-2.57502,42.49371],[-2.5748,42.49375],[-2.57465,42.49408]]}},{"type":"Feature","properties":{"id":522930848,"highway":"residential","nombre":"Biltegi bidea","izena_eu":"Biltegi bidea","nombre_es":"Camino los Depósitos"},"geometry":{"type":"LineString","coordinates":[[-2.57413,42.49457],[-2.57465,42.49408],[-2.5755,42.49409],[-2.57583,42.49394],[-2.57594,42.49391],[-2.57607,42.49392],[-2.57648,42.49396],[-2.57681,42.4939]]}},{"type":"Feature","properties":{"id":522930852,"highway":"residential","nombre":"Telleria kalea","izena_eu":"Telleria kalea","nombre_es":"Calle Tejerías"},"geometry":{"type":"LineString","coordinates":[[-2.57648,42.49274],[-2.57658,42.4927],[-2.57717,42.49231],[-2.57724,42.4923],[-2.57749,42.49244],[-2.57757,42.49246],[-2.57829,42.49216]]}},{"type":"Feature","properties":{"id":557386680,"highway":"track"},"geometry":{"type":"LineString","coordinates":[[-2.54967,42.4911],[-2.54985,42.49112],[-2.5506,42.49113],[-2.55124,42.49115],[-2.55164,42.49118],[-2.55249,42.4913],[-2.55326,42.49134],[-2.55341,42.49137],[-2.5538,42.49161]]}},{"type":"Feature","properties":{"id":557386681,"highway":"track"},"geometry":{"type":"LineString","coordinates":[[-2.54996,42.4945],[-2.54982,42.49445]]}},{"type":"Feature","properties":{"id":557386682,"highway":"track"},"geometry":{"type":"MultiLineString","coordinates":[[[-2.54991,42.49292],[-2.54992,42.49289],[-2.54999,42.49265],[-2.55002,42.49242]],[[-2.55005,42.49231],[-2.55014,42.49207],[-2.55024,42.49192],[-2.55026,42.49184],[-2.55006,42.49149],[-2.54987,42.49122],[-2.54985,42.49112],[-2.54984,42.49108],[-2.54959,42.49067],[-2.54943,42.49055],[-2.54896,42.49036],[-2.54884,42.49026]]]}},{"type":"Feature","properties":{"id":557387567,"highway":"track"},"geometry":{"type":"LineString","coordinates":[[-2.55617,42.49087],[-2.55562,42.49075],[-2.55523,42.49062],[-2.55469,42.49033],[-2.55417,42.49021],[-2.55368,42.4901],[-2.5528,42.48971],[-2.55228,42.48951],[-2.55168,42.48936],[-2.55059,42.48898],[-2.54963,42.4887],[-2.54921,42.48861],[-2.54876,42.48842],[-2.54797,42.48824],[-2.54769,42.48823],[-2.5472,42.48824],[-2.54668,42.48819],[-2.54594,42.4882],[-2.54574,42.48822],[-2.54545,42.48831],[-2.54511,42.48841],[-2.54503,42.48842]]}},{"type":"Feature","properties":{"id":606099278,"highway":"tertiary","ref":"A-4208","oneway":"yes"},"geometry":{"type":"LineString","coordinates":[[-2.57779,42.49542],[-2.57773,42.49543],[-2.57752,42.49543],[-2.57736,42.49543],[-2.57732,42.49543],[-2.57723,42.49542],[-2.57711,42.49539],[-2.57699,42.49536],[-2.57689,42.49533],[-2.57684,42.49531],[-2.57673,42.49527]]}},{"type":"Feature","properties":{"id":606099281,"highway":"tertiary","nombre":"Kale Berria","izena_eu":"Kale Berria","nombre_es":"Calle Nueva","ref":"A-4208"},"geometry":{"type":"LineString","coordinates":[[-2.57423,42.49461],[-2.57454,42.49454],[-2.57461,42.49452],[-2.57467,42.49452],[-2.57479,42.49453],[-2.5749,42.49455],[-2.57536,42.49467],[-2.57561,42.49474],[-2.57579,42.4948],[-2.57594,42.49485],[-2.57617,42.49495],[-2.57635,42.49504],[-2.57673,42.49527]]}},{"type":"Feature","properties":{"id":610744966,"highway":"unclassified"},"geometry":{"type":"LineString","coordinates":[[-2.58228,42.48809],[-2.5824,42.48821],[-2.58247,42.48829],[-2.58252,42.48845],[-2.58259,42.48861],[-2.58261,42.48869],[-2.58259,42.48878],[-2.58254,42.48886],[-2.5823,42.48917],[-2.58216,42.48933],[-2.58208,42.48946],[-2.58206,42.48955],[-2.58207,42.48964],[-2.58211,42.48973],[-2.58218,42.48986],[-2.58225,42.48998],[-2.58232,42.49015],[-2.58242,42.49036],[-2.58245,42.49048],[-2.58245,42.49055],[-2.58241,42.49062],[-2.58219,42.49085],[-2.58214,42.49092],[-2.58207,42.4911],[-2.58201,42.49118],[-2.58193,42.49123],[-2.58185,42.49127],[-2.58175,42.49128],[-2.58161,42.49127],[-2.58137,42.49127],[-2.58121,42.49133],[-2.58091,42.49148],[-2.58072,42.49157],[-2.58053,42.49164],[-2.58024,42.49174],[-2.58007,42.49181],[-2.57992,42.4919],[-2.57982,42.49197],[-2.57969,42.49207],[-2.57952,42.49223],[-2.5794,42.49234],[-2.57922,42.49249],[-2.57909,42.49258],[-2.57896,42.49266],[-2.57872,42.49277]]}},{"type":"Feature","properties":{"id":610744967,"highway":"track"},"geometry":{"type":"LineString","coordinates":[[-2.58208,42.48946],[-2.58185,42.48955],[-2.58167,42.48965],[-2.58157,42.48973],[-2.58149,42.48983],[-2.58127,42.49017],[-2.58114,42.49033],[-2.58103,42.49046],[-2.58095,42.49055],[-2.58082,42.49067],[-2.5807,42.49078],[-2.5806,42.49087],[-2.58049,42.49093],[-2.58018,42.49108],[-2.5798,42.49132],[-2.57967,42.49141],[-2.57957,42.49151],[-2.57945,42.49161],[-2.57939,42.49166],[-2.57933,42.4917],[-2.57922,42.49175],[-2.5791,42.4918],[-2.57866,42.49198],[-2.57844,42.49209],[-2.57829,42.49216]]}},{"type":"Feature","properties":{"id":610768997,"highway":"service"},"geometry":{"type":"LineString","coordinates":[[-2.5833,42.49808],[-2.58328,42.49814],[-2.58319,42.49816],[-2.58291,42.49821],[-2.58262,42.49825],[-2.58243,42.49825],[-2.58232,42.49827],[-2.58218,42.49834],[-2.58166,42.49864],[-2.58153,42.49869],[-2.5813,42.49877],[-2.58106,42.49886],[-2.58095,42.49889],[-2.58084,42.49888]]}},{"type":"Feature","properties":{"id":610769000,"highway":"service"},"geometry":{"type":"LineString","coordinates":[[-2.58465,42.49795],[-2.58464,42.498],[-2.58459,42.49802],[-2.58433,42.49808],[-2.58427,42.49812],[-2.58421,42.49818],[-2.58407,42.4984],[-2.58405,42.49848],[-2.58404,42.4986],[-2.58404,42.49889],[-2.58406,42.49903],[-2.58409,42.49915],[-2.58415,42.49932],[-2.58415,42.49937],[-2.5841,42.49941],[-2.58406,42.49943],[-2.584,42.49944],[-2.58372,42.49945],[-2.58357,42.49946],[-2.58332,42.49949],[-2.58319,42.4995],[-2.58279,42.4995],[-2.58254,42.49951],[-2.58233,42.49953],[-2.58222,42.49955],[-2.58196,42.49959],[-2.58183,42.49963],[-2.58173,42.4997],[-2.58166,42.49977],[-2.58162,42.49986],[-2.58162,42.49996],[-2.58164,42.50006],[-2.58168,42.50012],[-2.58176,42.50017],[-2.58231,42.50035],[-2.58239,42.50041],[-2.58243,42.50046],[-2.58246,42.50068],[-2.5825,42.50075],[-2.58255,42.50078],[-2.58265,42.5008],[-2.58316,42.50087],[-2.58322,42.50086],[-2.58326,42.50084],[-2.58328,42.50078],[-2.58344,42.5002],[-2.58344,42.50015],[-2.58342,42.50012],[-2.58336,42.50008],[-2.58215,42.49965],[-2.58207,42.49965],[-2.58197,42.49965],[-2.58181,42.49968],[-2.58173,42.4997]]}},{"type":"Feature","properties":{"id":610769001,"highway":"track"},"geometry":{"type":"LineString","coordinates":[[-2.58233,42.49953],[-2.58211,42.49951],[-2.58197,42.49951],[-2.58183,42.49953],[-2.58176,42.49955],[-2.58161,42.49962],[-2.58149,42.4997],[-2.58132,42.49984],[-2.58124,42.49994],[-2.5812,42.49997],[-2.58114,42.49999],[-2.58108,42.49999],[-2.58073,42.49996],[-2.58063,42.49995],[-2.58057,42.49993],[-2.58054,42.49989],[-2.58051,42.4998],[-2.58048,42.49977],[-2.58045,42.49975],[-2.58023,42.49972],[-2.58012,42.49968],[-2.57961,42.49951],[-2.57948,42.49949],[-2.57938,42.49949]]}},{"type":"Feature","properties":{"id":610769002,"highway":"track"},"geometry":{"type":"LineString","coordinates":[[-2.58073,42.49996],[-2.58071,42.5],[-2.58065,42.50006],[-2.58063,42.50012],[-2.58062,42.5003],[-2.58062,42.50039],[-2.58065,42.50055],[-2.58068,42.50063],[-2.5807,42.50069],[-2.58066,42.50072],[-2.58058,42.50077],[-2.58054,42.50081],[-2.5805,42.50087],[-2.58048,42.50093],[-2.58048,42.50101]]}},{"type":"Feature","properties":{"id":610769003,"highway":"track"},"geometry":{"type":"LineString","coordinates":[[-2.57534,42.49724],[-2.57545,42.4974],[-2.57551,42.4975],[-2.57555,42.49757],[-2.57552,42.49762],[-2.57545,42.49766],[-2.57535,42.49768],[-2.57525,42.49769],[-2.57512,42.49772],[-2.57507,42.49775],[-2.57503,42.49783],[-2.57503,42.49791],[-2.57505,42.49806],[-2.57508,42.49829]]}},{"type":"Feature","properties":{"id":610769006,"highway":"track"},"geometry":{"type":"LineString","coordinates":[[-2.57793,42.50149],[-2.57808,42.50153],[-2.57819,42.50153],[-2.57832,42.50154],[-2.57854,42.50152],[-2.5787,42.5015],[-2.57907,42.50143],[-2.57929,42.5014],[-2.57947,42.50137],[-2.5796,42.50135],[-2.57977,42.50131],[-2.57989,42.50131],[-2.58005,42.50131]]}},{"type":"Feature","properties":{"id":610769007,"highway":"track"},"geometry":{"type":"LineString","coordinates":[[-2.57947,42.50137],[-2.57955,42.50132],[-2.57966,42.50126],[-2.57982,42.50122],[-2.57994,42.50118],[-2.58003,42.50113],[-2.58017,42.50106],[-2.58027,42.50103],[-2.58034,42.50102],[-2.58048,42.50101],[-2.58061,42.50102],[-2.58073,42.501],[-2.58098,42.50098],[-2.58103,42.50097],[-2.58107,42.50094]]}},{"type":"Feature","properties":{"id":610769008,"highway":"track"},"geometry":{"type":"LineString","coordinates":[[-2.57991,42.50341],[-2.58002,42.50338],[-2.58012,42.50333],[-2.58022,42.50327],[-2.5805,42.50307],[-2.58061,42.503],[-2.58065,42.50299],[-2.58067,42.50294],[-2.58066,42.50289],[-2.58062,42.50283],[-2.58059,42.50278],[-2.58058,42.50273],[-2.58061,42.50268],[-2.58067,42.50257],[-2.58068,42.50252],[-2.58068,42.50247],[-2.58065,42.50236],[-2.58065,42.50231],[-2.58065,42.50226],[-2.58069,42.50217],[-2.58071,42.5021],[-2.58076,42.50189],[-2.58082,42.50168],[-2.58085,42.50162],[-2.58091,42.50156],[-2.58111,42.50135],[-2.58114,42.50126],[-2.58115,42.50118],[-2.58116,42.50112],[-2.58115,42.50106],[-2.5811,42.50099],[-2.58107,42.50094],[-2.58097,42.50082]]}},{"type":"Feature","properties":{"id":610771484,"highway":"track"},"geometry":{"type":"LineString","coordinates":[[-2.57229,42.50166],[-2.57246,42.50176],[-2.57254,42.50182],[-2.57258,42.50195],[-2.57259,42.50212],[-2.57259,42.50233],[-2.57262,42.50242],[-2.57267,42.5025],[-2.57283,42.50266],[-2.5729,42.50275],[-2.57299,42.5029],[-2.57311,42.50303],[-2.57328,42.50315],[-2.57345,42.50323],[-2.57358,42.50326],[-2.57376,42.50326],[-2.57415,42.50325],[-2.57433,42.50326],[-2.5745,42.50329],[-2.5746,42.50333],[-2.57464,42.50339],[-2.57465,42.50346],[-2.57463,42.5035],[-2.57456,42.50365],[-2.57454,42.50376],[-2.57454,42.50388],[-2.57457,42.504],[-2.57462,42.50411],[-2.57469,42.50419],[-2.57478,42.50425],[-2.57487,42.5043],[-2.57495,42.50433],[-2.57514,42.50437],[-2.57543,42.50442],[-2.57557,42.50446],[-2.57569,42.50452],[-2.57583,42.50462],[-2.57606,42.50473],[-2.57626,42.50483],[-2.57634,42.50489],[-2.5764,42.50495],[-2.57653,42.5051],[-2.57661,42.50516],[-2.5767,42.5052],[-2.57717,42.50535],[-2.57733,42.50541],[-2.57742,42.50547],[-2.57747,42.50554],[-2.57748,42.50563],[-2.5775,42.5058],[-2.57755,42.50596]]}},{"type":"Feature","properties":{"id":611064851,"highway":"track"},"geometry":{"type":"LineString","coordinates":[[-2.57343,42.5045],[-2.57256,42.50444],[-2.57247,42.50444]]}},{"type":"Feature","properties":{"id":611064853,"highway":"track"},"geometry":{"type":"LineString","coordinates":[[-2.56608,42.50423],[-2.56613,42.50423],[-2.56631,42.50417],[-2.56649,42.50415],[-2.56659,42.50413],[-2.5667,42.5041],[-2.56704,42.50394],[-2.5672,42.50389],[-2.56734,42.50386],[-2.56747,42.50385],[-2.56775,42.50385],[-2.56787,42.50385],[-2.56807,42.50382],[-2.56857,42.50375],[-2.56876,42.50371],[-2.56892,42.5037],[-2.5695,42.50373],[-2.56969,42.50374],[-2.57024,42.50385],[-2.57042,42.50389],[-2.57055,42.5039],[-2.57069,42.50389],[-2.57084,42.50388],[-2.57107,42.50384],[-2.57119,42.50384],[-2.5713,42.50385],[-2.57151,42.50391],[-2.57165,42.50393],[-2.5719,42.50392],[-2.57206,42.50391],[-2.57225,42.50395],[-2.57237,42.50402],[-2.57245,42.50418],[-2.57248,42.50431],[-2.57247,42.50444],[-2.57241,42.50454],[-2.57236,42.50462],[-2.5722,42.50473],[-2.57214,42.50481],[-2.57212,42.50489],[-2.57212,42.50518],[-2.57208,42.50527],[-2.57201,42.50535],[-2.57193,42.50543],[-2.57165,42.50565],[-2.57155,42.5057],[-2.57144,42.50575],[-2.57045,42.50611],[-2.57026,42.50616],[-2.57009,42.50618],[-2.56983,42.50621],[-2.56967,42.50625],[-2.5695,42.50631],[-2.5694,42.50636]]}},{"type":"Feature","properties":{"id":611064856,"highway":"track"},"geometry":{"type":"LineString","coordinates":[[-2.56613,42.49938],[-2.56591,42.49943],[-2.56568,42.49948],[-2.56538,42.49958],[-2.56496,42.49974],[-2.5645,42.49988],[-2.5644,42.49993],[-2.56419,42.50005],[-2.56365,42.50031],[-2.56354,42.50039],[-2.56346,42.50047],[-2.56343,42.50054],[-2.56344,42.50068],[-2.56343,42.50072],[-2.56342,42.50076]]}},{"type":"Feature","properties":{"id":611064857,"highway":"track"},"geometry":{"type":"LineString","coordinates":[[-2.56342,42.50076],[-2.56308,42.50097],[-2.56291,42.50108],[-2.56285,42.50117],[-2.56283,42.50126],[-2.56282,42.50142],[-2.56279,42.50151],[-2.56276,42.50159],[-2.56271,42.50166],[-2.56258,42.50185],[-2.56255,42.50191],[-2.56251,42.50201],[-2.56247,42.50207],[-2.56241,42.50211],[-2.56214,42.50228],[-2.562,42.50238],[-2.56191,42.50246],[-2.5618,42.50258],[-2.56168,42.50274],[-2.5616,42.50284],[-2.56156,42.50293],[-2.56146,42.50318],[-2.5614,42.50328],[-2.56134,42.50334],[-2.56126,42.50339],[-2.56113,42.50344],[-2.56101,42.50346],[-2.56089,42.50348],[-2.56075,42.50347],[-2.56059,42.50344],[-2.56013,42.50338],[-2.55996,42.50335],[-2.55954,42.50324],[-2.55941,42.50322],[-2.55931,42.50322]]}},{"type":"Feature","properties":{"id":624088683,"highway":"tertiary","ref":"A-3216"},"geometry":{"type":"LineString","coordinates":[[-2.57514,42.49255],[-2.57516,42.49257],[-2.57519,42.49259],[-2.57523,42.4926],[-2.57526,42.4926],[-2.5753,42.4926],[-2.57533,42.49259],[-2.57536,42.49258]]}},{"type":"Feature","properties":{"id":624088684,"highway":"tertiary","ref":"A-3216"},"geometry":{"type":"LineString","coordinates":[[-2.57535,42.4924],[-2.57533,42.49239],[-2.57531,42.49238],[-2.57528,42.49238],[-2.57526,42.49238],[-2.57523,42.49238]]}},{"type":"Feature","properties":{"id":624088685,"highway":"tertiary","ref":"A-3216"},"geometry":{"type":"LineString","coordinates":[[-2.57539,42.49256],[-2.5754,42.49254],[-2.57541,42.49253],[-2.57541,42.49251],[-2.57542,42.4925],[-2.57542,42.49248],[-2.57541,42.49247],[-2.57541,42.49245],[-2.5754,42.49244],[-2.57538,42.49242],[-2.57537,42.49241],[-2.57535,42.4924]]}},{"type":"Feature","properties":{"id":625048941,"highway":"track"},"geometry":{"type":"LineString","coordinates":[[-2.57304,42.50725],[-2.57322,42.50693]]}},{"type":"Feature","properties":{"id":625048943,"highway":"track"},"geometry":{"type":"LineString","coordinates":[[-2.57351,42.50736],[-2.57359,42.50722]]}},{"type":"Feature","properties":{"id":625048944,"highway":"service"},"geometry":{"type":"LineString","coordinates":[[-2.57346,42.50527],[-2.57365,42.50523],[-2.57384,42.50521],[-2.57403,42.50523]]}},{"type":"Feature","properties":{"id":625048945,"highway":"track"},"geometry":{"type":"LineString","coordinates":[[-2.57403,42.50523],[-2.57466,42.50557],[-2.5749,42.50573],[-2.575,42.50584],[-2.57521,42.5061],[-2.57535,42.50631],[-2.57544,42.50658]]}},{"type":"Feature","properties":{"id":625048946,"highway":"service"},"geometry":{"type":"LineString","coordinates":[[-2.57226,42.50132],[-2.57208,42.50132]]}},{"type":"Feature","properties":{"id":625048947,"highway":"track"},"geometry":{"type":"LineString","coordinates":[[-2.5711,42.49961],[-2.57117,42.4996],[-2.57132,42.49965],[-2.57144,42.49971],[-2.57146,42.49976],[-2.57144,42.49982],[-2.5714,42.49989],[-2.57145,42.49994],[-2.57161,42.49999],[-2.57176,42.50002],[-2.57195,42.50002],[-2.57201,42.50005],[-2.57203,42.5001],[-2.57207,42.50065],[-2.57211,42.50107],[-2.5721,42.50124],[-2.57208,42.50132],[-2.57202,42.50143],[-2.57207,42.50159],[-2.57214,42.50176],[-2.57218,42.50211]]}},{"type":"Feature","properties":{"id":625048948,"highway":"service"},"geometry":{"type":"LineString","coordinates":[[-2.57217,42.49976],[-2.57236,42.49979]]}},{"type":"Feature","properties":{"id":625048949,"highway":"track"},"geometry":{"type":"LineString","coordinates":[[-2.57234,42.49998],[-2.57236,42.49986],[-2.57236,42.49979],[-2.57248,42.49972],[-2.57285,42.49961]]}},{"type":"Feature","properties":{"id":625048950,"highway":"service"},"geometry":{"type":"LineString","coordinates":[[-2.5711,42.49748],[-2.57091,42.49754],[-2.57081,42.49762]]}},{"type":"Feature","properties":{"id":625048951,"highway":"track"},"geometry":{"type":"LineString","coordinates":[[-2.57081,42.49762],[-2.57058,42.49781],[-2.57042,42.49796],[-2.57035,42.49806],[-2.57037,42.49815],[-2.57047,42.49825],[-2.5706,42.49838],[-2.57068,42.4985],[-2.57075,42.49882],[-2.57087,42.49901],[-2.57092,42.49911],[-2.57093,42.49918],[-2.57093,42.49926],[-2.57095,42.49936],[-2.57101,42.49948],[-2.5711,42.49961],[-2.57123,42.49968],[-2.5713,42.49971],[-2.57137,42.49975],[-2.57137,42.49979],[-2.57133,42.49984],[-2.57102,42.49994],[-2.57083,42.49999],[-2.5706,42.50009],[-2.57048,42.5002],[-2.5704,42.50034],[-2.5704,42.50042],[-2.57039,42.50073],[-2.57039,42.5009],[-2.57032,42.50108],[-2.57026,42.5012],[-2.57025,42.5013],[-2.57029,42.50138],[-2.57032,42.50142],[-2.57044,42.50149],[-2.57049,42.50154],[-2.57056,42.5017],[-2.5707,42.50184],[-2.5708,42.50201],[-2.57085,42.50208]]}},{"type":"Feature","properties":{"id":669785295,"highway":"track"},"geometry":{"type":"LineString","coordinates":[[-2.56041,42.49124],[-2.56035,42.49108],[-2.56007,42.49056],[-2.55998,42.49042],[-2.55988,42.49029],[-2.55981,42.49014],[-2.55976,42.49],[-2.55969,42.48993]]}},{"type":"Feature","properties":{"id":669785296,"highway":"track"},"geometry":{"type":"LineString","coordinates":[[-2.55969,42.48993],[-2.5591,42.48955],[-2.55883,42.48933],[-2.55854,42.48905],[-2.55838,42.48882],[-2.55816,42.48848],[-2.55792,42.48827],[-2.55785,42.4882],[-2.55759,42.48794],[-2.55737,42.48779],[-2.5573,42.48774],[-2.55705,42.48759],[-2.5569,42.48748],[-2.55681,42.48737],[-2.55666,42.48703],[-2.55644,42.48676],[-2.55628,42.4865],[-2.55607,42.48625],[-2.55581,42.48593],[-2.55559,42.48576],[-2.55511,42.48539],[-2.55436,42.48479],[-2.55391,42.48445]]}},{"type":"Feature","properties":{"id":669785867,"highway":"track"},"geometry":{"type":"LineString","coordinates":[[-2.55737,42.48779],[-2.55801,42.48737],[-2.55803,42.48733],[-2.55801,42.48728],[-2.55762,42.48697],[-2.55759,42.48691],[-2.55758,42.48685],[-2.55761,42.4868],[-2.55812,42.48656]]}},{"type":"Feature","properties":{"id":669786519,"highway":"track"},"geometry":{"type":"LineString","coordinates":[[-2.55792,42.48827],[-2.55772,42.48841],[-2.55744,42.48864],[-2.55735,42.48867],[-2.55728,42.48867],[-2.5572,42.48863],[-2.55662,42.48817],[-2.55548,42.48732],[-2.55528,42.48714],[-2.55508,42.48693],[-2.55495,42.48682],[-2.55465,42.48666],[-2.55449,42.48657],[-2.55421,42.48638],[-2.55405,42.48628],[-2.55391,42.48625],[-2.55356,42.48618],[-2.55339,42.48612],[-2.55291,42.48589],[-2.55271,42.48582],[-2.55236,42.48573],[-2.55219,42.48569],[-2.55191,42.48558],[-2.55162,42.48547],[-2.55099,42.48527],[-2.55077,42.4852],[-2.55065,42.4852],[-2.55063,42.48522],[-2.55057,42.48547],[-2.55053,42.48552],[-2.55044,42.48555],[-2.55031,42.48557],[-2.55,42.4855],[-2.54985,42.48549]]}},{"type":"Feature","properties":{"id":732129548,"highway":"residential","nombre":"Upeltegi kalea","izena_eu":"Upeltegi kalea","nombre_es":"Calle Bodegas"},"geometry":{"type":"LineString","coordinates":[[-2.5751,42.49574],[-2.57508,42.49583],[-2.57509,42.49588],[-2.5751,42.49601],[-2.57507,42.49621],[-2.57511,42.4964],[-2.57517,42.49661],[-2.57517,42.49678],[-2.57521,42.4969],[-2.57525,42.49706],[-2.57534,42.49724]]}},{"type":"Feature","properties":{"id":732129549,"highway":"residential","nombre":"Upeltegi kalea","izena_eu":"Upeltegi kalea","nombre_es":"Calle Bodegas"},"geometry":{"type":"LineString","coordinates":[[-2.5751,42.49574],[-2.57522,42.49573],[-2.57529,42.49573],[-2.57537,42.49575],[-2.57543,42.49577],[-2.57553,42.4958],[-2.57565,42.49582],[-2.57588,42.49585],[-2.57608,42.49584],[-2.57617,42.49582],[-2.57621,42.49579]]}},{"type":"Feature","properties":{"id":732129550,"highway":"residential","nombre":"Kale Nagusia","izena_eu":"Kale Nagusia","nombre_es":"Calle Mayor"},"geometry":{"type":"LineString","coordinates":[[-2.57208,42.49438],[-2.57195,42.49428],[-2.57171,42.49414],[-2.57163,42.4941],[-2.5716,42.49406]]}},{"type":"Feature","properties":{"id":732129551,"highway":"residential","nombre":"Assako zeharbidea","izena_eu":"Assako zeharbidea","nombre_es":"Travesía de Assa"},"geometry":{"type":"LineString","coordinates":[[-2.57458,42.49318],[-2.57442,42.49308],[-2.57422,42.49306],[-2.57389,42.49307],[-2.57376,42.49305],[-2.57351,42.49312],[-2.57309,42.49325],[-2.57276,42.49338],[-2.57254,42.4934]]}},{"type":"Feature","properties":{"id":813875769,"highway":"residential","nombre":"Errege kalea","izena_eu":"Errege kalea","nombre_es":"Calle Real"},"geometry":{"type":"LineString","coordinates":[[-2.57237,42.49448],[-2.57229,42.49452]]}},{"type":"Feature","properties":{"id":813875770,"highway":"tertiary","nombre":"Kale Nagusia","izena_eu":"Kale Nagusia","nombre_es":"Calle Mayor","ref":"A-4208"},"geometry":{"type":"LineString","coordinates":[[-2.57314,42.49471],[-2.57334,42.49477],[-2.57345,42.4948]]}},{"type":"Feature","properties":{"id":1063738400,"highway":"pedestrian","nombre":"Upeltegi kalea","izena_eu":"Upeltegi kalea","nombre_es":"Calle Bodegas","superficie":"concrete"},"geometry":{"type":"LineString","coordinates":[[-2.57509,42.49559],[-2.57495,42.49564]]}},{"type":"Feature","properties":{"id":1063738401,"highway":"pedestrian","nombre":"Upeltegi kalea","izena_eu":"Upeltegi kalea","nombre_es":"Calle Bodegas","superficie":"concrete"},"geometry":{"type":"LineString","coordinates":[[-2.57457,42.49542],[-2.57475,42.49554]]}},{"type":"Feature","properties":{"id":1063738402,"highway":"pedestrian","nombre":"Upeltegi kalea","izena_eu":"Upeltegi kalea","nombre_es":"Calle Bodegas","superficie":"concrete"},"geometry":{"type":"LineString","coordinates":[[-2.575,42.49575],[-2.57495,42.49564],[-2.57493,42.49558],[-2.57483,42.49552],[-2.57475,42.49554],[-2.57468,42.49557],[-2.57453,42.49562]]}},{"type":"Feature","properties":{"id":1099983629,"highway":"track"},"geometry":{"type":"LineString","coordinates":[[-2.57243,42.49837],[-2.5722,42.49835],[-2.57198,42.49833],[-2.57187,42.49831],[-2.57178,42.49825],[-2.57174,42.49815],[-2.57173,42.49808],[-2.57176,42.49799],[-2.57185,42.49775],[-2.5719,42.49749],[-2.57191,42.49738],[-2.57194,42.49724],[-2.57201,42.49715],[-2.57207,42.49704]]}},{"type":"Feature","properties":{"id":1189205657,"highway":"residential"},"geometry":{"type":"LineString","coordinates":[[-2.5759,42.49218],[-2.57646,42.4927],[-2.57648,42.49274]]}},{"type":"Feature","properties":{"id":1189205658,"highway":"residential"},"geometry":{"type":"LineString","coordinates":[[-2.57641,42.49285],[-2.57665,42.49327],[-2.57667,42.4933]]}},{"type":"Feature","properties":{"id":1189205659,"highway":"pedestrian","nombre":"Etxeandi kalea","izena_eu":"Etxeandi kalea","nombre_es":"Calle la Casona"},"geometry":{"type":"LineString","coordinates":[[-2.57221,42.49562],[-2.57234,42.49574],[-2.57204,42.49594]]}},{"type":"Feature","properties":{"id":1189205660,"highway":"tertiary","nombre":"Gasteiz etorbidea","izena_eu":"Gasteiz etorbidea","nombre_es":"Avenida de Vitoria","ref":"A-3216"},"geometry":{"type":"LineString","coordinates":[[-2.57314,42.49471],[-2.57308,42.49485],[-2.57304,42.49495],[-2.57302,42.49502],[-2.57302,42.49512],[-2.57306,42.49548],[-2.57306,42.49558],[-2.57306,42.49564],[-2.57304,42.49571],[-2.573,42.49576],[-2.57294,42.4958],[-2.57285,42.49584],[-2.57272,42.49587],[-2.57252,42.49593],[-2.57236,42.49597],[-2.57226,42.496],[-2.5722,42.49604],[-2.57214,42.49608],[-2.57201,42.49625],[-2.57174,42.49656],[-2.57147,42.49688]]}},{"type":"Feature","properties":{"id":1189205661,"highway":"residential","nombre":"Hamarren Kaleko igoera","izena_eu":"Hamarren Kaleko igoera","nombre_es":"Subida Calle el Diezmo"},"geometry":{"type":"LineString","coordinates":[[-2.57254,42.49538],[-2.57245,42.4955],[-2.57231,42.49555],[-2.57221,42.49562],[-2.57215,42.49566],[-2.57197,42.49576],[-2.57187,42.49588],[-2.57184,42.49596]]}},{"type":"Feature","properties":{"id":1189205662,"highway":"residential","nombre":"Hamarren kalea","izena_eu":"Hamarren kalea","nombre_es":"Calle el Diezmo"},"geometry":{"type":"LineString","coordinates":[[-2.57029,42.49636],[-2.57078,42.49633],[-2.57117,42.49628],[-2.57127,42.49623],[-2.5714,42.49583],[-2.57144,42.49572],[-2.57145,42.49568],[-2.57147,42.49539],[-2.57148,42.49534]]}},{"type":"Feature","properties":{"id":1189205663,"highway":"residential","nombre":"Gaztelu kalea","izena_eu":"Gaztelu kalea","nombre_es":"Calle el Castillo"},"geometry":{"type":"LineString","coordinates":[[-2.57245,42.4955],[-2.57256,42.49561],[-2.57267,42.49575],[-2.57269,42.4958]]}},{"type":"Feature","properties":{"id":1189205664,"highway":"residential","nombre":"Harategi kalea","izena_eu":"Harategi kalea","nombre_es":"Calle Carnicerías"},"geometry":{"type":"LineString","coordinates":[[-2.57194,42.4946],[-2.57153,42.49439],[-2.57151,42.4943],[-2.57148,42.49427],[-2.5715,42.49421],[-2.57145,42.49413]]}},{"type":"Feature","properties":{"id":1189205665,"highway":"residential","nombre":"Errege Kaleko etxartea","izena_eu":"Errege Kaleko etxartea","nombre_es":"Callejón Calle Real"},"geometry":{"type":"LineString","coordinates":[[-2.57292,42.49407],[-2.5727,42.49398]]}},{"type":"Feature","properties":{"id":1189205666,"highway":"residential","nombre":"Errege Kaleko zeharbidea","izena_eu":"Errege Kaleko zeharbidea","nombre_es":"Travesía Calle Real"},"geometry":{"type":"LineString","coordinates":[[-2.57259,42.49436],[-2.57238,42.4942],[-2.57232,42.4942],[-2.57214,42.49406]]}},{"type":"Feature","properties":{"id":1189205667,"highway":"tertiary","nombre":"Kale Berriko zeharbidea","izena_eu":"Kale Berriko zeharbidea","nombre_es":"Travesía Calle Nueva","ref":"A-4208"},"geometry":{"type":"LineString","coordinates":[[-2.57345,42.4948],[-2.5735,42.4948],[-2.57355,42.4948],[-2.5736,42.49478],[-2.57423,42.49461]]}},{"type":"Feature","properties":{"id":1189205668,"highway":"residential","oneway":"yes"},"geometry":{"type":"LineString","coordinates":[[-2.57329,42.49418],[-2.57353,42.49429]]}},{"type":"Feature","properties":{"id":1189205669,"highway":"residential","nombre":"Plazatxo Nagusia","izena_eu":"Plazatxo Nagusia","nombre_es":"Plazuela Mayor"},"geometry":{"type":"LineString","coordinates":[[-2.5716,42.49406],[-2.57145,42.49413],[-2.57138,42.4942],[-2.57127,42.49428],[-2.57116,42.49437]]}},{"type":"Feature","properties":{"id":1189205670,"highway":"residential","nombre":"Kale Nagusia","izena_eu":"Kale Nagusia","nombre_es":"Calle Mayor"},"geometry":{"type":"LineString","coordinates":[[-2.57208,42.49438],[-2.57229,42.49452]]}},{"type":"Feature","properties":{"id":1189205671,"highway":"residential"},"geometry":{"type":"LineString","coordinates":[[-2.57207,42.49704],[-2.57226,42.49683],[-2.57242,42.49672],[-2.57262,42.49662],[-2.57278,42.49659]]}},{"type":"Feature","properties":{"id":1189205672,"highway":"residential","nombre":"Gazteluaren Beheko zeharbidea","izena_eu":"Gazteluaren Beheko zeharbidea","nombre_es":"Travesía Baja del Castillo","tunel":"yes"},"geometry":{"type":"LineString","coordinates":[[-2.57279,42.49581],[-2.57282,42.4959]]}},{"type":"Feature","properties":{"id":1189205673,"highway":"residential","nombre":"Gazteluaren Beheko zeharbidea","izena_eu":"Gazteluaren Beheko zeharbidea","nombre_es":"Travesía Baja del Castillo"},"geometry":{"type":"LineString","coordinates":[[-2.57282,42.4959],[-2.57297,42.49608],[-2.57299,42.49612]]}},{"type":"Feature","properties":{"id":1189205674,"highway":"residential","nombre":"Gazteluaren Beheko zeharbidea","izena_eu":"Gazteluaren Beheko zeharbidea","nombre_es":"Travesía Baja del Castillo"},"geometry":{"type":"LineString","coordinates":[[-2.57254,42.49538],[-2.5726,42.49545],[-2.57273,42.49564],[-2.57279,42.49581]]}},{"type":"Feature","properties":{"id":1189205675,"highway":"residential"},"geometry":{"type":"LineString","coordinates":[[-2.5739,42.49284],[-2.57376,42.49305]]}},{"type":"Feature","properties":{"id":1189205676,"highway":"tertiary","ref":"A-4208","oneway":"yes"},"geometry":{"type":"LineString","coordinates":[[-2.57721,42.49547],[-2.57729,42.49548],[-2.57748,42.49547],[-2.57765,42.49545],[-2.57779,42.49542]]}},{"type":"Feature","properties":{"id":1189205677,"highway":"residential","oneway":"yes"},"geometry":{"type":"LineString","coordinates":[[-2.57721,42.49547],[-2.57719,42.49544],[-2.57715,42.49542],[-2.57711,42.49539]]}},{"type":"Feature","properties":{"id":1189205678,"highway":"residential","oneway":"yes"},"geometry":{"type":"LineString","coordinates":[[-2.57736,42.49543],[-2.57726,42.49545],[-2.57724,42.49546],[-2.57721,42.49547]]}},{"type":"Feature","properties":{"id":1189205679,"highway":"residential","oneway":"yes"},"geometry":{"type":"LineString","coordinates":[[-2.57702,42.49568],[-2.57721,42.49562],[-2.57751,42.49551],[-2.57765,42.49545]]}},{"type":"Feature","properties":{"id":1208500848,"highway":"track"},"geometry":{"type":"LineString","coordinates":[[-2.57997,42.48615],[-2.5797,42.48584],[-2.5793,42.48539],[-2.57922,42.48534],[-2.579,42.48538],[-2.5787,42.48543],[-2.57857,42.48545],[-2.57836,42.48544],[-2.57822,42.48544],[-2.57821,42.48529],[-2.57819,42.48498],[-2.57816,42.4837]]}},{"type":"Feature","properties":{"id":1208500849,"highway":"track"},"geometry":{"type":"LineString","coordinates":[[-2.57943,42.4867],[-2.57949,42.4865],[-2.57971,42.48637],[-2.57993,42.48623],[-2.57997,42.48615],[-2.58,42.48589],[-2.58003,42.48578],[-2.58014,42.48572],[-2.5804,42.48572],[-2.5806,42.48568],[-2.58103,42.48558],[-2.58117,42.48553],[-2.58135,42.48541],[-2.58148,42.48535],[-2.58163,42.48532],[-2.58183,42.48528]]}},{"type":"Feature","properties":{"id":1208500850,"highway":"track"},"geometry":{"type":"LineString","coordinates":[[-2.58135,42.48541],[-2.58118,42.48524],[-2.58085,42.4848],[-2.5806,42.48438],[-2.58055,42.48428]]}},{"type":"Feature","properties":{"id":1208500853,"highway":"track"},"geometry":{"type":"LineString","coordinates":[[-2.56046,42.4964],[-2.55969,42.49663],[-2.55928,42.49671],[-2.55884,42.49695],[-2.55817,42.49731],[-2.5576,42.49756],[-2.55714,42.49771],[-2.55652,42.49805],[-2.55573,42.4984],[-2.55582,42.49863],[-2.55593,42.49893],[-2.55595,42.49912],[-2.55593,42.49937],[-2.55594,42.49948],[-2.55604,42.49959],[-2.5561,42.4997],[-2.5561,42.4998],[-2.5561,42.49991],[-2.556,42.50001],[-2.55576,42.50013],[-2.55549,42.50032],[-2.55537,42.50047]]}},{"type":"Feature","properties":{"id":1208500854,"highway":"track"},"geometry":{"type":"LineString","coordinates":[[-2.56497,42.50184],[-2.56509,42.50194],[-2.56524,42.50205],[-2.56542,42.50214],[-2.5655,42.50221],[-2.56569,42.50252],[-2.56592,42.50296],[-2.56605,42.50313],[-2.56604,42.50336],[-2.56602,42.5035],[-2.56593,42.50371],[-2.56595,42.50377],[-2.56602,42.50383],[-2.5662,42.50394],[-2.56628,42.50404],[-2.56631,42.50417]]}},{"type":"Feature","properties":{"id":1208500855,"highway":"track"},"geometry":{"type":"LineString","coordinates":[[-2.55573,42.4984],[-2.55552,42.49805],[-2.55529,42.49753],[-2.55502,42.49726],[-2.55467,42.49712],[-2.55441,42.49698],[-2.55429,42.49685],[-2.55393,42.49636],[-2.55366,42.49611],[-2.55337,42.49586],[-2.55316,42.49576],[-2.55298,42.49567],[-2.55284,42.49551],[-2.55279,42.49535],[-2.55283,42.49519],[-2.55308,42.49492],[-2.55307,42.49481],[-2.55301,42.49471],[-2.55294,42.49467],[-2.55278,42.49466],[-2.55256,42.49466],[-2.55204,42.49469],[-2.55161,42.49468],[-2.55136,42.49471],[-2.55115,42.49473],[-2.5509,42.49472],[-2.5507,42.4947],[-2.55026,42.49464],[-2.54996,42.4945]]}},{"type":"Feature","properties":{"id":1208500856,"highway":"track"},"geometry":{"type":"LineString","coordinates":[[-2.55573,42.4984],[-2.55458,42.49878],[-2.55424,42.49892]]}},{"type":"Feature","properties":{"id":1309049776,"highway":"residential","nombre":"Gaztelu kalea","izena_eu":"Gaztelu kalea","nombre_es":"Calle el Castillo"},"geometry":{"type":"LineString","coordinates":[[-2.57439,42.49575],[-2.57457,42.49576],[-2.57465,42.49576],[-2.57494,42.49575],[-2.575,42.49575],[-2.5751,42.49574]]}},{"type":"Feature","properties":{"id":1309049777,"highway":"residential"},"geometry":{"type":"LineString","coordinates":[[-2.57439,42.49575],[-2.57439,42.49583],[-2.57432,42.49601]]}},{"type":"Feature","properties":{"id":1445744819,"highway":"unclassified"},"geometry":{"type":"LineString","coordinates":[[-2.58067,42.48889],[-2.58074,42.48884],[-2.58082,42.48879],[-2.58089,42.48875],[-2.58099,42.4887],[-2.58112,42.48864],[-2.58121,42.4886],[-2.58132,42.48856],[-2.58147,42.48849],[-2.58164,42.4884],[-2.58177,42.48834],[-2.58184,42.48831],[-2.58193,42.48827],[-2.58201,42.48822],[-2.58213,42.48817],[-2.58228,42.48809],[-2.58238,42.48801],[-2.58243,42.48794],[-2.58246,42.48786]]}},{"type":"Feature","properties":{"id":1531286189,"highway":"track","nombre":"GR-99 Camino del Ebro"},"geometry":{"type":"LineString","coordinates":[[-2.56655,42.49748],[-2.56649,42.49753]]}},{"type":"Feature","properties":{"id":1535261367,"highway":"residential","nombre":"Avenida de la Poveda","oneway":"yes"},"geometry":{"type":"LineString","coordinates":[[-2.57563,42.49237],[-2.57559,42.49239],[-2.57556,42.4924],[-2.57554,42.49241],[-2.57551,42.49241],[-2.57549,42.49241],[-2.57546,42.49241],[-2.57544,42.49241],[-2.57542,42.49241],[-2.57539,42.49241],[-2.57537,42.49241]]}},{"type":"Feature","properties":{"id":1535261368,"highway":"residential","nombre":"La Poveda etorbidea","izena_eu":"La Poveda etorbidea","nombre_es":"Avenida la Poveda","oneway":"yes"},"geometry":{"type":"LineString","coordinates":[[-2.57539,42.49256],[-2.57555,42.49244],[-2.57559,42.49242],[-2.5756,42.4924],[-2.57562,42.49239]]}},{"type":"Feature","properties":{"id":1535261369,"highway":"tertiary_link","oneway":"yes"},"geometry":{"type":"LineString","coordinates":[[-2.5755,42.49146],[-2.57548,42.49152],[-2.57548,42.49157],[-2.57547,42.49159],[-2.57546,42.49161],[-2.57543,42.49167]]}},{"type":"Feature","properties":{"id":1535261370,"highway":"tertiary_link","oneway":"yes"},"geometry":{"type":"LineString","coordinates":[[-2.57553,42.49141],[-2.57551,42.49144],[-2.5755,42.49146],[-2.57549,42.49147],[-2.57547,42.49148],[-2.57545,42.4915],[-2.57543,42.4915],[-2.57541,42.49151],[-2.57538,42.49151],[-2.57536,42.49152],[-2.57527,42.49152]]}},{"type":"Feature","properties":{"id":1535261371,"highway":"tertiary_link","nombre":"Soto bidea","izena_eu":"Soto bidea","nombre_es":"Camino del Soto","oneway":"yes"},"geometry":{"type":"LineString","coordinates":[[-2.57544,42.49173],[-2.57551,42.49156],[-2.57552,42.49152],[-2.57553,42.49147],[-2.57553,42.49141]]}}]}
